area,item_code,target2_code,addr2,lng,addr1,open_info,target2_etc,type,close_info,zipcode,img_name,name,target1_code,target1_etc,idx,item_etc,lat
경남,2,2,102호,129.0229219,경남 양산시 동면 금오12길 30-17,10:30~6:30,,99,"매주수요일,2.4째 일요일 정기휴무",50639,6e00c8ebb21b423ca9efad649ed92890.jpg,돼지작업실 ,99,급식카드소지자 1카드1제품 50%,913,,35.31488902
대전,99,"01,02",상가동 111호 플레인베이글,127.3385021,대전 유성구 문화원로 13,월~금10시부터 19시 토 10시부터 16시,,1,매주 일요일 월요일 휴무,34166,794a1e7cc25c488db5ea7050ca95c14c.png,플레인베이글,2,,912,,36.36352529
서울,99,"01,02",1층,127.0972138,서울 중랑구 신내로10길 29,10:00 ~22:00,,1,15:00 ~16:00,2069,,마석감자탕,1,,911,뼈해장국 / 돈가스 / 뚝배기불고기,37.60451914
서울,1,1,지하2층 Bread.co 브레댄코,126.9477004,서울 동작구 상도로 지하 272,07:00-22:00,,1,,7032,30cf962d1bfa49b3982b3ebd06ec84f6.jpg,브레댄코,2,,910,,37.50320805
강원,99,"01,99",1층 으뜸플러스안경 원주점,127.9483879,강원 원주시 원일로 122-1,09:30 - 20:00,추천,99,매주 일요일,26428,,으뜸플러스안경 원주점,1,,909,안경,37.35046544
경북,99,"01,02",썬하우스 2층 참사람태권도장 ,129.1781235,경북 경주시 충효5길 9-19,2시~21시,,2,"토,일 공휴일",38060,5d9fbb64167b43428af4795a8b06121f.jpg,경주 참사람 태권도장,2,,908,수강료,35.84469062
경기,1,"01,02",B동 115 카페메르시,126.7737861,경기 고양시 일산동구 정발산로42번길 24,평일 11-19시 주말 12-19시,,1,,10403,72fe02d00dac45db973d84f3a1a4d2b7.jpg,카페메르시,1,,907,,37.65618367
강원,99,99,스타에듀빌딩 4층 405호,127.8714197,강원 원주시 지정면 도원로 20,14:00~22:00,결식아동. 한부모가정. 기초생활수급,2,토.일,26354,,우리학원,2,,906,초.중등 종합,37.37312839
경기,99,1,"복합상가 2층, 작심스터디카페",126.8321788,경기 고양시 덕양구 화정동 1000-5,오전 08:30 ~ 익일 01:30,,2,,10503,02c517e57c244391b7ae6d6a4c636882.jpeg,작심스터디카페 고양화정점,1,,905,1개월 이용권,37.63010628
서울,99,1,1층 우측,127.0605774,서울 동대문구 휘경로 6-8,오전 11시~오후 7시,,1,매주 월요일 휴무,2440,f343267741984b2bae35970f7dc3eeed.jpg,이문동辛냉면 ,1,,904,"냉면, 만두",37.59580646
경기,1,"01,02",A9-046 ,127.2064677,경기 하남시 미사대로 550,09:00~23:00,,2,,12925,,라바유아체육 ,2,,903,,37.55676934
강원,2,"01,99",6층 리스펙스포츠클럽,128.9116089,강원 강릉시 하평1길 14,13:00~21:00,"한부모가정, 차상위계층, 기초생활수급",2,매주 일요일 휴무,25566,4fe7e87c786a44ae895d78c408477709.png,리스펙스포츠클럽,1,,901,,37.77124333
경북,1,1,1층 한돈참숯꼬기,128.3023478,경북 구미시 선산읍 선산중앙로 101,16:00-23:00,,1,"매월 첫째,셋째주 월요일",39119,1c49dcb928244963818d9b1b5ed1fb82.png,한돈참숯꼬기선산점,1,,900,,36.24315468
서울,99,99,2층,127.0965881,서울 송파구 삼학사로 41,Am9_pm10,가정형편이 어려워 운동이 힘든 아이,2,,5586,,바디안필라테스,1,,899,개인 레슨,37.50102385
서울,1,"01,02",1층 동경규동,126.8961494,서울 마포구 매봉산로2길 68,11:00 ~ 20:00,,1,"15:00~17:00 휴무시간 / 공휴일, 일요일 휴무",3930,db74628119934a94a13b57d621cdd15c.jpg,동경규동상암,3,,898,,37.57637326
경북,2,1,을찌로국물떡볶이,129.2166136,경북 경주시 황성로16번길 34,오전11~오후23:40,,1,,38087,35edd96bfbef4772b2ac03c80b88673f.jpg,을찌로국물떡볶이황성점,2,,897,,35.8628069
충남,1,1,1층 한그릇,127.008079,충남 아산시 온화로 97,오전11시~오후8시,,1,매주 수요일휴무,31574,a4535a3b131342808ad8573661a71a50.jpg,한그릇,2,,896,,36.776725
광주,2,"01,02",2층,126.818352,광주 광산구 임방울대로 142-10,PM14시~20시,,2,공휴일,62318,1e5a3220cfbb4330a4724abbe25548b2.jpg,에프비아이아카데미학원,1,,895,,35.1737094
경기,1,1,A동 105호,126.963144,경기 의왕시 어내들로 5,09:00~19:00,,1,,16046,71e0ad31a2af49bb9a2d12fdcf4c4a08.jpg,정다방,1,,894,,37.36159365
전남,1,"01,02",1층 만물상회,127.669923,전남 여수시 신기남2길 24,11:30~20:00,,1,15:00~17:00 홀 브레이크 / 매주 일요일 휴무,59687,b4d7ccb1f590402bb48dab0297d3d635.jpeg,만물상회,2,,893,,34.7601944
서울,1,"01,99",상가동 2층 201호 용인대금메달태권,127.0569993,서울 노원구 동일로250길 18,12:00 ~ 22:00,사회적배려대상자,2,토. 일. 공휴일,1623,422e88b1d9f64b30907e25cb4c9f5f59.jpg,용인대금메달태권도,1,,892,,37.68184246
서울,99,"01,02",류마타워 1층 111호 엘로이카페,126.8255148,서울 강서구 공항대로 164,08:00~19:00,,1,2주 4주 일요일,7807,09259e6692f040c190b505b51fb33965.jpg,엘로이카페,2,,891,카드 제시 할 시 1인당 음료 한잔,37.55932597
서울,2,1,용산역내인포메이션앞꽃집,126.9647415,서울 용산구 한강대로23길 55,08~23,,99,연중무휴,4377,abef114865004ac9af338c6da174d31c.jpg,인스타일,1,,889,,37.5297718
울산,1,"01,02",상가 3호 칭찬반찬또바기,129.3215028,울산 남구 수암로116번길 59-21,09:00~20:00,,1,"일요일,공휴일휴무",44755,0274259680944dd2a18fcca3ef6e8d1d.png,칭찬반찬 또바기 ,1,,888,,35.52361938
경기,99,"01,02",지하 1층 청년몰 숩,126.8659882,경기 안산시 상록구 석호로 315,12:00~19:30,,1,"매월2,4째 일요일 ,매주월",15541,1996eb34a70c4a6a8676f53a2a9163ea.jpg,숩:,1,,887,스테이크,37.29374921
경기,1,1,보광로188,126.9108976,경기 고양시 덕양구 벽제동 563-3,오전11시~저녁11시,,1,무,10267,4a929d71fad24f959bba8fa0b33a2f47.jpg,캠핑하고싶닭 ,2,,886,,37.73111028
전남,99,"01,99",상가 3층 하버드스터디카페 마동점 ,127.6887526,전남 광양시 진등길 55-5,24시간,이용대상 :고등학생만이용가능,2,무,57778,244112cd732d4d84b42b552083bafea3.png,하버드스터디카페 마동점,1,,885,일일권,34.95287143
서울,99,"01,02",태릉해링턴플레이스 상가 2층 올가드림,127.081601,서울 노원구 공릉로34길 86,오전10시~오후8시,,99,"월요일,토요일,일요일",1817,,올가드림뷰티 공릉점,1,,884,"모공케어,여드름케어",37.62576537
전북,2,1,언니네 찬,126.7013851,전북 군산시 나운4길 29-4,11시~7시,,99,일요일 공휴일,54139,8e182d5cfdee48c4ae75e4ae4b81006d.jpg,언니네 찬,1,,883,,35.96434208
충남,1,1,3층 시티아일랜드 탑텐키즈,126.6763139,충남 홍성군 홍성읍 조양로247번길 9,10:30~21:00,,3,연중무휴,32220,cd2d2450eff54029835383fb8df07ca6.jpeg,탑텐키즈 홍성 시티아일랜드,1,,882,,36.60103944
경기,2,1,1층 아이노스,126.7797645,경기 고양시 일산동구 산두로213번길 22,10월 10일,,1,매주 일요일,10358,ec5058e863434bb48fbb3b5f108957d4.jpeg,아이노스,2,,881,,37.67460163
부산,99,"01,02",1층 바로올레,129.0175899,부산 서구 고운들로 50-1,오전11~오후8시,,1,매주일요일,49233,ac73dd567d8d48c18dd02c6391ea6a32.jpg,바로올레,2,,880,점심특선스테이크(치킨.목살.윗등심),35.10636605
전남,99,"01,99",2층 마스터짐,127.48268,전남 순천시 중앙로 310,07:00~22:00,어려움이 있는 모든 아이,99,"일요일, 공휴일",57923,639e94b516b64f5e9dd92298eccdb17d.png,마스터짐,1,,879,"헬스,킥복싱,엘리트선수트레이닝",34.97329281
경기,1,"01,02",(행정리)103호,126.9148777,경기 화성시 향남읍 행정서로1길 52,오전10시-오후7시,,1,연중무휴,18598,c0203ae49f304738bfae7e7bb73ed121.jpg,곡간 수제도시락 ,2,,878,,37.12918797
강원,,,1층 로우라이트,127.7286482,강원 춘천시 중앙로77번길 33,12월 19일,,99,매수 수요일 휴무,24354,,로우라이트,,,877,,37.87753384
경기,1,1,1층,127.1660198,경기 남양주시 다산중앙로82번안길 131-70,10~19,,2,,12249,a080c800348f4f079ff12a28f5dcca2e.jpeg,아르떼칠드런 다산점,1,,876,,37.61297801
서울,99,1,1층,126.929991,서울 서대문구 연희로 89-8,오전11시~밤9시,,1,매주 일요일,3708,01787a4713cb404cbcc72e5f49180ffc.jpg,황카페,1,,875,"로제떡볶이, 음료",37.56643453
경기,,,동양아파트 상가동,126.8869172,경기 광명시 하안로 196,,,1,,14313,0aa97aee9da64d799fc93a6de662666d.jpg,뚜레쥬르 소하동양점,99,소방관,874,,37.45464833
충남,99,1,1층,127.0894367,충남 논산시 중앙로410번길 13-4,오전11시~오후9시,,1,없음,32974,,짬뽕지존논산점,1,,873,짜장면,36.20176167
서울,99,"01,02",,127.040892,서울 강남구 선릉로111길 33,9~19,,2,없음,6103,afb257251b1244c4ae21e3a8b2272213.jpeg,한국전문연주자협회,3,,872,티켓,37.51007091
부산,2,"01,99",2층 더건강한치과 ,129.0865499,부산 동래구 충렬대로 250-1,평일  오전10시~오후6시30분 화요일 저녁8시까지,독거노인,99,오후1시~오후2시까지 토요일오후1시30분까지 공후일 휴,47877,633e0ad134624f908a757c1e884af72e.jpg,더건강한치과 ,99,가족,871,,35.20100443
경북,1,1,칼국수한그릇 사동점 ,128.7538617,경북 경산시 백양로 109,11시~20시,,1,"평일15시-17시 브레이크타임, 매주수요일휴무",38599,,칼국수한그릇 사동점 ,1,,870,,35.81382915
충남,99,1,101호,127.4067613,대전 유성구 문지로 319-1,10:00-21:00,,1,14:00-17:00,34050,88cdf642a5a04403ba95a0185ad99857.jpg,치락골순대,1,,869,"순대국밥,뼈해장국,맛보기순대",36.39521382
경남,99,"01,02",1층 총각축산 (kb빌딩),128.6138315,경남 창원시 의창구 팔용동 101-1,09:00 ~ 22:00,,1,연중무휴,51373,a5941dce96424ee4be07bee7fe47b343.jpg,총각축산 팔용점,1,,868,"양념육 전품목, 삼겹살",35.2557171
대구,1,1,리더스뷰 204호(2층) 역세권,128.459699,대구 달성군 유가읍 봉리 614,평일10:00~22:00  주말 11:00~22:00,,1,화요일,43018,bfb9a86acf7f4f42872e95c4a068f3fd.png,역세권,2,,867,,35.69200229
경기,99,1,1층 갓츠킹,126.9162245,경기 평택시 청북읍 청북남로 253,오전11시~오후9시,,1,연중무휴,17808,286c16d1baaf43909272ad1d5bf1da93.jpg,갓츠킹평택청북점 ,1,,866,도시락,37.01889542
경기,99,1,제주커피,126.8161049,경기 화성시 우정읍 3.1만세로 16,am 8:30 ~ pm 9:00,,1,없어요.,18567,647d08df96264cd3abe15bf6cb5aa6ad.png,제주커피 화성조암점,99,가족,865,음료 메뉴 전체에서 선택,37.08130125
기타,,,풍남동 3가,127.1534818,전북 전주시 완산구 한지길 66,,,99,,55041,00d30fd56a614090b511a55e39455131.png,유한회사 미래나르기 ,,,864,,35.81738929
경기,1,1,202호 스페로수학학원,126.7345764,경기 시흥시 배곧4로 103,,,2,,15010,4833e722b692462992ecec3dc59ea193.jpg,스페로수학학원,1,,863,,37.37385952
서울,99,1,5층 티나에스테틱 ,126.9776984,서울 관악구 남현길 7,11시~10시,,99,일요일 공휴일,8806,c9af89d43c184c9f83c961162d90f479.jpg,티나에스테틱 ,1,,862,두피케어,37.47606844
경기,1,"01,02",1층,127.1742935,경기 포천시 호국로 1149,07:00-21:00,,1,일요일후무,11158,6f6d9361de15407aa976d52445424fe9.png,올레찹쌀꽈배기 ,99,상황에따라,861,,37.86573917
강원,99,,1층(유)늘푸른환경,128.4657275,강원 영월군 영월읍 은행나무6길 13-18,08:30~18:00,,99,,26237,ff09d0b7d7d545968e1138e5b4e3a1e8.png,(유)늘푸른환경,99,환경개선(청소)부족 아이거주 세대,860,거주지대청소및 소독,37.17882178
울산,1,1,상가105호,129.4377922,울산 북구 강동산하2로 43,11~22,,1,일요일,44264,aff9c59efff9482ca86197fed1e1256d.jpg,용식이족발(강동점),3,,859,,35.62517082
경기,99,1,103호 다비치안경원 부천상동역점 ,126.7531635,경기 부천시 상동로 78,10:00~21:00,,3,"설,추석 당일 휴무",14545,4cee5ee2cda94f489608c0fe294e6033.jpg,다비치안경 부천상동역점,99,"어려운가정,가족모두혜택을드리고싶습니다",858,안경 10만원지원금액,37.50404618
충남,1,1,1층,126.9129498,충남 부여군 부여읍 궁남로 5,오전 9시 ~ 오후 5시,,1,없음,33166,5c0fa06a2e364666a0b1c681aea1713f.jpeg,사비면옥,1,,857,,36.27569722
서울,99,"01,02",306호,126.8871007,서울 금천구 디지털로9길 46,오전 10시 ~ 밤 10시,,2,일요일,8512,3ec8e39606be4f42914f9bd245532af3.png,티엔티 스피치,1,,856,보이스 트레이닝 1회 (예약 필수),37.48005881
서울,1,"01,02",지하 1층 13호,126.9606899,서울 관악구 남부순환로 1904,11시~10,,1,없음,8792,0c28f05534e04c0a865da8a6d47b9423.jpg,하루하나,2,,855,,37.47786558
전남,1,"01,02",삼대떡볶이 남악점,126.4725694,전남 무안군 삼향읍 남악리 1650,낮12시 ~ 밤 11시,,1,,58568,9b20ea7586c3482f83e2212b375f896f.jpg,삼대떡볶이 남악점,3,,854,,34.81113985
경남,1,1,메종드테라스 139호 투고샐러드,128.6817807,경남 창원시 성산구 상남로 107,매일 10:00~21:00,,1,브레이크타임 15:30~16:30,51494,25cace0acdd9473bb2e1a7a6535f91c5.jpeg,투고샐러드 창원상남점,1,,853,,35.22311174
경기,99,"01,02",상가동 1층 117호(파파후라이돈),127.0500435,경기 수원시 영통구 매영로 84,오후1시~밤11시,,1,,16542,b712dd0fa6f04c51ae2ddd65288aa290.jpg,파파후라이돈,1,,852,오리지널후라이돈 1박스,37.26819975
강원,99,"01,02,99",센트로빌딩4층.차일드유,128.870051,강원 강릉시 선수촌로 67,월~금 1:30-7:30,원비 50% 감면,2,"토요일, 일요일 휴무",25522,1b6c8fb12c0b49fdaff9220272ea4142.jpg,차일드유 유천캠퍼스,1,,851,원비 50% 할인,37.75684619
서울,99,"01,02",1층 더카페 이네스트점,126.8900295,서울 금천구 범안로 1155,07:30~21:00,,1,,8587,09ea7f4adc0f413fb7e430694fff1409.jpg,더카페 이네스트점,2,,850,"음료1, 베이커리1",37.46681871
경기,99,1,1층 다비치안경,126.8351966,경기 고양시 덕양구 충장로 140,10:00 ~ 21:00,,99,명절 당일 휴무,10495,c043a4f3287647a19c711dd3d97bf2de.jpg,다비치안경 행신점,1,,849,안경테+안경렌즈,37.62473958
서울,1,1,성원상떼뷰오피스텔 107호 루트비커피,127.0626068,서울 성동구 아차산로15길 10,07:00 ~ 18:30,,1,일요일 (임시휴무있음),4798,d6cd6ec5b9634719b09c62427c8b4cb2.png,루트비커피 성수점,1,,848,,37.54369624
대전,99,1,1층 HEIMISH 헤이미쉬 카페,127.3402434,대전 서구 관저동로 85,오전11시~오후22시,,99,매주 일요일 격주 휴무,35378,96fe7adf0f144abbafb82b532738e3ab.jpg,헤이미쉬카페,1,,847,디저트와 음료 제공,36.29974788
경기,2,1,앤의식탁,126.8386024,경기 안산시 상록구 사동 1570,평일10~10   토 11~9 일 1~9,,1,평일 3~4  브레이크타임,15577,97bec1194c49492b8c0f3b43b73a7766.jpg,앤의식탁,2,,846,,37.3010729
경남,99,1,세원빌딩 1층 가마치통닭 ,128.7293339,경남 김해시 진영읍 김해대로361번길 13,"평일:4시ㅡ새벽1시, 주말ㆍ공휴일:1시ㅡ새벽1시",,1,없음,50862,,가마치통닭진영점,2,,845,통닭  1ㅡ2마리 +음료,35.30805074
서울,,"01,99",1층,127.0266419,서울 강북구 덕릉로 115,,"입양보류아동,무연고아동",1,,1069,,인생푸드,,,844,,37.63513651
전남,99,1,73,126.9059986,전남 장흥군 장흥읍 중앙로 73,"평일 9시~7시,토요일 5시까지",,99,"일요일,공휴일 휴무",59328,5a1423e0ed574140a4ad7b5b41e4ff74.jpg,미래컴퓨터,2,,843,컴퓨터 프로그램 수리비 무료,34.68229697
대구,2,"01,99",상가 3층 센트럴1리딩영어 상인캠퍼스,128.5463527,대구 달서구 송현로7길 20,오후1시~7시,영어공부를 하고싶은데 학원비가 없는 ,2,"토,일,공휴일",42802,32ffe653f7494c7397892712d5331ae1.jpg,센트럴1리딩클럽영어교습소(상인캠퍼스),1,,842,,35.82091867
울산,99,99,2층,129.3454393,울산 중구 고복수길 6,1시~5시,성적우수 초등생,2,"주말, 공휴일",44489,befa0b9467534438b3085b4ad2eaa680.jpg,제이앤제이뮤엠영어영재수학,1,,841,영어 강의,35.57343898
인천,1,1,백탄깍두기,126.6801185,인천 연수구 벚꽃로 130-3,평일 오후4시~11시 / 주말 오후 2시~11시,,1,,21927,5fc55c6eff084587ba9ff4b257d49989.jpg,백탄깍두기,1,,840,,37.41620815
울산,99,1,1층,129.4273111,울산 동구 대송로 19,9:30-20:30,,1,없음,44053,d6acf9059d6d45c5a22467ad8d4fd6a3.jpg,하남성,2,,839,짜장면 볶음밥 탕수육,35.50409284
경기,99,1,미니스톱용인외대점,127.2533935,경기 용인시 처인구 모현읍 외대로 36,07시~22시,,1,명절,17035,e39df9cc1b19490a90d7bb452b7d6aa7.jpg,미니스톱용인외대점,2,,838,"김밥,샌드위치,도시랑등",37.33580702
전북,2,"01,02,99",1층 마주봄펫,126.7194765,전북 군산시 수송동로 15,11:00 ~ 19:00 예약제로 운영되어 변동가능,"기초생활수급자, 유기견입양자",99,일월휴무 예약제로 운영되어 변동가능,54100,5c0c6f96d7cb4ce4827b48e84765fa3c.jpeg,마주봄펫,99,제공대상 가정의 반려견,837,,35.96101295
경기,99,"01,02,99",동탄아이티밸리2차 317호,127.1034866,경기 화성시 동탄대로 706,가게는 아니고 사무실입니다,,3,,18463,1110dc082a294794921914657095d4bf.jpg,엘리사,99,기관이나 가정,836,방향제,37.21472131
경기,1,1,소노펠리체 b동 101호,127.2860625,경기 용인시 처인구 양지면 교동로 10,8~18시,,99,연중무휴 예약제,17158,e93a4c8f6dd44532b914f014940fe069.jpeg,케미 케이크,1,,835,,37.23569684
경기,1,1,상가104호 파더스김밥앤카페,126.7580017,경기 파주시 와석순환로 16,am10:00~pm8:00,,1,없음,10908,aed85a673e044c3f9cbdd2cbfc3c50f5.jpg,파더스김밥앤카페,1,,834,,37.71091051
서울,99,1,203호,127.1637038,서울 강동구 동남로82길 120,10월 20일,,3,공휴일 일요일,5224,bc173fd2a34149a3850d85a3ca8dbc70.jpeg,벨라로그,1,,833,주니어컷,37.5600131
경기,2,1,104호 티니샵미니,127.5061034,경기 양평군 양평읍 공흥리 293-1,11월 19일,,99,"일요일, 공휴일",12550,569e13035a67420aa01f51ab419dd93b.jpg,티니샵 ,1,,832,,37.49343831
전북,99,1,세컨페이스 안경원,127.1170206,전북 전주시 완산구 용머리로 62,09:00-20:30,,99,연중무휴,55081,2108a5e45f9d4ac88f9ed5f472bad6e3.jpg,세컨페이스안경 전주점,1,,831,학생안경.안경렌즈,35.80633056
경기,1,1,1층 ,127.1070938,경기 성남시 분당구 성남대로331번길 9-13,11:30~24:00,,99,매주 일요일,13558,025551e3de414f32ba03a16f2459df4d.jpg,미담,99,,830,,37.36450664
경기,2,"01,02",1층 105호,127.1884631,경기 하남시 미사강변대로54번길 125,오전 10시~오후 9시,,1,매주 일요일,12919,5be1fed600654b3c8fe823cd59e04e75.png,미사상회,1,,829,,37.55791488
경남,99,"01,02",.,127.904617,경남 거창군 거창읍 개화1길 111-27,08:00~17:00,,1,공휴일 휴무,50124,,사과한모금,1,,828,사과즙(거창한사과 그 두번째 이야기),35.70197968
서울,2,1,2층 주크(모드베베),127.037945,서울 도봉구 창동 703,,,99,,1428,60ff90ee67534226bb10b8ec9db5f5ab.jpg,주크(모드베베),,,827,,37.65304462
경기,99,"01,02",503,127.207591,경기 하남시 하남대로 809,10~21,,99,빨간날은 쉽니다.,12957,79fc5cc3709b4a579599fb64c8f56f7f.png,아라뷰티케어 ,1,,826,기본케어 & 여드름케어,37.54105884
경기,99,"01,02",3층 베스트탁구교실,126.722374,경기 시흥시 중심상가로 38,09~24,,99,없음,15040,,베스트탁구교실,2,,825,단식/복식,37.35266699
인천,99,1,선학하키경기장 103호,126.7017983,인천 연수구 경원대로 526,09:00-18:00,,2,연중무휴,21908,228cf8a528a048f182746a32b7f33460.png,한국심폐소생술교육원,1,,824,심폐소생술 교육 및 병의원 의료지원,37.43075584
제주,1,"01,02",올드캡,126.3019133,제주특별자치도 서귀포시 안덕면 녹차분재로 58,오전11시-오후7시 (라스트오더:오후6시30분),,1,매주 수요일,63521,1cf4a0c9a9184110a379be95f93d0022.jpg,올드캡,2,,823,,33.29087359
충남,,1,동근이숯불두마리치킨,127.0116068,충남 아산시 권곡동 534-15,오후4시~익일 새벽1시30분,,1,,31519,,동근이숯불두마리치킨,1,,822,,36.7865694
경기,1,1,거묵프라자 303호,126.7182868,경기 파주시 청석로 264,12:00-23:00,,1,매주 월요일,10874,5b998ad889244574af4062f698272075.jpeg,백년손님서서갈비무한리필,2,,821,,37.72558371
전남,1,1,맘마쿡,127.6986085,전남 광양시 중마청룡길 29,09:00~18:00,,1,"토,일,공휴일",57786,651bed953cea4cf68010fcc05e7e1408.jpeg,맘마쿡,99,아이 양육자,820,,34.94231132
서울,99,1,1층,127.0415619,서울 서초구 강남대로12길 50,11시30~14시,,1,14시~17시,6779,1a398b9021244e6eb11ee23f97b2c2c8.jpg,해물과차돌박이 ,2,,819,점심단품메뉴,37.47081116
서울,2,1,현대백조아파트상가 a동 102호,127.1292595,서울 송파구 오금동 11,오후 3시~새벽 1시,,1,없음,5652,1ff26b78ea274cc1be1bd18d8b206cb4.jpg,1974,2,,818,,37.50939106
경기,1,1,상가 돌빙커피,127.1852913,경기 용인시 처인구 명지로16번길 26,10:00-22:00,,1,"매월 첫째 월,화 휴무",17054,9a9b9f64ceaf4103965a59ed87fb43d6.jpeg,돌빙커피본사직영점,2,,817,,37.23560688
경기,99,1,라베니체마치에비뉴2차 1층 105호,126.67961,경기 김포시 김포한강2로23번길 72,평일 17:00~24:00  주말 12:00~24:00,,1,주말 15:00~17:00 휴무 매주 월요일휴무,10090,5678e5fdac954d6cbaca53e73295c28c.jpeg,두리상회,2,,816,파스타&피자,37.64018635
인천,1,1,1층 삼화리,126.6989662,인천 남동구 문화로 83-1,Pm3:00~am01:00,,1,없음,21568,,삼화리,2,,815,,37.44662287
강원,99,1,스테이지풀빌라카페,128.5607389,강원 고성군 토성면 토성로 124-1,09:00~19:00,,1,연중무휴,24764,,스테이지풀빌라카페,3,,814,카페음료,38.25651478
인천,99,1,102호 비바살롱,126.6558606,인천 연수구 옥련로 147,11:00~20:00,,99,따로없음.매주일요일 휴무,21954,b568537066e04843ac739262e2f93a2e.jpeg,비바살롱,1,,813,컷트,37.42564221
서울,1,1,1층 ,126.911789,서울 은평구 갈현동 509-1,09~19시,,3,,3325,08fbc2ac75834f45a21ed10180076746.jpg,선경하우징,1,,812,,37.61519564
경기,1,1,달리는커피여주점,127.6405712,경기 여주시 청심로 185,오전9시~오후8시,,1,일요일정기휴무,12620,b6a8e6a762214a13bf5644d38c7d528d.jpg,달리는커피여주점,1,,811,,37.2967041
경기,99,1,백두프라자 101호 악마국수,126.9541335,경기 안양시 동안구 평촌대로217번길 27,11시~22시,,1,16시~17시,14072,e274dc2484ec42eeb2e8a6c7b3f2c762.jpeg,악마국수,1,,810,"Noodle, rice, side",37.39032941
경기,1,1,H스퀘어 S동  1층 116호,127.1086985,경기 성남시 분당구 판교역로 231,,,1,,13494,,이디야커피판교테크노밸리점,2,,809,,37.40133487
서울,99,99,405호,127.0359669,서울 도봉구 도당로 76,wannabegoods_lux,마스크가 필요한 어린이,99,"토,일",1343,e2a4090e32ce4669b6570cb8d9354a4a.jpg,워너비굿즈 ,2,,808,어린이 구리사마스크,37.66457204
부산,99,"01,02",1층,129.0115807,부산 사상구 주례로 7,17:00-02:00,,1,매주일요일,47006,577b139c17af4cc08e7180fd83ea6160.jpg,육회푀유,3,,807,육회비빔밥 불고기비빔밥,35.1503976
경북,99,1,로제12,129.341864,경북 포항시 남구 효자동 603-6,11.30~21.00,,1,없음,37835,80e0f14648e14473857728403eab47fc.png,로제12,1,,806,파스타 피자 라이스,36.00558454
서울,1,1,1층,126.9672412,서울 종로구 옥인길 28,24시간,,99,없음,3034,1f8123a650ae43529c4594ee4080c07f.jpg,콤콤오락실,1,,805,,37.58097324
충남,1,"01,02",1층 생과일다방,127.14965,충남 천안시 동남구 대흥로 301,08:00 ~ 21:00,,1,매주 일요일,31121,72848b44bfc040c0ad51cf5d3c7721f8.png,생과일다방,2,,803,,36.81480453
경북,1,1,103호 104호,128.4296948,경북 구미시 산동읍 신당리 1407,11:00 ~ 21:00,,1,15:00 ~ 17:00,39464,1b9daf10ad294df4b3697a79583ea82c.jpeg,풍국면산동점,1,,802,,36.1553143
전북,2,1,1층,127.1170468,전북 전주시 완산구 전룡로 36,10:00 ~ 23:30,,1,비 정기적,54954,dca49f51d0aa43ee824014d630499607.jpg,지정환피자서신진북점,2,,801,,35.8263798
부산,1,1,나드리김밥,129.2839465,부산 기장군 장안읍 길천1길 14,9:30~8:30 브레이크 2시4시까지,,1,매주 일요일,46036,,나드리김밥고리점,1,,800,,35.32902987
경기,,"01,02",303동201호,127.2021781,경기 남양주시 진접읍 부평로48번길 13,3시-10시,,2,,12022,9306cb9a0cab435187987d4959b1b555.jpg,정은희 개인과외,1,,799,,37.7399527
경기,1,"01,02",뉴욕야시장,127.0452854,경기 수원시 영통구 매탄로108번길 52,16:00-02:00,,1,일요일,16545,dd6eca14863f41909a974db6bffb3b30.jpg,뉴욕야시장영통구청점,3,,798,,37.259432
충북,2,1,엘마트네 수산코너,127.4877363,충북 청주시 청원구 중앙로 91,09시부터21시,,99,없음,28538,,다정유통우암점,1,,797,,36.64539556
부산,1,"01,02",2층 밥상극장,129.0584846,부산 부산진구 중앙대로635번길 11,오전11시-오후3시,,1,"토,일 휴무일",47351,150de3cb6d8d4cb0b8cd6fd7537450a0.png,밥상극장,2,,796,,35.14920364
부산,2,1,1층 오늘쉐프,129.0498556,부산 부산진구 새싹로 184,오전9시-오후9시,,1,휴무일-명절,47132,1cdb90e3bfaa4ce387d2965a0fdab260.jpg,오늘쉐프연지점,1,,795,,35.172508
서울,1,1,2층 오후의과일,126.9534873,서울 관악구 봉천동 1599-4,11~22,,1,매주화요일,8788,d2577cc8b8b44d20a783220e01b691ff.jpg,오후의과일,2,,793,,37.47927764
서울,1,"01,02",2층 작심스터디카페 발산점,126.8373033,서울 강서구 강서로 324,24시간,,2,365일 영업,7680,478a824727114b6484272f3a0e33dcaa.png,작심스터디카페 발산점,1,,792,,37.55459095
경기,2,1,1층,127.1275539,경기 성남시 수정구 복정로 32,오전11~오후8시,,99,매주화요일,13119,df87220ab0ea41a49724dbf48189a0de.jpg,헤어잇다 ,2,,791,,37.4557595
대전,99,1,고기삼촌,127.3342928,대전 유성구 장대동 270-12,월~토 9시30분~20시50분,,99,일요일휴무,34173,00a6f066366f4367ad694a68d6fd5c80.jpg,고기삼촌,1,,790,"삼겹살.목살.떡갈비,곰국등중1팩한정",36.3601782
경기,1,1,101호,127.0522798,경기 화성시 능동 1162-1,12시-12시,,1,격주일요일휴무 미리전화확인유,18428,4fcca732efeb4e29b913533b7450a713.jpg,인생역전족발,3,,789,,37.19778657
대전,1,1,1층,127.402505,대전 유성구 전민로70번길 39,11시30분~21시,,1,"평일만 영업 , 11시30분~ 14시까지",34052,,라멘히로시,2,,788,,36.39898917
경기,2,1,1층,126.9780421,경기 수원시 권선구 오목천동 775,오전 11시-오후6시,,1,"일요일, 공휴일 휴무",16640,ad54b7ed7d6f4dc9b9b667318b1b136a.jpeg,카페플러스셀,1,,784,,37.23250928
서울,1,"01,02",글로리아타운 A동 107호,126.9690062,서울 종로구 평창문화로 75,12:00~23:30,,1,"구정, 추석",3009,,교촌치킨평창점,2,,783,,37.60686264
서울,99,"01,02,99",2층,127.0531211,서울 동대문구 이문로1길 16-3,오후2시부터 7시,기초생활수급자 ,2,"토,일,공휴일",2461,1552e0747ff84c12ae5f7e19a9f67475.jpeg,예술의악당음악학원,1,,782,피아노 교습비 90% 감면,37.58910135
경기,1,1,1층 집어가 양평용문점,127.5920898,경기 양평군 용문면 다문북길 81,24시간 영업,,1,,12515,,집어가 양평용문점,1,,781,,37.48692981
서울,99,1,이레가구,126.9085988,서울 금천구 금하로23길 33,10시-20시,,3,매주 주일(일요일),8573,9177fbb09c2e4171bb2c9f06a885e17d.jpg,이레가구,1,,780,책상/의자,37.45278001
경기,2,1,1층 핸드메이드브런치카페 ,126.7161943,경기 고양시 일산서구 가좌로 129,9:30~20:00,,1,월요일,10209,b388bffaa1e34642aa3724d75fc8195b.jpg,핸드메이드브런치카페 ,2,,779,,37.68654067
경북,99,"01,99",508호 폴포아카데미,128.4286522,경북 구미시 산동읍 신당2로 57,오전 11시 ~ 오후 10시,미혼모,2,시간표에 따름,39464,dca28fc9653c4baf8cdc00572b1aff96.jpeg,폴포아카데미,1,,778,주 1회 무료 수업 + 입회비,36.15583795
경남,99,"01,02",후문 상가동 2층  햇살문화스쿨,129.1526749,경남 양산시 덕계11길 12,am 11~ pm7,,2,매주 일요일,50553,24801a280e3f46d6b11203e9a7aff84a.jpg,햇살문화스쿨 ,2,,777,원데이클래스 패키지,35.37721082
서울,99,"01,02",,126.8642673,서울 강서구 공항대로59가길 7,예약제로 운영,,2,,7563,909655424fe745099b84d69de959eea0.png,심리상담연구소 문,99,아동 및 가족,776,심리상담 심리평가 등 심리상담서비스,37.55218449
대전,1,1,1층 진심만두,127.4258088,대전 대덕구 중리로64번길 11,10시~20시,,1,매주 화요일,34389,c20cbcea72ce4ef2a07b6c809123eace.jpg,진심만두,1,,775,,36.36492826
충남,99,1,1층 BLACKN,127.1290157,충남 천안시 서북구 성성8로 14-5,05:00~01:00 중 11:00~17:00 상주,,3,12:30~13:60,31078,,BLACKN,99,아이와 어린 형제,774,계절마다 상하복 한벌,36.84073547
부산,1,"01,02",동부올림픽타운아파트 상가2층 월포식당,129.1398406,부산 해운대구 해운대로 428,"오전 11시~오후 3시, 오후 5시~오후 7시",,1,매일 오후 3시~오후 5시 휴게시간,48089,812abfa8a4a64a33832b33d4b99d3548.jpg,월포식당,2,,773,,35.16688367
경북,99,,빅마트 내 정육코너(바른정육),128.335152,경북 칠곡군 북삼읍 안산2길 19-2,10:00 ~ 21:30,,1,,39807,,바른정육,,,772,,36.06539629
경기,2,1,150-1 1층 치킨플러스,127.2198433,경기 용인시 처인구 포곡읍 전대로49번길 1,12:00-24:00,,1,매월 둘째주 넷째주 일요일,17023,4de37ddb60d94cb1bf8d074bd0a93b02.jpg,치킨플러스에버랜드점,2,,771,,37.28309131
서울,1,"01,02",101호  별꿈다락,126.9403552,서울 관악구 장군봉1길 3,12:00~22:00,,1,정기휴일 없음,8784,464d8ac13d514f858f27918c9a483daf.jpg,별꿈다락 ,1,,770,,37.48229543
경기,1,"01,02",단밤 1271 CAFE,127.444814,경기 여주시 산북면 광여로 1271,11시~ 20시,,1,매주 화요일 휴무,12600,f1d9b01badcb49288ec1bc1e266a8f04.jpg,단밤1271CAFE,1,,769,,37.40666802
경북,99,1,더바른토스트,129.3678464,경북 포항시 북구 대신로 13,"평일09:00~22:00, 일요일09:30~20:00",,1,,37726,,더바른토스트,1,,768,모든품목 중 택2,36.04533207
경기,1,1,스마일빌딩 109호 고기고기,127.1147164,경기 평택시 비전5로 37,17:00~24:00,,1,둘째 넷째 월요일,17854,bd46c1fe7a1048459a0523e2a52161a9.jpeg,고기고기,2,,767,,37.00158782
인천,1,"01,02",시민협력플랫폼 공감 2층 돌봄교실,126.6920303,인천 미추홀구 구월남로 20,오전 9시~오후11시,,99,명절연휴만 휴무,22147,72635e25b85d4592bdd201bdbf0ef00d.png,해아놀이터 사회적협동조합,99,"아동 모두(형제,자매)",766,,37.45456696
부산,99,1,상가동 봉수아피자,129.0391047,부산 부산진구 가야동 50-1,12월 01일,,1,월요일,47273,16377ba3541c4c6d9433205fab75bf91.jpg,봉수아피자서면점,99,"아이,형제",765,1인분메뉴,35.15568589
서울,99,1,1층,126.9226733,서울 은평구 서오릉로 72,아침 10시~ 저녁 9시반,,1,매주일요일,3395,,일월만두,1,,764,아이가 먹고싶은거,37.60685272
서울,1,"01,02",102호,126.9041936,서울 마포구 망원동 424-9,10시~20시,,3,없어요(예약하면 됩니다),3964,16b3720736304ec78434e0e1303b8e07.jpg,달콤헤어,1,,763,,37.55812751
부산,1,"01,02",1층구포국수,129.0867028,부산 동래구 수안동 389-1,오전11시-오후11시,,1,연중무휴,47813,2bc5e84248ae48ef84ef5ad28346c34f.jpg,구포국수&돈까스,2,,762,,35.20252691
대구,1,99,글나루 프리미엄 스터디센타,128.6365859,대구 수성구 청수로 264,09:00~02:00,조용한 공부장소가 필요한분,2,연중무휴,42179,,글나루 프리미엄 스터디센타,99,가정형편이 어렵지만 미래를 위해 꼭 ,761,,35.84034094
경기,99,,풍산프라자 8층 메디웰(주),127.1107849,경기 용인시 기흥구 죽전로 17,9A-6P,,99,"주 4 일(토,일, 공휴일 휴무)",16897,b771b0851c3542468a144713cc167fa4.gif,메디웰(주),3,,759,,37.32072436
경기,99,1,대학빌딩 다비치안경 아주대삼거리점,127.043825,경기 수원시 팔달구 아주로 3,오전 10시 ~ 밤 9시까지,,99,명절 당일만 휴무,16498,64791668c4b040b19afd7c0c058e0302.png,다비치안경 아주대삼거리점,1,,758,"안경테,안경렌즈,10만원이내 제공",37.27512023
전남,99,1,순천 케이글라스안경 ,127.5264897,전남 순천시 조례못등길 18,어전 10시 부터 오후 9시까지,,99,일요일  휴무입니다,57968,b3c511320f6343e8a106682025ee3d23.jpg,순천 케이글라스안경 ,1,,757,시력교정용 안경,34.95400909
경기,99,1,카페마녀 ,126.9650507,경기 안양시 동안구 관평로138번길 53,오후4시~11시,,1,일요일,14068,,카페마녀 ,1,,756,치킨,37.39063913
경기,,,105호 안심축산물판매점 (링크오상가,126.9311471,경기 안양시 만안구 태평로52번길 37,10:00~22:00,,99,연중무휴,14037,,안심축산물판매점 메가트리아점,,,755,,37.39607597
인천,99,1,1층 하와유카페,126.7358059,인천 계양구 까치말로49번길 5-1,오전10시,,1,월요일,21124,,하우알유,1,,754,음료하나 디저트하나,37.52985935
서울,1,"01,99",1층 cu편의점 옆,126.9352285,서울 관악구 신림동 1741,24시간,소개추천,1,없음,8780,cd3f884895954b2b84cb13430bb6fcac.png,바다가내손아귀,99,가족포함,753,,37.48272396
경기,99,"01,02",1층 상가,127.0283637,경기 수원시 팔달구 인계동 1024-3,9:30-21:30,,1,매주 월요일 브레이크타임 15:00-16:00,16489,702db00b6557409f86df2efd4b74997b.jpeg,인생감자탕 수원인계점,2,,752,묵은지. 우거지. 해장국,37.26596207
충남,1,1,2층 210호,127.1590479,충남 천안시 서북구 성거읍 봉주로 120,오전 10~오후 5시,,2,"토요일 ,일요일",31049,8b0f73f20154455783562893f72c6eaf.jpg,이리고은 (도자기 공방),1,,751,,36.87678411
서울,2,1,지층 좌측호,126.9160515,서울 마포구 성미산로13길 89,평일 10~20시 토요일 11~20시 일요일 11~18,,1,매주 수요일,3974,40247e40ad334a96b07024f542cb71c6.jpg,네임리스커피,2,,750,,37.56481518
서울,2,,전자회관 B1 피트니스플랜비,126.8883895,서울 마포구 월드컵북로54길 11,오전10~오후9시,,99,공휴일 휴무,3924,a251e38b79344ed4b7bb4bfb2bf05aa4.jpg,피트니스플랜비,99,청소년,749,,37.58088763
서울,,,남자빌딩3층,127.0410676,서울 강남구 도곡로 203,,,3,,6231,,피트니스플랜비,,,748,,37.49277901
경기,2,"01,02",1층 그린마트,127.4916201,경기 이천시 부발읍 아미리 666,오전8:30~오후23:00,,3,없음,17332,520453ea9ff94ab19ef0a908cccd9d59.jpeg,그린마트,1,,744,,37.25291342
전북,2,"02,99",1층 101호 백구댁,127.1572297,전북 전주시 완산구 관선5길 8,오후1:00 오후 6:00,미혼모,99,토요일일요일,55033,,백구댁,2,,743,,35.82242042
강원,1,1,2층 일미리금계찜닭속초점 ,128.5827975,강원 속초시 중앙로 61,11:00~24:00,,1,,24835,,일미리금계찜닭속초점,2,,742,,38.2011468
인천,2,1,후문상가 카페84KM,126.6298831,인천 서구 청라동 85-1,0시9 ~ 21시,,1,없음,22753,70cd61f5147946c380cdd976255ec158.jpg,84KM,3,,741,,37.53762971
충북,99,"01,99",,127.4993398,충북 청주시 상당구 산성로49번길 32-8,10:00~17:00,가족단위,99,일요일,28721,ae6233fbb25b4d25bd0714a7ed6235fb.jpg,원예하다 콩나,3,,740,원예체험 활동,36.62957487
전북,99,"01,99",1,127.0529857,전북 완주군 삼례읍 삼례역로 192-24,24시간,노인,3,무휴,55337,374d08e2a0bc45dfb1438a4b49d91deb.jpg,소유,99,집수리 밎 경미한공산  단열 난방,739,집수리 및  단열 난방공사,35.90644194
서울,2,1,1층 커피플래닛,126.9182755,서울 관악구 남부순환로 1508,월-토 7:00-23:00  일9:00-23:00,,1,,8772,,커피플래닛,2,,738,,37.48224817
부산,1,1,2층 모토201호,129.0659985,부산 부산진구 서전로58번길 94,12시~ 21시,,1,"평일15시~17시, 일요일 휴뮤",47305,eee19332f8e44172971199ce30378975.jpeg,모토201호,2,,737,,35.15360332
서울,1,"01,02",1층,126.9681386,서울 중구 만리재로 209,11시~10시,,1,3시~5시,4508,ec19ca298eeb4d7683ad0daf62716e26.jpg,공일부엌,3,,736,,37.55606592
제주,2,1,1층 스시구,126.5110682,제주특별자치도 서귀포시 신서귀로 49,오전11시30분~오후9시,,1,오후2시30분~오후5시,63566,1c1a5cbbde7f42808b667a548a05962b.jpg,스시구,2,,735,,33.2534198
경북,2,1,B동1-1호 상가,128.7488928,경북 경산시 원효로22길 20,9:30-00:00,,1,,38590,763ba53e6f4d422089305727ca1386af.jpg,꿀꿀한닭,2,,734,,35.82095902
제주,,,오데뜨,126.2955781,제주특별자치도 제주시 한림읍 중산간서로 4995-6,12:00~20:00,,1,월요일,63022,,오데뜨,,,733,,33.41087519
전남,99,1,1층 하늘아쿠아,127.6950729,전남 여수시 문수7길 9-5,오후1시~오후7시,,99,,59703,,하늘아쿠아,1,,732,"열대어, 사료",34.75526584
서울,1,"01,02",101동 앞 상가 개러지키친 7호,126.8470287,서울 강서구 등촌동 701,16:30~02:00,,1,x,7587,68070fbccaee45acb619659570ec3fb3.jpg,연어꽃,3,,731,,37.55983847
서울,99,1,1층 108호 갓츠킹 가마솥돈까스 진,126.9185725,서울 은평구 진관1로 21-39,11:00~21 :00/ 라스트오더 20:00,,1,,3311,57e564f070f243e0a57f4d688699fcb5.png,갓츠킹 가마솥돈까스 진관점,1,,730,더블등심카츠도시락,37.63386256
서울,2,1,아가도스빌딩 1층 바바에스 대치점,127.0595582,서울 강남구 도곡로 449,10:00 ~21:00,,3,,6209,,바바에스안경원(대치점),1,,729,,37.49883014
경북,1,"01,02,99",1층 피자꾼,128.7562133,경북 경산시 삼풍로4길 33,11시부터 새벽1시,불우이웃,1,매주월요일,38544,8bb0214d6bff42f1b8aaf0a925458b3d.jpg,피자꾼경산점,3,,728,,35.82010504
경기,1,"01,02",삶천식당 1층,127.0838434,경기 의정부시 용민로26번길 40,11:30-8:30(브레이크 3-5시),,1,"일요일, 월요일, 모든 공휴일",11785,37a6f9cc49174c99a2343e8a33c17ab8.jpeg,삶천식당,2,,727,,37.73566233
경북,1,1,1층 장충족발 ,128.7380324,경북 경산시 백천동 580-6,오후 2시 오후 10시까지,,1,매주 수요일,38651,f8c70c7fa10a4c40ab8bd834df19a572.jpg,장충왕족발 ,1,,726,,35.80233992
부산,1,1,6층 mk댄스아카데미,129.0606316,부산 동래구 사직북로 20,밤10시,,2,일요일,47866,,MK댄스아카데미,1,,725,,35.19760015
경기,1,1,다농마트 3층 톡톡청년몰 373호 ,126.8442393,경기 안산시 상록구 예술광장로 1,오전11시~오후8시,,1,"일,월 휴무",15288,0d0d165162e34983836353a1cc37c9aa.png,더둘베이크,2,,724,,37.32836149
제주,99,1,1층 롤타이드,126.6651813,제주특별자치도 제주시 조천읍 조함해안로 490,17:00~21:00,,1,,63333,5c1204c110414d34bc320e5ef9a0a8f8.jpg,롤타이드,3,,723,타코 전 종류,33.54255145
서울,99,"01,02,99",지하1층,127.0931941,서울 중랑구 겸재로50길 53,11:00~23:00,독거노인,1,없음,2199,9afcff159785451ebe1b213e3e4865ac.jpg,소소한얼,3,,721,식혜.수정과,37.58907805
광주,99,1,IGA마트(편의점),126.8781383,광주 남구 송암로 52,07:30~22:00,,99,.,61740,abc9dbfa60fb43aaad38510af4ebcd7f.png,아이지에이마트 송암공단점,1,,720,간식류,35.10990805
부산,99,1,뚜레쥬르 부산하단역점,128.9639413,부산 사하구 낙동남로 1391,07시~23시,,1,,49312,29dd4f3f1a024af0a76c68e76f8fe51e.jpg,뚜레쥬르 하단역점,1,,719,당일 제조 빵류,35.10664906
서울,1,1,1층 부타앤카츠,126.9228698,서울 관악구 난곡로34길 70,오전 9시30분 ~ 오후11시,,1,연중무휴,8854,cd1f155fd8b9401b95ecdab00d125f2a.jpeg,부타앤카츠,99,사장 맘대루,718,,37.47197623
서울,99,"01,02",B동 221호,126.8256454,서울 강서구 마곡서로 152,17:00~00:00,,1,매주 월요일 & 매달 마지막 주의 일요일,7788,f274963b783743a19399346928d81184.jpg,EXPER2,99,4명까지 가능,717,당일날 제일 맛있는 메뉴들로 제공!,37.56771074
대전,2,"01,99",상가 105호,127.3114519,대전 유성구 반석동로 82,14:00-24:00,급식카드소지자,1,없음,34067,2a2e78cfc1144fc6a6fbed2c88f933ee.jpg,또래오래,2,,716,,36.39540296
광주,1,1,코아빌딩 1층 카페 에쏠로지,126.8733856,광주 북구 서강로54번길 22,07:30~22:00,,1,연중무휴,61258,0c0a420371154b95a3ec5d1682795ee5.png,에쏠로지 서영대점,99,아이 본인을 포함한 미성년 가족,714,,35.17595909
경기,99,1,,126.6438564,경기 김포시 김포한강8로 169,11:30~22:00,,1,15:00~17:30,10068,b319082051334b8a9832e20584518fd8.jpg,스시호세,1,,713,초밥,37.63761452
경기,99,"01,02",1층 드림라운지,126.7545475,경기 고양시 일산서구 성저로 68,"10:00~22:00 (금,토 : ~23:00)",,3,매주 수요일 휴무,10368,47de6044bad3427486503048b7779054.png,드림라운지,1,,712,대관시-카페음료 & 일부 콘텐츠 무료,37.68490596
전북,99,1,1층 103호 채선당도시락 전주송천점,127.1277561,전북 전주시 덕진구 천마산로 54,오전10시~오후8시,,1,,54823,8d33882913fa4032a238d8a748f0bd7a.jpg,채선당도시락&샐러드 전주송천점,1,,711,'정식도시락' 메뉴 중 택1,35.86411387
충남,99,1,120호 퀴즈노스 충남내포신도시점,126.6793668,충남 홍성군 홍북읍 청사로 146,"평일 am8~pm9, 주말공휴일 am10~pm8",,1,없음,32256,aa67e1e514a5404f80699cb1f5f8bd86.jpg,퀴즈노스충남내포신도시점,1,,710,샌드위치 레귤러사이즈와 소다음료,36.65704329
경기,1,1,107호 샐러디,126.7627988,경기 고양시 일산서구 중앙로 1413,09:30-20:30,,1,연중무휴,10386,,샐러디 주엽역점 ,1,,709,,37.66903726
경남,2,1,태경수산,129.0423591,경남 양산시 북정동 886-6,16~23시,,99,명절제외 연중무휴,50572,,태경수산,2,,708,,35.35923042
경기,1,1,105호 ,126.7644833,경기 고양시 일산서구 일산로 576,11:00-22:00,,1,,10374,a18612f411854f488f1b993978cddb4a.jpg,츄러스1500일산후곡점,2,,707,,37.67949901
인천,99,1,우가돈정육점,126.662009,인천 미추홀구 도화동 1005-6,9~21,,3,,22114,932bbc65bba5445d95c7f9274d4af25c.jpg,우가돈정육점,1,,706,찌개고기 및 제육고기,37.47213674
경기,1,1,1층,126.8087803,경기 파주시 조리읍 내산길 71,11시~9시,,1,매주화요일,10938,,명수네국물떡볶이,1,,705,,37.74661301
광주,99,"01,02",상가106호,126.8353206,광주 광산구 왕버들로251번길 27,08:30~19:00,,3,토 13:00~ / 일 휴무,62249,,희망약국,1,,704,"위생용품(마스크, 생리대 등)",35.19762893
인천,1,1,d104호 베이커리 새참,126.707188,인천 남동구 남동대로799번길 34,08:00~20:00,,1,없음,21555,48d8bcfcd0964246a66d581b69089f1d.jpeg,베이커리새참,1,,703,,37.45440574
경기,99,1,1층,126.7798174,경기 파주시 쇠재개울길 62-13,12:00~24:00,,1,명절 당일,10934,,주가리곱창,1,,702,국밥,37.75153039
경북,2,99,1층,129.3737745,경북 울진군 북면 울진북로 2206,10:30~19:20,"한부모 조손, 부모가 없는 장애아동",99,12:30~13:30휴게시간/토*일*공유일 쉽니다.,36304,7beaae1d3fda4838b1534311f7488731.png,MindINN상담심리&발달재활센터,99,"한부모 조손, 부모가 없는 아동청소년",701,,37.11194221
경기,99,"01,02",1층,127.2000402,경기 하남시 망월동 1184-3,오전 10시 ~ 오후 9시,,1,매주 화요일,12923,9f44fd16457d4a7dbf79816f0e7c427c.jpg,애플앤베리,2,,700,"컵과일, 과일도시락, 과일샐러드도시락",37.56087822
광주,1,"01,02",1층 주식박사,126.8910348,광주 북구 하백로6번길 3,11시30~23시00,,1,매주일요일 17시부터 영업시작,61061,233c2af81fb9428a959f2cbd985bc1d0.jpg,주식박사,1,,699,,35.18817033
경기,99,1,1층 처갓집양념치킨 고덕국제점 ,127.0487596,경기 평택시 고덕국제4길 54,오후 2시 - 오후 11시 50분,,1,상황에 따라 달라요.,18008,a96127f8e2d64a23b659c0fdc18937b4.png,처갓집양념치킨 고덕국제점 ,1,,698,후라이드 ,37.05327403
경기,1,1,103호 프랑킨숯불양념구이치킨,127.053212,경기 수원시 영통구 망포동 11-12,11시~2시,,1,x,16681,010892741b8b4cdeb2c5ede8b71ffa35.jpg,프랑킨숯불양념구이치킨,1,,697,,37.24752709
서울,1,1,상가152동 비1층 비106호,127.0263479,서울 성동구 무학로 33,10:00~21:00,,1,매주 월요일,4702,6aad57af5ffa49cfb0fbc85bd7708efd.jpg,돈카츠마켙왕십리점,2,,696,,37.56916416
충남,99,1,4층 연안식당,126.6763139,충남 홍성군 홍성읍 조양로247번길 9,10:30 ~ 21:00,,1,브레이크타임 15:00~16:00  / 연중무휴,32220,ea13c8a2e029417898441242ea6e9f2b.jpeg,연안식당 홍성터미널점,3,,695,식사메뉴,36.60103944
경기,2,"01,02",102호,127.1257588,경기 화성시 왕배산2길 3-3,,,1,,18490,,탐나는식탁,1,,694,,37.18078399
광주,99,1,3/4층,126.792972,광주 광산구 송도로 160,12:00 ~ 13:00,,99,명절당일,62446,7e6d6199ebbf41a2a6732742578d9b72.jpg,한마음병원,1,,693,병원식단표 상 음식,35.12876659
서울,99,1,2층연혜인참치,127.0103483,서울 종로구 종로 286,오전10:00~오후10:00까지,,99,15:00~16:30까지,3119,,연혜인참치,2,,692,초밥.매운탕(대구.알탕.회덮밥.알밥,37.57085836
경남,1,"01,99",상하이빌딩 2층 아인즈헤어,128.6823627,경남 창원시 성산구 단정로 18,10:00-9:00,기초수급가족,3,매주월요일 4주차는일월휴무,51503,7d064d17ab714e2f8230bb82c27c5e4d.jpeg,아인즈헤어,1,,691,,35.22022704
강원,1,1,1층 혜자식당 (포남동),128.9105845,강원 강릉시 성덕포남로153번길 7,11:00-21:00,,1,월요일 정기휴무,25547,7bded06bc4b44ce2a20e03226835d98c.jpg,포남혜자국밥(혜자식당),2,,690,,37.76549944
경기,99,1,장현프라자 220호,127.1808911,경기 남양주시 진접읍 장현로 77,"오전9시-오후6시, 주말 오전9시-오후1시",,3,"공휴일, 토요일 오후",12014,e35102a52e4a4ec49d6c75d0bc1fc899.jpg,한빛안경원,1,,689,기본 안경테와 기본 안경렌즈,37.71761594
경기,1,1,2층 갤러리베이커리,127.034691,경기 수원시 권선구 동수원로 232,10시 ~ 17시,,1,주말 휴무,16553,7613f3ce97c540a0b0343fc645801f74.jpg,갤러리베이커리,1,,688,,37.25025953
경기,2,1,1층 코브라독스 평택세교점,127.0804429,경기 평택시 평택로 146,오전11시~오후9시,,1,없음,17839,e4c351cb9c0e4690ae15867f869c4a74.jpg,코브라독스 평택세교점,2,,687,,36.99867297
경기,2,1,리시오빌딩 1층 코브라독스 평택용이점,127.1358121,경기 평택시 현신3길 8,오전11시~오후9시,,1,없음,17868,742686a7712c4f6e8962401d4a6d5b11.jpg,코브라독스 평택용이점,2,,686,,36.9958035
경기,1,1,1층 지코바치킨 (대로변),127.0247911,경기 수원시 팔달구 인계동 982-11,09:00-(익일)04:00,,1,,16476,,지코바치킨 인계1호점,1,,685,,37.26750357
인천,99,1,105호,126.6618066,인천 미추홀구 숙골로95번길 9,10:00-8:00,,99,없음,22100,8520ff66c7fe4fb58a2713034cf7d1d4.jpg,치치살롱,1,,684,"컷트 남여 무료, 모든품목 50%",37.47022981
인천,99,"01,99",102호,126.6972892,인천 남동구 문화서로4번길 41-25,오전 11시 ~ 오후 8시,결식아동 보호자-학습용 기기만 가능,3,오후 12시 ~ 오후 1시,21568,26581c08b9e14f9ca89e11966fd842be.jpg,캐츠워즈리서치,99,컴퓨터 점검/수리 (20만원 한도),683,컴퓨터 점검/수리 (20만원 한도),37.44599005
경기,1,1,1층 프랑킨치킨집,126.7436279,경기 시흥시 정왕동 1809-1,12~01시,,1,월요일,15054,,프랑킨숯불양념구이치킨,1,,682,,37.34985024
경기,1,1,1층 프랑킨숯불양념구이치킨,126.9423351,경기 군포시 번영로 602,오전11시~새벽2시,,1,,15831,c9f6eff167ed48dba21a1520239773f6.jpg,프랑킨숯불양념구이치킨,1,,681,,37.36278226
인천,1,1,1층 프랑킨숯불양념구이친 간석점,126.7056812,인천 남동구 간석동 355,오전11시~새벽2시,,1,,21551,77105007e473475e83d274e49acba473.jpg,프랑킨숯불양념구이치킨 간석점,1,,680,,37.45872062
경기,1,1,1층 102호,126.9637456,경기 안양시 동안구 관평로69번길 29-7,오전11시 ~ 오전1시30분,,1,,14103,,프랑킨숯불양념구이치킨 안양점,1,,679,,37.38292156
경기,1,1,1층 ,127.0276343,경기 수원시 팔달구 인계동 211-6,오전11시~새벽4시,,1,연중무휴,16471,55f53d5fac3747e3ba81a866fb9350df.jpg,프랑킨숯불양념구이치킨 본점,2,,678,,37.27615266
경기,1,1,1층프랑킨숯불양념구이치킨,126.8312054,경기 안산시 단원구 고잔동 724,11:00~03:00,,1,연중무휴,15462,64e49043cf904ec99a5d9f6208289a9d.jpg,프랑킨숯불양념구이치킨,1,,677,,37.31472001
서울,1,"01,02",모두의주방 지하1층 3호,126.9567893,서울 관악구 관악로 251,오전9시~익일 오전12시,,1,,8727,,까사피에스타,2,,676,,37.48689701
울산,2,1,101호,129.3536408,울산 북구 매곡2로 47,오후1시~6시,,2,토.일요일,44215,7b91d6bdc61643019c59c2ddb20b5044.jpg,조정윤아트,1,,675,,35.64900579
인천,99,1,.,126.6972959,인천 부평구 원적로 280,평일 오전 10시~오후 7시/토요일 오전 11시~ 오후,,1,,21371,,디저트꼼,2,,674,샌드위치  1개,37.50456126
서울,99,1,1층 사무실,127.0861322,서울 광진구 천호대로119길 6,평일 오전 9:00 ~ 오후 5:00,,99,"주말,공휴일",4931,14ce6bcfe1844970babcae72796d8146.jpg,주식회사 중원디앤케이,1,,673,핫팩 한달치 30개. 매달 지급^^,37.55515978
서울,1,"01,02",1층,126.9131872,서울 서대문구 거북골로 150,오전10시새벽1시,,1,3시~4시,3690,3715e31d6e7c4fc694a5e8149e7cb01d.jpg,줄리앙와플and커피,1,,671,,37.57555558
울산,1,1,상가 102호 처갓집양념치킨 구영점,129.239912,울산 울주군 범서읍 구영리 798-1,13:00~01:00,,1,변동,44923,,처갓집양념치킨 구영점,2,,669,,35.57106062
대전,2,"01,02",1층,127.3730552,대전 서구 만년남로3번길 164,오전 11:00~오후 10::00,,1,매주 월요일,35200,2310af33abf24c419272db87db9ced90.jpg,오매불떡 매운떡볶이 ,1,,668,,36.36648405
제주,1,1,1층 시나르,126.477655,제주특별자치도 제주시 노형10길 3,am11:30-pm10:00,,1,pm2:30-pm5:00,63083,8d5576f9db4446ef8b7b8b32f765dc30.jpeg,시나르,3,,664,,33.48390876
경기,1,"01,99",1층 석관동떡볶이,127.0546373,경기 동두천시 동두천로 115,11:00~23:00,g-dream 카드 소지자,1,14:30~15:30,11350,f7b801c1b86a4feba8e0fa4456837417.jpg,석관동떡볶이동두천점,2,,663,,37.8917055
경기,99,,원광빌딩 메가커피,127.0475466,경기 의정부시 경의로 107,09:00~21:00,,1,,11696,,메가커피 의정부경의교차로점,99,첫방문시 맴버쉽쿠폰발급(아이 본인만),662,모든 음료,37.73339139
경기,1,1,1층 도새기막창,126.9988015,경기 수원시 팔달구 동말로 43,17-24,,1,일요일,16443,,도새기막창,2,,661,,37.27876268
서울,99,,메가커피 창동역점,127.0492033,서울 도봉구 마들로11가길 13,09:00~21:00,,1,,1414,,메가커피 창동역점,99,첫방문시 맴버쉽쿠폰발급(아이 본인만),660,모든 음료,37.65290468
경기,1,1,레이킨스몰2층 228호,126.7516469,경기 고양시 일산서구 대화동 2602,11:00-8:30,,1,연중무휴(임시휴무 네이버에 공지),10391,,수라간,1,,659,,37.66799467
서울,,1,1층 쑤쑤타이,127.0490942,서울 성동구 상원1길 12,,,1,,4779,,쑤쑤타이,1,,658,,37.54497088
광주,99,1,라라브레드 1층,126.7934279,광주 광산구 광산로19번길 24,10:00~21:00,,1,x,62430,,라라브레드,1,,657,직원선택 2종,35.13920225
서울,99,1,라라브레드1층,127.0777431,서울 노원구 공릉동 350-22,10:00~21:00,,1,x,1835,,라라브레드,1,,656,직원선택 2종,37.62493456
서울,99,1,라라브레드 1층,127.1091047,서울 송파구 오금로16길 4,10:00 ~ 21:00,,1,x,5618,,라라브레드 잠실점,1,,655,직원선택 2종,37.51113268
서울,99,1,라라브레드 1층,127.1412204,서울 강동구 양재대로116길 13,11:00 ~ 20:00,,1,x,5343,,라라브레드,1,,654,직원선택 빵2종,37.53867777
강원,99,1,유로코피자,128.8810505,강원 강릉시 원대로17번길 5,12:00~23:30,,1,15:00~17:00,25518,,유로코피자 강릉점,3,,653,전 메뉴 L까지,37.75629949
강원,2,1,아빠곰,128.9002628,강원 강릉시 동부시장3길 5,10:00~06:00,,99,"매주 일요일,월요일",25552,7d30df0885eb4c29a111656170946c21.jpg,아빠곰,2,,652,,37.75842327
전북,99,1,군산미장원,126.7065606,전북 군산시 서수송안2길 26,am10:00~pm20:00,,99,매주화요일 일요일12시오픈,54137,,군산미장원,1,,651,남성컷,35.96556602
서울,1,1,1층 봉식이떡볶이 ,126.9313244,서울 동작구 국사봉1길 70,오전 11시30분~오후9시30분,,1,월요일,7043,dd708970061a481cb4ce2d6f690977e2.jpg,봉식이떡볶이,1,,650,,37.49827945
전북,2,1,상가 103호 우미분식,126.9874358,전북 익산시 무왕로22길 41,12:00-19:00,,1,토요일 일요일 휴무,54566,,우미분식,1,,649,,35.95573336
서울,99,2,"2층 ""금수저""",126.8379095,서울 강서구 양천로47길 24,월-금/11:00~20:00 토/11:00~15:00,,1,매주 일요일 휴무,7522,93cf93cb8d9b44f58af5d508a5b52ef2.png,금수저,3,,648,백숙을 제외한 전메뉴 (1인 1메뉴),37.57151275
경기,1,1,1층 정씨함박,127.0525458,경기 동두천시 중앙로33번길 99,11시~9시,,1,매주월요일,11354,43f04ba68e974e56a24e637e697ae3a2.jpg,정씨함박 동두천점,2,,647,,37.88183739
충남,2,"01,02",1층 카페데이오프,127.1501247,충남 천안시 동남구 영성로 86,월-금 09:00~20:00,,1,"인스타그램,네이버에 공지",31131,108cbf2a686c411ca2cb9d6ed000b912.jpeg,카페데이오프,1,,646,,36.8058833
강원,99,1,1,127.7625505,강원 춘천시 동내면 거두길 30,11시부터8시,,1,,24400,6abf99696e204b2c8ea1c6b4144e2146.jpg,면사무소,1,,643,짜장 짬뽕 볶음밥 미니탕수육,37.861035
서울,1,"01,02",kgit센터 지하1층 푸드코트 109,126.8889823,서울 마포구 월드컵북로 402,11:30~20:00,,1,토일휴무,3925,8c17b93226ee4dfdaecaf69e17a0675d.jpg,모데나,1,,642,,37.58010775
경기,99,1,1층 장수순대국,127.0753975,경기 오산시 밀머리로 46,10시-22시,,1,매주 토요일,18144,,장수순대국,1,,641,"순대국밥,머리국밥",37.13765399
경기,99,1,1층 105호 팔팔뼈찜,127.1094002,경기 성남시 분당구 성남대로 52,오전11시~오후10시,,1,"매주일요일휴무, 평일 2시~4시45분까지 브레이크타임",13637,2e855f2076a943b4a59033c1d6a538f9.jpg,팔팔뼈찜,1,,640,뼈해장국,37.34045482
경남,,"01,02",1층 다가치통닭,128.824649,경남 김해시 율하6로 52,오후 3시부터 자정까지,,1,매주 월요일,51020,43ea39a54d074577b1184c2e7c1f6fc5.jpg,다가치통닭,2,,639,,35.17174663
부산,99,"02,99",1층 이동호피자,129.0908446,부산 동래구 복천동 67-2,12월 12일,포장할인50%단품피자구매시,1,,47804,6e8bdd8b3ed44b49bb147e46e7650b5d.jpg,이동호피자,1,,638,클래식피자M(미디움)사이즈,35.20582582
경기,2,1,1층 피자나라 치킨공주 태평점,127.1395281,경기 성남시 수정구 태평동 2454,낮12시~밤11시30분까지,,1,매장으로전화,13277,23d26a0442c94e1984abbb2f07e27e01.jpg,피자나라치킨공주 태평점,1,,637,,37.44901045
경기,99,1,1층 ,126.7991233,경기 고양시 일산동구 숲속마을로 50-42,11:30~22:00,,1,연중무휴,10306,a8d836eacb2d4c4ab3a32e2e5639eec5.jpg,9라파부대찌개 본점,1,,636,"9라파부대찌개, 제주생고기돈까스 ",37.66792056
경기,2,1,1층,127.2543539,경기 안성시 신건지동 2-9,11:00~23:00,,1,매주화요일,17573,6ff07739588e4f5882a2b9e447792052.jpg,푸드코트,1,,635,,37.01402142
경북,2,1,짱만두,128.7325611,경북 안동시 서동문로 188-1,오전10시-밤 9시,,1,매주 화요일,36701,,짱만두 웅부점,2,,631,,36.56578973
서울,1,1,2층,126.9615712,서울 종로구 창의문로11길 23,11:30 - 21:00,,1,15:00 - 16:30,3022,6abff8f6f10d46a8942d87829dddd1cf.jpeg,레이지버거클럽,3,,630,,37.59338974
경북,1,1,경식당 ,129.3751144,경북 울진군 북면 부구2길 10-2,11시~7시,,1,토요일 일요일 공휴일,36305,,경식당 ,99,아이 부모님 또는 조부모,629,,37.10493645
인천,2,"01,02",1층 카페 포모(PO-MO),126.6989564,인천 남동구 문화로89번길 8-18,오후1시-오후10시,,1,"일,월 휴무",21569,196e0c0a70034dd2b90802fac90e4dae.jpeg,포모(PO-MO),3,,628,,37.44795274
경기,1,1,천혜중앙 126호 히또시,126.8398787,경기 안산시 단원구 광덕4로 246,평일 11시30부터 21시까지 토요일 12시부터 21시,,1,일요일  국가 공휴일,15464,a8dd33a30d0f4fedbfcf5d2657a76722.jpg,히또시,99,아이들과 부모까지,627,,37.31435372
대구,99,1,1층 더포,128.6144908,대구 북구 대불로 13,11시-21시,,1,"월요일 휴무, 3시30분~5시까지 휴식시간",41520,,더포아담하니복현점,1,,626,"쌀국수, 볶음밥",35.90164472
경기,99,"01,02,99",1층 왼쪽,126.9178934,경기 안양시 만안구 삼덕로 78,오전11시 부터 오후 00시 까지,경찰관,1,없음,14002,,힘찬뼈다귀,1,,625,1인분 감자탕,37.39540012
서울,99,"01,02,99",102-2호 통닭&강동생족발보쌈,127.1687802,서울 강동구 고덕로 390,점심12시~밤12시,소방관은 전메뉴 50%할인,1,"연중무휴 , 포장 배달 전문점",5274,cf423ae9061341bdad4f5031b168a4d4.jpg,통닭&강동생족발보쌈,99,포장 배달 전문점입니다.,624,아동=통닭1마리무료&전메뉴50%할인,37.55662641
서울,1,"01,02","2층 (망원동,삼운빌딩)",126.9096697,서울 마포구 동교로 67,1200~1900,,2,"토,일요일",4018,,성산베스트플러스학원,2,,623,,37.5537428
경기,99,"01,99",롯데마트 3층 안산무지개연합의원 ,126.8466535,경기 안산시 상록구 항가울로 422,10시 -21시,,99,12시-12시30분 18시-18시30분,15299,729b4bef8f1e467bbd1e9accd448e93d.jpeg,안산무지개연합의원 ,2,,622,병원 방문시 병원옆 푸드코트식사제공,37.31809504
경기,1,1,세븐일레븐건물,126.7966576,경기 시흥시 장현서3길 12,24시간,,1,연중무휴,14996,999d5b1f152546a28933b65a524e9a8b.jpg,담꾹 시흥장현점,1,,621,,37.37312396
서울,99,1,106호,127.0985952,서울 송파구 삼학사로12길 14,10:00 ~ 22:00,,1,,5679,04fa263d79684337ab3d43ff74869011.jpg,달떡볶이 잠실점,2,,620,"초승달세트(떡볶이,순대,튀김,음료)",37.50154387
서울,99,1,vip빌딩 2층,127.0306507,서울 성동구 왕십리로 353,11:00 ~ 21:00,,99,없음,4710,aa6c3078c77746f2ab9a91f7304b53a6.jpg,어반그라운드헤어 상왕십리점,1,,619,쥬니어 커트,37.56363389
경기,99,"01,02",유월의정원 꽃집,126.9356912,경기 군포시 곡란로8번길 6,11:00~20:00(토요일~18:00),,3,일요일 휴무,15801,,유월의 정원,1,,618,꽃다발,37.37278392
충남,99,"01,02",1층 버터몽,126.4577563,충남 서산시 한마음3로 27-4,11:00~19:00 소진시마감,,1,"월,화",31991,8fa9a9996fa64a4a9a34c9f053dcb444.jpg,버터몽,1,,617,"쿠키1개,우유1개",36.77653946
부산,99,1,1층 스시카메,129.0380235,부산 중구 충장대로5번길 48-1,11시~21시30분,,1,14시30~17시,48936,d9a95e0fa7dd4d918bdd4b8c8719660c.jpg,스시카메,1,,616,초밥.우동.모밀,35.10941551
광주,99,1,아크레타양림 111호 오키나와후라이,126.9160259,광주 남구 백서로 76,11:30~21:00,,1,화요일 휴무 / 14:30~17:00 브레이크 타임,61662,6dc5e961e0af4092974f6c5160991271.png,오키나와후라이,2,,615,"텐동,가케우동,냉소바 중 1인 1메뉴",35.13925349
충북,1,1,솔리드빌딩 101호,127.3280463,충북 청주시 흥덕구 오송읍 오송생명3로 65-15,11:30~20:00,,1,,28165,,에이프런레시피(순수덮밥),1,,614,,36.63169724
경기,1,"01,02",1층 달토끼짬뽕,127.1333115,경기 평택시 용이동 598-1,11시~20시30분,,1,매주 월요일,17869,ac9ee3eddf5146009b669e69879c3fb7.jpg,달토끼짬뽕용이점,99,모두가능,613,,36.99801696
서울,99,1,만석돼지갈비,127.0347489,서울 성동구 고산자로12길 2,11시반부터 10시,,1,없음,4744,4c4bc9de51bc4436852bf4a22bd4c8e4.jpg,만석돼지갈비,2,,612,"정심식사 2인분,저녁 삼겹또는갈비 2",37.56018581
경기,99,1,103호,127.1124848,경기 용인시 기흥구 구갈로72번길 10,오전 11시반~오후9시반,,1,없음,16972,,을찌로국물떡볶이 기흥구청점,1,,611,을찌로국물떡볶이. 김가루밥.어묵탕,37.28059881
대구,99,"01,02",1층 크리그레피 스튜디오,128.6934895,대구 수성구 알파시티2로12길 8-4,11:00~20:00,,99,일요일 휴무,42251,,크리그레피 스튜디오,2,,610,"증명사진 , 프로필 사진 촬영",35.83741718
경기,1,"01,02",104동 127호,126.9291077,경기 안양시 만안구 안양로 180,오전 9시 ~ 오후 9시,,1,없음,14033,efb4708a8d7d44bcb7c27659e135fa88.jpg,로스터리카페 쉼,1,,609,,37.39018388
경기,1,1,1층 거기,126.7698822,경기 부천시 경인로134번길 52,낮12시~밤12시,,1,없음,14726,2ab654c673ba4a24bee166b2661423e1.jpg,거기,2,,608,,37.481776
경기,99,1,1층 식빵의품격,127.2377788,경기 남양주시 평내동 604-5,10:00~8:30  당일빵소진시 조기마감,,1,일요일.국가공휴일,12226,f0f9962ac0d249f2b906771e6dc9f2d8.jpg,식빵의품격,1,,607,모든 식빵종류,37.64262774
충남,2,"01,02",상가동  103호,126.4591105,충남 서산시 서령로 107,13시~21시,,1,일요일 휴무,31965,0daf8fd4e04a420e9be2f9a001d18cfb.jpg,효자동닭꼬치 서산점,2,,606,,36.79104574
경기,1,1,엘지종합상가1층127호 현이네 ,126.9366918,경기 수원시 권선구 금곡로73번길 33,11시30분~8시,,1,"토요일,일요일.공유일",16383,310de657643b43e68aa56192eea3b939.jpg,현이네,1,,605,,37.27429218
경기,2,"01,02",102호,126.8228971,경기 화성시 우정읍 조암동로36번길 1,월-금 10시30부터 8시까지,,1,토.일,18565,011a0c05eddb46ab8f61acc3f6cf99c1.jpg,씬즈,99,가족,604,,37.08792128
울산,1,1,104호,129.3541941,울산 북구 신기4길 42,오전10시30분부터 오후11시,,1,,44215,cc6e8500e134423380717e23bb7fdeb1.jpg,쭈니네식당,2,,603,,35.64997224
울산,99,1,103호,129.3541941,울산 북구 신기4길 42,AM11:00~AM01:00,,1,,44215,430270131a264c59bdb0f53e3a8baad5.jpeg,로와네식당,2,,602,쭈꾸미비빔밥  계란찜 반찬 ,35.64997224
광주,99,,15,126.8109405,광주 광산구 월곡중앙로 33,월-토 10:30~18:30,,99,일요일 휴무,62347,51a11dc1045741a986ffc54af34ec6a7.jpg,샤론헤어,2,,600,커트,35.16943753
경기,2,1,,127.2238827,경기 안성시 대덕면 내리 689-13,12:00~20:00,,99,매주일요일,17546,1aee9692f5b3454da9089e239b1d537c.jpg,오늘구움,1,,599,,37.00186562
서울,99,"01,02,99",1층 북경짜장,127.1416298,서울 송파구 위례광장로 120,10:00~20:30,정말 돈없고 배고픈 사람들,1,없음,5852,2a126e2cc2904fc69dbdbfd4d72fc803.jpg,북경짜장 위례신도시점,1,,598,"짜장, 짬뽕, 볶음밥,1인탕수육등등",37.47501456
강원,1,"01,02",종로타워1층,127.7443321,강원 춘천시 퇴계농공로 20,08:00~20:00,,1,연중무휴,24414,037364743d3c4723a0e335876e05569c.jpg,크라상점 춘천점,1,,597,,37.85159206
서울,2,1,신참떡볶이,127.1420544,서울 강동구 양재대로 1549,10시30분~22시 30분,,1,없음,5315,,신참떡볶이 굽은다리역점,2,,596,,37.54404843
대구,99,1,우방하이츠 상가 묭실언니 미용실,128.7114719,대구 수성구 달구벌대로645길 22,오전10부터 오후7시,,99,일요일,42270,648ffa021968445496799ed117fe69a0.jpg,묭실언니,1,,595,컷트,35.84167018
경남,1,1,김대리 피자,128.4318063,경남 통영시 통영해안로 456-1,11:00~00:00,,1,,53048,f8a29fea318241378300e2361a46edf8.jpg,김대리 피자,1,,594,,34.84914059
경기,99,"01,02",107호 올곧은소반,126.9625268,경기 안양시 동안구 경수대로 428,평일 Am10:30~Pm8:00/토요일 ~Pm4:00,,1,일요일 휴무,14126,0a1a138fc6f0479f8e643ba267d63ba3.jpg,올곧은소반,2,,593,컵소반도시락 or 밑반찬3종,37.36226346
광주,99,"01,99",10동 111호,126.8628683,광주 서구 매월동 948,04시~ 18시,"지역아동,소외계층",1,일요일,62074,dd762176df7045b79e88bfa69c3c9596.jpg,꿈채농산,2,,591,농산물,35.1158768
광주,99,1,1층 고귀한고깃간,126.8973071,광주 남구 광복마을길 49,08:30-20:30,,1,매주 일요일 휴무,61726,aecf8db0fd6543d289b87f03aac2be5c.png,고귀한고깃간,1,,590,"돼지불고기, 수제돈까스,  곰국 등",35.12221682
경기,1,1,106호,127.1052999,경기 평택시 비전3로 26,오전9시~오후10,,1,매주월요일 휴무,17852,8f083f3f45874adea7b60c7438f46fdd.jpg,웰돈카츠&떡볶이 비전점,2,,589,,37.0023066
서울,1,"01,02",지하 1층 너나들이,127.0508587,서울 동대문구 회기동 60-71,12:00~22:00,,1,연중무휴,2454,ab8a85111e9144219ee7b9ccd4909aff.jpeg,너나들이 만화카페 ,1,,588,,37.59232195
경기,2,1,1층상가,126.7467414,경기 파주시 가재울로 89,11~2,,1,없음,10871,108c628a97b643c88f35c23e003da09c.jpeg,피자스토어,3,,587,,37.73099661
경기,99,"01,02","1층, 보배반점 수원영통점",127.0773438,경기 수원시 영통구 반달로 104,11:00~22:00,,1,,16705,88861252795e49179130ce72be6a2f58.jpeg,보배반점 수원영통점,2,,586,식사류,37.25279129
경기,99,1,다산종합물류,127.1846392,경기 남양주시 진건읍 사릉로 335-16,오전 9시~오후6시(점심시간12시~1시),,3,"주말 및 공휴일, 점심시간",12140,cce5333f2f534403b55ed0005e73fedc.jpg,주식회사 다산글로벌,2,,585,"핫팩, 손소독제",37.652386
서울,1,1,1층 백가집,126.9339123,서울 관악구 호암로24길 11,오전 11시 ~ 오후 8시,,1,매주 토요일,8812,,백가집,1,,584,,37.47001899
경기,99,1,2층 허지스헤어 미금점 ,127.1077502,경기 성남시 분당구 돌마로 52,10:00~20:00,,3,"공휴일,주말제외.카카오톡플러스친구or네이버 예약문의",13630,d3512e8722044679b3be76f513454671.jpg,아트테라피 허지스헤어 ,1,,583,아동 및 학생커트,37.34968098
충북,1,1,115호,127.4310603,충북 청주시 흥덕구 진재로 141,11:00~21:00,,1,명절 연휴,28425,30d0cc5b3d374983be6bbe42c534651c.jpg,키와마루아지 청주점,1,,582,,36.64369166
경기,1,1,고피자,127.4436811,경기 이천시 창전동 158-11,10:30-23:00,,1,연중무휴,17369,5a23052714d74ac7a06b0a70640a61ab.jpeg,고피자 이천중앙로점,2,,581,,37.28082155
경북,99,1,대가온족발,128.825374,경북 경산시 하양읍 대학로298길 22,오전 10시~ 익일 새벽1시,,1,매주월요일휴무,38438,e35a6cc546ee4e3784070b24bfe5aa89.jpg,대가온족발,99,아이와 부모또는 조부모,580,"순살족발,갈비족발 ,보쌈 ,냉면 ",35.912062
충북,1,"01,02",1층 일미리 금계찜닭 매장,127.4570769,충북 청주시 서원구 사창동 460,11:00~23:00,,1,연중무휴,28643,,일미리 금계찜닭 충북대학교점,2,,579,,36.63231993
전남,99,,,127.4901322,전남 순천시 용당둑길 153,11시-18시,,1,,57943,,베니샤프본점 ,2,,578,모든음료+케이크한조각,34.95842827
경기,99,1,4층 403호,127.1191835,경기 남양주시 별내면 청학로68번길 3,12월 21일,,1,월요일,12084,44b452f9a2df431a9ad27ecda518b8b6.jpeg,키즈팡팡,1,,577,식사나 과자 음료 놀이시설,37.70767952
경기,2,99,상가동7호 과일숲,127.1822434,경기 용인시 처인구 명지로40번길 35-16,10:00~20:00,"소방관, 임산부고객님들께 1000원할",1,일요일,17056,0e506f04b6704e849686d71cc7a0d698.jpg,과일숲,99,부담없이 오셔서 말씀해주세요,576,,37.23068902
서울,1,"01,99",2층,126.9209387,서울 마포구 서교동 405-17,오전11~익일 오전6시,초등~고등학교1학년까지만(학생증확인),1,연중무휴,4048,4921a1e8403349fda0b6b99fa0d2c3d6.jpeg,슈츄안,99,"본인+동반1인, 복지카드+학생증지참",575,,37.5503889
경남,1,1,2층,128.0955056,경남 진주시 동진로 40,오전11시~오후10시30분,,1,없음,52727,7278615e5a1b4f9da36b74dd7303526a.jpg,피자마루과기대점,99,동반4인,574,,35.17880908
경기,99,1,든든한병원 1층101호 죽이야기,126.7559165,경기 고양시 일산서구 하이파크2로 60,08:00~20:00,,1,매주 일요일,10234,38fba2ac99c24a65b09fe0ea96cb1921.jpg,죽이야기 든든한병원점,1,,573,야채죽,37.69909546
경기,1,1,1층 105호 프레드피자 ,126.8312128,경기 안산시 단원구 광덕대로 206,오전11시~새벽3시20분,,1,연중무휴,15462,49a4afd2d40a464b8d7d4d2d10a2c190.png,프레드피자 안산1호점 ,1,,572,,37.31470056
경기,1,1,1층 108호 ,126.9225642,경기 화성시 향남읍 행정중앙2로 63-34,오전11시~오후16시,,1,없음,18600,c4d04f444bd24b9e9f0e5ab6ff827c62.jpg,농부항아리수제비,1,,571,,37.13057727
인천,99,"01,02",LG타운 101동 301호,126.7030661,인천 서구 고산후로78번길 43,오후 4시~오후9시,,1,매주토요일,22683,6afa9fb7aa584bbd81b9074b459e0641.jpg,김군네초밥,2,,570,초밥,37.59026384
경남,99,1,밀성돼지국밥 ,128.7451548,경남 밀양시 내이2길 19,08:00~21:00,,1,14:30~16:30,50423,7e772f525fa14b3295348e0ce16d0cc8.jpg,밀성돼지국밥,2,,569,모든국밥,35.49768474
대전,99,1,1층 부어치킨,127.4282255,대전 동구 홍도로43번길 2,12:00~12:00,,1,매주 월요일,34554,,부어치킨한남대점,2,,568,치킨버거세트 ,36.35000522
대구,1,"01,02",303동103호 상가 1층,128.5823261,대구 중구 남산로7길 7,오후3시~12시까지,,1,없음,41977,9636eaa1cc954c91a8dd8a4fe80920c6.jpg,자담치킨 대구남산점,2,,567,,35.85868965
충남,1,1,1층 이팔떡볶이,127.1305055,충남 천안시 서북구 미라8길 28,오전10시~오후9시,,1,매주 일요일 휴무,31155,0d8167f313c54b6faabc6af543793e1b.jpeg,이팔떡볶이,2,,566,,36.80275634
전남,1,"01,02",2층 파운트리,127.5198966,전남 순천시 비봉길 88,10:00~20:00,,1,일요일,57934,9f9f75ed5b8247b8a650e157241fbf54.jpg,파운트리,1,,565,,34.96561134
인천,99,1,101호,126.5635172,인천 중구 영종대로 911,11:00-22:00,,1,15:30-17:00,22397,75a1d6c4e8d94b58a8e11e4d138a93b8.jpg,샤브보트 영종하늘도시점,2,,564,샤브샤브 택1+음료,37.48733571
인천,99,1,106호,126.5635172,인천 중구 영종대로 911,11:00-22:00,,1,,22397,18f2f4618f4f435196e42462ab2b76e3.jpg,고피자 영종하늘도시점,2,,563,피자&사이드 세트,37.48733571
인천,99,1,117호,126.5635172,인천 중구 영종대로 911,11:00-21:00,,1,15:30-17:00,22397,7f727078fabe481eb0130c7ae416d98e.png,온센 영종하늘도시점,2,,562,텐동류 중 택1,37.48733571
경기,1,1,2층 요나요나,126.9230136,경기 평택시 안중읍 안현로서8길 21,17~22,,1,없음,17943,,요나요나,2,,561,,36.97896081
경기,1,1,SK뷰레이크타워 B120호,127.0601784,경기 수원시 영통구 법조로 25,오전 9시-오후 9시,,1,,16514,5395ac5286f94316a62e1b2eb17a5f8e.jpg,19T광교SK레이크점,3,,560,,37.28748089
서울,1,"01,02",현성빌딩 지하1층 B04호,127.0622496,서울 노원구 상계로 65,10:00-02:00,,99,연중무휴,1693,6b69647919aa4dbca00b07486664b36a.png,카툰공감 노원역점,1,,559,,37.65635432
경남,1,1,C3 상가동 1층 1019호,128.1448834,경남 진주시 에나로175번길 12,10:30 ~ 19:00,,1,일/월 휴무,52855,0a5a593cf64b4548bc318f09c3bf58de.jpg,에나로 밀,1,,558,,35.17378577
대구,99,1,,128.5880112,대구 중구 경상감영길 10,화~금 10:00~19:00 토 10:00~17:00,,2,"일,월",41919,0533dacab05544628a761a83dbb6ff14.jpg,메이커하우스 리움,1,,557,메이커체험  1회,35.87101997
서울,1,1,1층 101호 자판기가게,126.984171,서울 서초구 방배천로2안길 96,24시간,,1,없음,6677,535563bd853344e1a1e681ee5f33bddb.jpg,자판기가게,2,,556,,37.4812784
제주,1,1,2층 살롱드청춘,126.5486405,제주특별자치도 제주시 인다5길 11-12,오전 11시 ~ 오후 8시,,99,매주 월요일,63247,0d12d5f283cc4bb0affb734ea945dc0a.jpeg,살롱드청춘,1,,555,,33.47569142
강원,1,1,아빠의부엌,128.5786818,강원 속초시 교동로 33,,,1,,24846,,아빠의부엌,2,,554,,38.20199423
서울,1,1,103호 순흑네,126.8256377,서울 강서구 마곡중앙로 59-9,07~20시까지,,1,일요일 휴무,7807,e7505477c05e44c9a38a6be76c6307da.png,순희네 꼬마김밥,1,,553,,37.55884745
서울,1,"01,02",1층 와플소녀,127.0877256,서울 광진구 용마산로22길 12,12:00 ~ 19:30,,1,주말,4941,e3723bef3b134c4c9bca740336ed1c9e.jpg,와플소녀,99,누구든지!,552,,37.56352347
부산,1,1,상가1층 집밥마켓 ,129.083664,부산 동래구 명륜로 222,오전9시에서저녁8시까지,,1,매주일요일,47744,7752ea1cad8e481a8fb32b9a6b05ad18.png,집밥마켓 ,1,,551,,35.21396945
경기,1,1,1층 명랑부대찌개,127.2550912,경기 광주시 문화로 38,10시 22시,,1,없음,12760,859074ecde65408593693b693b118ec8.jpg,명랑부대찌개 경안점,2,,550,,37.40707874
인천,1,1,205-1703,126.6326813,인천 미추홀구 매소홀로 68,9시부터 18시,,1,,22192,,아린이네생선가게,1,,549,,37.44739422
서울,99,"01,02",1층 113호,126.8953185,서울 구로구 디지털로26길 38,11:00 ~ 21:00,,1,15:00~17:00,8393,8bcd01079fdd4c5fa98484ce59fc1a28.jpeg,오로지라멘 구로지타워몰점,2,,548,"차슈동, 교자, 가라아게",37.4798477
경기,1,"01,02",국제프라자 101호 뚜레쥬르안상록수점,126.8635749,경기 안산시 상록구 샘골로 190,07:30 ~ 22:00,,1,,15538,753eb7020d074a27a257a148beebd190.png,뚜레쥬르안산상록수,2,,547,,37.30070678
서울,99,1,1층,126.8584534,서울 양천구 신월로36길 3-1,12시~24시,,1,연중무휴,8086,,푸라닭신정1동점,1,,546,푸라닭치킨,37.5212686
서울,99,1,"2층 223,4호",126.8274661,서울 강서구 마곡동 760-2,10:30 - 20:30,,3,"1월1일, 명절당일휴무",7788,,샵일구구공,1,,545,컷트 무료,37.56785424
서울,1,1,오태식해바라기치킨,126.971246,서울 동작구 사당로16가길 42,오전 11시 ~ 새벽 1시,,1,주일,7010,51eb19e92a1342c7bbf8fde0085662e9.jpg,오태식해바라기치킨 사당153점,1,,544,,37.48357948
경북,2,1,1층 이백장돈가스,128.7379692,경북 경산시 경청로219길 4,9~21,,1,매주수요일,38651,0c7d00a4f5ca4cbf903d4f79826e766e.jpg,이백장돈가스 경산,1,,543,,35.80329261
경기,2,1,1-193호 정성쿡,127.1961786,경기 하남시 망월동 1127,9시~10시,,99,일요일 휴무,12912,c640a7bb14074d138e704e785c5a17f5.jpeg,정성쿡,1,,542,,37.56490665
전남,99,2,,126.4963243,전남 무안군 일로읍 인의로 645,월-금 10-5시,,1,12-1시,58574,,그랜마펌킨,2,,541,그랜마펌킨 호박즙,34.84783557
경기,99,1,102호 더맛구이구이쪽갈비일월본점,126.9742155,경기 수원시 권선구 구운동 911-1,16시 ~ 24시,,1,없음,16413,bd2ff638796942f5bb32acd9f72a1c66.png,더맛구이구이쪽갈비일월본점,2,,540,쪽갈비 1kg,37.28334878
경기,1,1,"208(일부),209,210호",127.0714667,경기 용인시 기흥구 영덕동 986-1,16시 ~ 24시,,1,없음,16954,b6ed583e1f894eb6a8d251fc91aa3be2.jpg,숯닭무흥덕점,1,,539,,37.27502693
경기,1,1,"건우프라자 201,202호",126.9422178,경기 수원시 권선구 금곡동 1089,16시 ~ 24시,,1,없음,16388,a2b4958015b6495ea113eae7316dc980.jpg,숯닭무,1,,538,,37.27279424
서울,1,"01,02,99",1층 깊이커피,126.9134894,서울 마포구 서교동 384-14,매일 10:00 ~ 24:00,경찰 공무원 소방공무원 20% 할인 ,1,없음,4035,3c1252ec44644f9cba06385689c737e6.jpg,깊이,2,,537,,37.55223793
서울,99,1,제1싱가동 104호 백년카츠,126.9432503,서울 관악구 봉천로 391,11시 ~ 21시,,1,3시~4시,8750,fcff53e57c6842f8ab0bfe2ec2287b72.png,백년카츠 관악점,1,,536,"개별메뉴 전부(세트,정식 제외)",37.48347141
제주,99,"01,02",1층 해녀김밥,126.6651813,제주특별자치도 제주시 조천읍 조함해안로 490,09월 20일,,1,목요일정기휴무 3-5시브레이크타임,63333,41120063f06c4a5e9d1ceac8e2028c39.jpg,해녀김밥 본점,1,,535,전복김밥,33.54255145
경기,99,1,지하1 144호,127.0901841,경기 화성시 동탄기흥로 393-20,11:00-20:00,,99,연중무휴,18479,e4045f16e2584fb59632496d2ec22d78.jpg,리틀아이보리 동탄역파라곤점,2,,534,어린이2시간이용권,37.19638256
광주,99,1,1층 모토이시,126.8582988,광주 서구 금호동 763-1,17:00~02:00,,1,없음,62006,32d876d7fa1b4c18bfcc1eec502c8ea8.jpg,모토이시_광주(금호)점,2,,533,오마카셋set+식사류1,35.13273327
경북,99,1,상도코아루상가101호,129.3448788,경북 포항시 남구 상도남로 27,10시ㅡ7시30분,,99,매주일요일,37834,00b487cf7763451f9ac644dda1dfe6a3.jpg,"오늘은,",1,,532,컷.,36.00864081
대전,99,"01,02",102호,127.3898562,대전 서구 문예로 73,9:30~21:30,,1,연중무휴,35240,69148fb206f84a22bd254faa604ef4eb.png,와이낫커피앤비,2,,531,목살스테이크 3천원,36.35328833
서울,99,1,1층 고스트요거트,127.0162371,서울 서초구 서초중앙로20길 37,월-금 10-19:30/토 11-19,,1,"14-15휴게시간/첫째주토요일, 일요일 및 공휴일휴무",6634,51fd163190084f8e9a62356733328acf.jpeg,고스트요거트 교대본점,2,,530,요거트+콤비네이션 토핑,37.49254068
서울,99,1,1층 고스트요거트,126.9448747,서울 서대문구 이화여대길 52-15,월-금 11-19/토 12-19,,1,"14-15휴게시간/첫째주 토요일,일요일 및 공휴일 휴무",3765,,고스트요거트 이대점,2,,529,요거트+콤비네이션 토핑,37.55933427
제주,2,"01,02",1층 카페파생,126.5357367,제주특별자치도 제주시 신산로11길 15,12:00 - 21:00,,1,목요일,63271,,파생,1,,528,,33.5076425
부산,99,1,6층 사진찍는남자사진관,129.044247,부산 영도구 대교로 1,오전 10시~오후6시(점심시간 12시~1시),,3,매주 일요일 휴무,49035,,사진찍는남자,1,,527,청소년증 발급용 증명사진,35.09267423
경기,1,1,상가 202호 국수나무,126.798787,경기 부천시 은성로67번길 12,10:00-20:00,,1,매주 일요일,14700,27c61361b33f45a280855e100115c427.jpeg,국수나무 부천소사점,2,,526,,37.47545962
경북,1,1,세경빌딩 1층 뒷편,128.7608836,경북 경산시 박물관로 17,오전11시~저녁10시,,1,오후3시~5시,38583,6b809e27432541d4a9fbeaad5247f22d.jpg,카츠윤 사동점,1,,525,,35.81616708
경기,99,1,1층 야당핫헤어,126.7644338,경기 파주시 송학1길 152,10시~7시,,3,예약필수^^카드필수^^,10909,3a677733c1bd4afcb0a54db7ed927e84.jpg,야당핫헤어,1,,524,커트,37.71507053
제주,1,1,1층,126.2445147,제주특별자치도 제주시 한림읍 협재3길 9,7시 ~ 10시 (대상자들은 언제든지 가능),,1,일요일,63011,bc2852366594473a81fa18464ebe2700.jpg,엔게디식당,2,,523,,33.39842262
서울,99,1,007호 곱창의축복,126.8569352,서울 구로구 경인로 331,오후 12시 저녁 9시,,1,일요일,8226,d517c458dad94f92b84284605229f880.jpg,곱창의축복,99,"본인과 가족(어린이, 청소년)",522,"곱창, 국밥",37.49769182
서울,1,1,"kgit센터 1층 117,118호",126.8889823,서울 마포구 월드컵북로 402,평일 11시~9시,,1,,3925,52bf8fa2ef15446cb86a0afba33971c2.png,블리스버거상암점,2,,521,,37.58010775
부산,,,상가 108호,128.999449,부산 북구 백양대로 1096,,,99,,46634,,플랜츠비수족관,,,520,,35.20236076
서울,2,1,b114 미화동,127.1331156,서울 강동구 천호대로 1089,10시30분~20시,,1,15-17시,5339,7b57cff0eea441e3bcda1ceb05171170.png,미화동,1,,519,,37.53660488
경기,99,"01,02",1층 미용실,126.8835839,경기 안양시 만안구 오리로 58,11~6,,3,매주일요일,13976,849e475dd6fb435689a4f98c34443127.jpeg,모결헤어팀안양점 감쌀롱,1,,518,남자컷트 학생컷트 여학생컷트,37.40941373
경기,1,1,동대문엽기떡볶이 별내갈매점,127.117335,경기 남양주시 별내3로 25,오전11시~ 오후10시45분,,1,연중무휴,12110,0f1b85d6912442c5afad29e4f9647b2c.jpg,동대문엽기떡볶이 별내갈매점,99,결식아동가족,517,,37.64450556
대전,1,"01,02",하우스디어반 상가A동 F101&102,127.3953828,대전 유성구 엑스포로151번길 19,"평일 9시~21시30분 /공휴일,주말 11시~17시",,1,,34125,9578339874f24b618e4dd2603f78b781.jpg,카멜로(CHAMELO) 도룡점,1,,516,,36.37615183
전북,1,1,1층. 모두랑떡볶이 ,127.1264326,전북 전주시 덕진구 명륜4길 21-6,오전 10시~ 오후 21시까지,,1,없음,54898,fcae4aa547b94771b05a9f19bcffe3dd.jpg,모두랑떡볶이,2,,515,,35.84420204
서울,99,,1층 피자나라치킨공주,126.9478424,서울 관악구 봉천동 892-2,12~24시,,1,매주 화요일,8748,,피자나라치킨공주,1,,514,피치세트,37.48313764
경남,99,,101동 17호,128.4265948,경남 통영시 원문로 11,오후 4시~새벽2시,,1,없음,53042,,마왕족발 통영점,1,,513,우아한싱글세트,34.85675939
서울,1,"01,02",2층 암사비치푸드마켓,127.1262047,서울 강동구 상암로 24,AM 11:30 ~ PM 12:00,,1,없음,5242,,암사비치푸드마켓,3,,512,,37.55052146
전북,2,1,상가 온정성담아,126.9874358,전북 익산시 무왕로22길 41,09:30-19:30,,1,매주일요일 휴무,54566,,ON정성담아,1,,511,,35.95573336
대구,99,1,1층듀얼몬스터 ,128.6180856,대구 동구 동부로 50,11:00~20:30,,1,,41254,60c963f88a0649d486f6fe66af329098.jpg,듀얼몬스터 ,2,,510,파스타,35.87450778
서울,1,"01,02",무중력 지대 달 1/6,127.0487467,서울 도봉구 마들로11길 75,11::00 - 21:00,,1,일요일,1414,1680fab24b974c73b5c0d8077327325c.jpg,소스공작단,2,,509,,37.65315868
경기,1,"01,02",1층다블,127.0771609,경기 용인시 기흥구 서그내로15번길 33-2,10:00~ 20:00,,1,빨간날,17104,6a10ffb64ee34f9faa466c2b86ff2630.jpg,다블,3,,508,,37.24670522
서울,99,"01,02,99",101호,127.1103261,서울 송파구 송파동 51-8,10:00 -22:00,65세이상 어르신,1,연중무휴,5619,a68ce74d494045d2b973174b6cb84dab.jpg,천향마라탕잠실점,3,,507,마라탕,37.50988915
서울,99,1,1층,127.0521737,서울 성북구 장위동 66-323,오전11시30분 ~ 오후9시,,1,"오후2시~오후5시 재료준비시간, 마지막주문 8시30분",2771,af77a86280214cf6a3cbc0b16c6d34fe.gif,서민스시,2,,506,"점심메뉴 2인 지급 26,000원상당",37.60957472
서울,1,1,104-1101,126.9797758,서울 종로구 율곡로 6,10:30~19:30,,1,일요일 격주 휴무,3142,c1caf2782c6148cc890a984add62d63c.png,부산아지매국밥 트윈트리타워점,2,,505,,37.57545386
부산,99,1,상가동2층 베이비데이즈 ,129.0855768,부산 동래구 중앙대로 1523,11시~5시,,3,일요일휴무,47710,1546a45479ee4f5a90eeac4f405ee638.jpg,베이비데이즈,1,,504,머리핀 5000원,35.2212897
경기,99,"02,99",1층 멜로우프루타,127.0969575,경기 양주시 옥정동로7길 40,12:00 - 22:00,"공무원증 제시 시,  30% 할인",1,매주 월요일 정기 휴무,11473,,멜로우프루타,99,아이 본인 샌드위치 + 음료  제공,503,샌드위치 + 음료  / 30% 할인,37.8212017
서울,1,"01,02",상가1층 쌀똑핫도그,127.0421197,서울 성북구 하월곡동 227,11:00-23:0,,1,연중무휴,2751,45dcdccc710242ceabee6556e7b3ec8b.jpg,쌀똑핫도그 월곡직영점,2,,501,,37.60327757
기타,1,1,804호,127.0019524,서울 중구 퇴계로 272,am10:00-pm10:00,,1,,4618,,주)청어람플러스,1,,500,,37.5628056
전북,1,1,명진상가106호,127.161326,전북 완주군 봉동읍 봉동동서로 76,10시30분~6시30분,,1,일요일,55328,262d280e4e9e436bbdbc8044942d3bec.jpg,간식열차,2,,499,,35.93581857
전남,2,"01,02",2-1차상가 2층 대왕비빔밥,127.6904363,전남 광양시 광장로 70,10시30분~9시,,1,2시30분~4시30분,57792,,대왕푸드(고기듬뿍대왕비빔밥),1,,498,,34.93340735
경기,,,원이쌀밥,127.4954544,경기 이천시 대월면 사동로 76-19,,,1,,17342,,원이쌀밥,,,497,,37.23644182
서울,1,1,롯데마트 1층 샐러디,126.891572,서울 영등포구 선유로 138,오전11시-오후8시,,1,오후3-5시(변동있음),7255,,샐러디 롯데마트서울양평점,1,,496,,37.52606589
대구,99,"01,99",1층,128.5038568,대구 달서구 이곡동 1178-7,낮12시부터 밤12시,"결제 안받을게요 ,카드만 보여주세요",1,일요일,42604,ee23e7a45e7443f08f02b0f287be48e2.jpg,후라이드양많고싼집 야후치킨 성서점,1,,495,순살치킨 한마리 ,35.85969119
서울,1,1,지하115호 식당가,126.8954191,서울 구로구 구로동 212-8,11-20시,,1,공휴일 및 주말,8390,effa2164200d4f168a917f516ac319af.jpg,어부식당,3,,494,,37.48367843
경기,1,1,102호 ,126.8079235,경기 안산시 단원구 석수로 42,12시30분 ~  00시,,1,없음,15232,0d61b60a403e4fee9f821f9c2573dbd5.jpg,현일병의피자&치킨군단,1,,493,,37.34024109
광주,99,1,103호 포코아포코,126.8539128,광주 서구 금호동 195-9,11:30 - 22:00,,1,15:00 - 17:00,62012,3882f595ef1b4c129b5e5c1b7f643014.jpg,포코아포코,2,,492,살치 스테이크 제외 다 가능,35.12713556
세종,99,1,1층 우잉,127.2883272,세종특별자치시 조치원읍 봉산로 15,평7:30~21:30토11:00~21:30,,1,일요일휴무,30019,36c4606bf14a436db040492a2aafa21e.jpg,우잉,2,,491,음료1잔 빵1개,36.60630258
경기,,,나비야,126.6322509,경기 김포시 하성면 월하로705번길 35-33,,,1,,10011,,주식회사 나비야,,,490,,37.71129252
경기,99,99,그랑파사쥬2층2043호12BL미사역,127.1917417,경기 하남시 미사강변동로 95,10시~22시,선한영향력관련자모두,99,일요일휴무,12913,63ba0f710d80487a9d894ef96d67a4f4.jpg,알리앙스,3,,489,은귀걸이+귀뚫어줘요,37.5637312
경기,,1,시그니처1,127.1530249,경기 용인시 기흥구 동백죽전대로 299,오잔10~오후10시,,1,없음,16995,088620c17ae74c1e82f6e87fdb9ae665.jpg,시그니처1,1,,488,,37.26762595
전북,99,1,1층 파양파군 두마리치킨,126.9429124,전북 익산시 고현로 74,화~금 : 낮12시~밤10시/주말 : 낮11시~밤10시,,1,매주 월요일 휴무,54661,118928f9385a4a4b8142177874fd7420.jpg,파양파군 두마리치킨,1,,487,순살치킨 한마리 (맛선택가능),35.94366517
경기,2,,301,126.8151138,경기 안산시 단원구 초지로 90,02월 07일,,2,,15448,,맨투맨영수학원 ,1,,486,,37.30673794
경남,1,1,1층,129.0244522,경남 양산시 동면 금오11길 8,17:00 - 02:00,,1,,50639,ef8367f70e8c4b4a9661d0f3628d2b85.gif,바보스 석산점,1,,485,,35.31512942
경기,99,99,2층,127.2443859,경기 안성시 미양면 협동단지길 3,오전10시 ~ 오후5시,지역사회 비영리 단체 등,1,오전11시:30분 ~ 13시30분,17604,9c7c41ec982d46acabde920a0ecc8992.jpg,같이행복공동체협동조합,99,"취약계층(어르신,결식아동,장애인 등)",484,"냉동도시락, 즉석도시락",36.9588537
서울,2,1,야채가게 ,126.8467649,서울 강서구 곰달래로25길 65-27,09시-20시까지,,99,없음,7756,6ba053ca33c149f083d38290f7d86c6e.jpg,우리상회,2,,483,,37.53297009
경기,99,1,108호 시작이반찬,126.8276877,경기 안산시 단원구 광덕서로 100,11:00~20:00,,1,매주일요일,15461,2999fc93428f43348eee3a57190617b7.jpg,시작이반찬,1,,482,반찬류 중 4종 선택,37.3135472
경남,1,1,M타워 104호,128.7137281,경남 창원시 진해구 자은동 138-5,11:00~21:00,,1,15:00~16:00,51592,97407cbf189649dbad142262602e8a40.jpg,버거스캔들 진해자은점 ,1,,481,,35.15454504
충북,1,"01,02",1층 한판돈까스 ,127.4544987,충북 청주시 청원구 오창읍 2산단로 185,10:30~21:00,,1,매주 월요일 (브레이크타임 14:30~17:00),28117,4407faae65d64b08a4e5a5ca4b209841.jpeg,한판돈까스 청주,2,,480,,36.73698152
대전,99,1,스타타워 114호 아라니카노 ,127.3375511,대전 유성구 도안북로 85-31,10시-8시,,1,매주 월요일,34218,53fe9ad64cf44f1e9a720f4e9dc968a9.jpg,아라니카노,1,,479," 홀 디저트,음료",36.3316503
경기,99,1,101-1호,126.7664578,경기 고양시 일산동구 장항동 752,수 - 일 낮 12시 - 저녁 8시,,1,"월, 화",10401,c6a35a2fe71148bd8e34b83abda7f995.jpg,몽실몽실 케이크,1,,478,케이크,37.66014749
경남,99,1,1층,128.8132818,경남 김해시 관동로71번길 24,평일오전10시~오후4시,,3,주말 공휴일,51005,,수아헤어,1,,477,헤어커트(예약필수),35.17740292
경기,1,1,상가1동120호,126.7498934,경기 고양시 일산동구 태극로 8,24시간,,1,없음,10394,ebe1470a07874cde82d541cd913fb787.jpg,집어가 킨텍스원시티점,2,,476,,37.66397143
서울,99,1,지층,127.0563999,서울 노원구 동일로 1598,11:30~21:30,,1,15:00~17:00,1631,,달인보쌈,1,,475,마늘보쌈도시락,37.67105614
광주,1,1,1층 공차 광주 봉선점,126.9075399,광주 남구 제석로 110,09시~22시,,1,없음,61702,,공차 광주봉선점,1,,474,,35.12420698
경기,1,1,1층 피자이탈리 구래점,126.6239424,경기 김포시 김포한강9로115번길 8-13,11:00~익일 1:30,,1,둘째 넷째 월요일,10071,,피자이탈리 구래점,1,,473,,37.64786282
강원,2,1,1층,128.8777212,강원 강릉시 하슬라로232번길 17-7,12:00~19:00 소진시 마감,,1,"일,월,화,수,목",25508,38c1ed9af5db4683b02b3dccb7f20e72.jpg,설레이나봄,2,,472,,37.77107671
경기,1,1,육장갈비,126.8328825,경기 안산시 단원구 고잔2길 16,오전11시~오후11시,,1,없음,15359,c53ec319379c441da8b0e7ee7499e152.jpg,육장갈비,2,,471,,37.31763327
서울,1,1, 3층 정재광 복싱클럽,127.0531009,서울 동대문구 회기로 152,오전 12시 부터  오후 10시 까지,,2,법정 공휴일 모두 쉽니다.,2460,aec747b5bb794391acb2d52205ee752a.jpg,정재광 복싱 클럽,1,,468,,37.59106832
대구,,,무지개파크골프,128.5718842,대구 북구 노원동3가 1038-4,,,2,,41555,,대구밥상공동체,,,467,,35.8946999
경기,1,1,이지더원아파트 상가,127.1102808,경기 화성시 동탄순환대로28길 17,11:00~18:00,,1,"일,월,화,수,목 (금,토만 매장 운영)",18466,2125d932ec1841ad891d6e0870814f4a.jpg,샹떼콩콩,1,,466,,37.20854939
경기,99,,1층  치킨선생/을찌로국물떡볶이  ,126.8023294,경기 부천시 소안로 34,12시~02시,,1,연중무휴,14699,0f15af08a7114a2e99e16966e08b6728.jpg,치킨선생/을찌로국물떡볶이 부천소사점,1,,465,크리스피 1마리  또는 을찌로떡볶이 ,37.47767127
경기,1,"01,99",파케이드스텔라 지하201호 ,127.1096351,경기 화성시 동탄대로6길 27,16시~24시,,99,0,18501,a422771c6e52480691f54560c9a8b391.jpg,경성주막1929 동탄호수공원점,99,가족모두,464,,37.16873263
충남,2,1,에이블타워 106호,127.1086042,충남 천안시 서북구 불당동 1532,오전11시-오후9시,,1,오후3시-오후5시,31156,08b0781fa0cd4fde92ddde97b956a1e8.png,킹콩부대찌개 신불당점,2,,463,,36.81698041
전남,99,1,3층 아모레광양특약점,127.7050408,전남 광양시 눈소3길 35,오전 8시 30분 ~ 오후 5시,,99,오전 12시 ~ 오후 1시,57797,,아모레광양특약점,99,인원 30명내,462,비누 및 생활용품,34.93770197
서울,1,1,1층 브로스키친,126.891781,서울 영등포구 선유동1로 6-4,11월 25일,,1,없음,7263,af0fe8516c2349a99ce6556a055a519c.jpg,브로스키친,99,어려운아이들과 어려운 가정에게,461,,37.52246613
경북,2,"01,02,99",3층 레스트 인터홈,129.339042,경북 포항시 북구 대이로 188,오전10시~오후10시,한부모 가정,99,"매월 2째, 4째 일요일",37694,fb5009236e5f4a23a65118ac1ac26d16.jpeg,레스트 포항지사 인터홈,1,,460,,36.03177865
경북,99,"01,99",1층 달비아뜰리에,128.4234332,경북 구미시 옥계신당로7길 16,10시~19시,미혼모 ,3,매주 일요일 휴무,39181,18edc323facd4bec9b13742cb4c58d78.jpg,달비 아뜰리에,1,,459,커트 ,36.14416547
경남,1,1,메트로프라자 305호,129.0083894,경남 양산시 물금읍 야리2길 31,10:00-21:30,,1,연중무휴,50653,28c69897915a40e88f1b3ca010b1f0f0.jpeg,고카츠,2,,457,,35.30995262
경기,1,1,1층 떡순튀,126.7743878,경기 부천시 심곡동 344-7,11시~23시,,1,수요일(월4회),14617,745054b7fa454d2b82767a5d3bb5fa32.jpg,떡순튀,1,,456,,37.48880101
경기,1,1,1층 건짱,127.6359931,경기 여주시 세종로 254-20,오후1:00~오후11:00,,1,"금,토,일,월 휴무",12652,71c5b7996f744d3e992260393f96882d.png,건짱,2,,455,,37.27477948
서울,1,"01,02",101,127.0439124,서울 강남구 언주로69길 16,10~21,,1,연중무휴,6226,dc68812e49754702b668c0b61171173c.jpg,우리카페,2,,454,,37.49642535
대구,99,,블레스헤어 ,128.5684535,대구 남구 안지랑로19길 19,오전10시부터 오후7시까지,,3,일요일휴무,42485,3bc1133a68bb4362994021b5bda7aa36.jpg,블레스헤어,1,,453,커트.꼭 해야될 상황이면 모든 서비스,35.83757229
충남,99,1,모아빌딩106호,126.6751335,충남 홍성군 홍북읍 홍학로 81,12시~23시,,1,무,32265,8c95e027f9e64a8b9a9bc3808c45a818.jpg,가마로강정 내포신도시점,3,,452,달콤 (대),36.64772035
충남,2,99,청솔아파트203-1103,127.1154122,충남 천안시 서북구 월봉7길 77,오전10부터,가족,99,없음,31171,1bc8a89239ee4354a825c92a28149058.jpg,다하리홈크리닉,99,아이의집,451,,36.79364926
강원,1,1,실비막국수,127.7258622,강원 춘천시 소양고개길 25,11:30 ~ 19:00,,1,"둘째 넷째주 월요일, 설/추석 당일만 휴무",24271,f25a2cc4d4a64b50bdee7fa7b3f6fa42.jpg,실비막국수,3,,450,,37.88368567
광주,1,"01,02",1층 카페조율,126.9146355,광주 북구 면앙로 22,오전9시~오후9시,,1,매주 일요일,61188,2b00bddca88244d0bdb9720d764dbf82.jpg,카페조율,1,,449,,35.17973491
서울,1,"01,02",218,126.9178974,서울 서대문구 가재울미래로 2,9시-18시,,2,,3709,,아하하일본어,1,,448,,37.57442036
경기,1,"01,99",스카이타워 114호 부산어묵 ,127.0921413,경기 양주시 옥정동 963-4,9.09,지역에 어려운이웃,1,매주화요일,11473,d47539e7c56e4897970966142012340e.jpg,부산어묵 ,2,,447,,37.82140143
서울,2,1,1층 피자헛,126.9182755,서울 관악구 남부순환로 1508,10:30~22:30,,99,,8772,,피자헛난곡2호점,1,,446,,37.48224817
서울,1,1,107호,127.0078018,서울 용산구 독서당로 22,09:00~20:00,,1,일요일,4410,5652a6fe6c32462c961681b83236348d.jpg,본도시락 한남점 ,2,,445,,37.53016316
경북,99,1,102-301,129.3740059,경북 포항시 북구 성실로 66-11,매일다릅니다,,1,매일다릅니다,37615,,수풀림케이크,1,,444,"낱개보틀,생일당일은4구한상자",36.07020858
부산,99,1,1층 오삼겹,129.0844358,부산 동래구 명륜로112번길 27,13시~21시,,1,무,47808,428469d0b54c4bdab7155fb36b3214f0.png,오삼겹,99,본인포함4명까지,443,"대패삼겹살,음료,밥",35.20361626
경남,2,"01,02",1층 호록,128.8525564,경남 김해시 금관대로1180번길 3,11:00~21:00,,1,15:00~17:00,50956,111c507cb2b54e18a8e435ac577dc574.jpg,호록,2,,442,,35.23250155
서울,1,1,911동103호 갈현동할머니떡볶이 ,126.9209327,서울 은평구 진관3로 67,10:30~19:30,,1,"일,월요일",3301,297b1cb2c49849dfb930a8f01006dfc1.jpg,갈현동할머니떡볶이 ,1,,441,,37.64276446
경남,1,1,(감계리)101-1 메가커피,128.5943156,경남 창원시 의창구 북면 감계로 306,9시~9시반,,1,없어요,51112,e973da33e9764f539247c5d15f2e828a.jpg,메가커피,1,,440,,35.30196094
경기,1,1,원흥힐사이드파크 테그42 고양도래울점,126.8699694,경기 고양시 덕양구 도내동 951,10:00~21:00,,1,,10551,a09d998281984e709f0de35f7e89526e.png,테그42 고양 도래울점,2,,439,,37.6359092
경기,1,1,"서현동, 1층 중화",127.1416054,경기 성남시 분당구 불정로420번길 17-1,11:30 ~ 21:00,,99,"15:00 ~ 17:00 , 매주 화요일",13578,3e7ebd76b8e0410fad5768ee7ca9a97d.jpg,중화,2,,438,,37.37554404
대전,1,"01,02",1층 카멜로커피 로스터스봉점,127.3403639,대전 유성구 원신흥동 550-4,평일10:30~21:30 주말&공휴일11:00~21:3,,1,없음,34195,efa4e69817da4bdcbe4ce527201aab1a.jpg,카멜로(CHAMELO)본점,1,,437,,36.33551604
경기,1,1,1층,127.0512158,경기 의정부시 의정부동 147-18,12:00~24:00,,1,,11695,5f60b4f7094246ddbc7f9823f75e85ab.jpg,Mr.푸룻,1,,436,,37.7384288
경남,2,"01,02,99",인정에코타운207호크리틴트,129.002526,경남 양산시 물금읍 백호로 76,오전10~6,결식아동.소방관님,3,매주목요일,50613,5f854fdebe284d609e18740c5b3062bd.jpg,크리틴트미용실,1,,435,,35.31743773
인천,1,,3층 YJ건축학원,126.6714568,인천 서구 석남동 516-4,10시~16시,,2,"매주월요일 ,국가 공휴일",22789,acc798c063fe48d492ab9c2eca45a08a.jpg,건축도장방수기능사F4비자 YJ건축학원,99,결식아동,434,,37.50802036
대구,99,1,1층,128.6050441,대구 북구 산격로 13-3,09:00-18:00,,1,일요일,41543,39efeb4d19b848e489cac502bd754867.jpg,사랑가득한공동체협동조합,1,,433,도시락,35.89179948
광주,99,1,A동 1층 짬뽕지존수완점,126.8194433,광주 광산구 임방울대로 507,09:30 ~ 00:00,,1,연중무휴,62244,,짬뽕지존 수완점,1,,432,"짬뽕, 짜장",35.2049305
대전,1,1,1층커피베이지,127.4417587,대전 동구 가양로132번길 11,11:00-20:00,,1,화요일,34574,bc4758d61cb04701825b3cb484a393cb.jpg,커피베이지,2,,431,,36.34831465
울산,99,1,1층  까끼헤어,129.3324693,울산 남구 달동 1349-10,10시-8시 30분,,99,일요일휴무,44703,9741685250ee42a782c6b507bbfd67ae.jpg,까끼헤어,1,,430,커트무료,35.54139429
서울,99,1,Golden House 1층,127.0303206,서울 성북구 고려대로24가길 13-2,PM 5:00 ~ AM 1:00,,1,정기휴무 없음.,2856,8629c0845dc94935b2d489d9ae1de841.png,주식회사 늘,1,,429,식사류 모든 품목,37.58533768
제주,99,"01,02,99",2층 슛다요가,126.5387893,제주특별자치도 제주시 구산로 35,새벽 5시40분~ 밤 9시반까지,한부모 자녀,2,,63236,7b7e372095134c9799f8556ce46758d4.jpg,슛다요가,1,,428,수련비 무료,33.4835443
경기,1,1,1층,126.6710434,경기 김포시 장기동 1394,11시30분 ~ 23시 50분,,1,없음,10079,33a528c2cf9443d381f07fe2102350ad.jpeg,족발야시장 김포장기점,2,,427,,37.64444568
대구,1,1,현풍백년도깨비시장 청년몰 102호,128.4422285,대구 달성군 현풍읍 현풍로6길 5,11:00 ~ 21:00,,1,매주 월요일 (월요일이 장날인 경우 정상 영업),43003,2361868499fd48b6a89301212cc2178e.jpeg,현주떡볶이 ,3,,426,,35.69476056
전남,2,1,초록마을오천점,127.4949545,전남 순천시 오천6길 54-1,10~21,,1,명절휴무,57999,,초록마을오천점,2,,425,,34.93524209
대구,2,99,1층 꼬치코치,128.6062872,대구 북구 산격로19길 9,오후4시~새벽1시,배고픈데 돈이없으신분들,1,연중무휴,41534,598184b0b23e43db8721416bd6c790a2.jpg,꼬치코치,99,돈이없어서 고민되시는분들,424,,35.89912326
충북,1,"01,99","3층, 엑스클래스 수학학원",127.4276067,충북 청주시 흥덕구 서현북로 44,"평일 17:00~24:00, 주말 13:00~24:00",집안 사정으로 학원을 못다니는 학생,2,금요일,28383,05cc86051dd6432389d7f279c159e8a5.png,엑스클래스 수학학원,99,고등학생 및 고등부 선행진행할 중학생,423,,36.62089837
경기,99,"01,99",꼬꼬스토리,127.1174217,경기 남양주시 별내면 청학로92번길 29,오전11시~오후10시,군인,1,매주 수요일,12080,29196cd0b5eb46bb91c77934240b087e.jpg,꼬꼬스토리,1,,422,컵강정,37.7108146
강원,1,1,1층,128.5529995,강원 고성군 토성면 아야진해변길 145,09:00~17:00,,1,"매주 수요일휴무 , 라스트오더  16:30",24756,06651e3de4224745a2af0179fbc33f1f.jpg,해녀의집바이아야진,2,,421,,38.27534065
경북,99,1,1층 화이트 PC방,129.2046427,경북 경주시 원효로 36,24시간,,99,무휴,38157,,화이트 PC방,2,,420,"라면, 밥",35.84213024
서울,1,1,1층 유끼노하나,127.0728255,서울 동대문구 장한로36길 10,"낮12시~익일 새벽 1시(금,토 익일 새벽 2시)",,1,오후 4시20분~6시 브레이크타임,2522,91f5b229660740f6981fb9e3aca27339.jpg,유끼노하나,1,,419,,37.57742109
서울,99,1,장미상가 A동 314호,127.0992805,서울 송파구 신천동 7,10월 08일,,3,명절 외 연중무휴,5504,3540ca9f394847518e118822c2cb4e36.jpg,헤어매직,1,,418,컷트 무료,37.51888493
경남,1,1,1층 통큰두마리찜닭,128.8554618,경남 김해시 외동 690-14,12시부터21시,,1,매주일요일,50894,99e1a6326a0841168cffaf2839304a65.jpeg,통큰두마리찜닭,2,,417,,35.2354424
경기,2,"01,02",압구정 베이커리 카페,126.82821,경기 화성시 장안면 사랑길 170-4,매일 오전 9시 ~ 오후 9시,,1,연중무휴,18584,c5565268fb7c49bd907c254a1bb47d51.png,압구정 베이커리 카페,3,,416,,37.08478491
서울,1,1,2층 카페,126.9222762,서울 마포구 와우산로11길 9-10,12:00~20:00,,1,,4049,ac59c6bae10c41f78da082586d39363b.png,코코아트리,,,415,,37.54847247
전북,99,1,만두가,127.1557682,전북 전주시 덕진구 견훤로 301,오전 10시~  오후10시,,1,일요일,54920,9640e7679e1a4a4586ed3c117a371ef8.jpg,강경원달인 만두가,2,,414,먹고 싶은 메뉴 2가지,35.8383006
서울,,,럭스빌딩 6층,126.9980048,서울 서초구 서래로 17,,,2,,6581,,원더스잉글리시아카데미,,,413,,37.49666677
서울,2,1,1층식당,126.898142,서울 영등포구 도림동 232-2,11시~~9시,,1,3시~5시주말휴무,7374,,쿠이대,1,,412,,37.50715635
울산,99,1,2층 박치과,129.3102493,울산 울주군 온산읍 덕남로 31,"평일9시30분~19시, 토요일9시30분~13시",,99,"점심시간(12시30분~14시) 일요일, 공휴일",45006,9673c1c73ecf47799458dd79b0dab9a0.jpg,박치과,1,,411,"충전,실란트,스켈링, 신경치료 등 ",35.43206002
경기,99,"01,02",2층,126.8155217,경기 안산시 단원구 달미로 100,10:00 ~ 21:00,,1,,15216,8253ba3a622c404f85bce5b29a296790.jpg,(주)포만푸드,2,,410,스테이크도시락,37.34466678
서울,2,1,1층 샌드위치만드는언니,126.8394323,서울 강서구 월정로30길 64,월-토 10시~9시,,1,매주 일요일,7767,a11cd095b3aa4331b5acadf40ac27bf2.jpg,샌드위치만드는언니,1,,409,,37.53487822
경북,99,1,1층듀얼몬스터 ,128.7387397,경북 경산시 경안로42길 16-1,,,1,,38618,21f2d86e63f9432791d56b0e677e1ee2.jpg,듀얼몬스터,2,,408,파스타,35.82579213
경기,99,1,웨스턴돔A 3층,126.7720388,경기 고양시 일산동구 정발산로 24,11월 06일,,99,"월,수",10403,b59be36081bc4d7b95cbb6218655e6f1.jpeg,세븐스 예나,1,,407,커트,37.65589641
제주,1,99,네일홍,126.8314041,제주특별자치도 서귀포시 표선면 표선중앙로 64-1,07~22,손발톱관리케어필요한분,99,일요일,63629,121b5dc2335f4568bf2797f3b6fb00cf.jpg,네일홍,2,,406,,33.32691585
서울,1,"01,02,99",효영빌딩 102호,127.0732331,서울 노원구 동일로173가길 25,09~20,"산악구조대, 산림청,",3,일요밀 휴무,1860,b35109ecae0f41ff8640136b36bfd311.jpg,슈마스터태릉점,2,,405,,37.61941061
광주,2,1,2층  효치과,126.8835526,광주 서구 내방로 392,09:30 ~18:00,,99,12:30 ~ 14:00,61934,,광주 효 치과의원,99,결식아동 가족,404,,35.15734137
전남,1,1,1층,127.7490262,전남 여수시 이순신광장로 266,11:00~22:00,,1,.,59745,2ba3035650e943eb843ec0c98b60d8e4.jpg,피자알볼로 여수엑스포점,1,,403,,34.74324358
경기,1,1,1층,126.7781321,경기 고양시 일산동구 정발산동 1131,오전12시30분~오후11시30분,,1,매주 월요일,10357,2f7c69a92700437581f969aa66cd7fe3.png,피자1989정발산점 ,1,,402,,37.67443765
인천,1,1,지하1층,126.657917,인천 연수구 송도국제대로 123,오전10시30분에서 20시30분까지,,1,없음,21984,f2c70bbacbd04dd3b841364383b3f6e1.jpg,풍국면송도현대아울렛점,1,,401,,37.3816291
충남,1,1,불고기부대,126.7749013,충남 당진시 합덕읍 합덕교동1길 11,오전11시부터오후10시까지,,1,매주일요일휴무,31812,a8194f91fba84518b5d8d299c93ea6c3.jpg,불고기부대,3,,400,,36.8074338
인천,99,1,신광빌딩 1층 고기예술,126.6670527,인천 서구 율도로 43-1,14:00~22:00,,1,첫째 셋째 일요일,22781,f01a35ce341941c7bcadda3220b57120.jpg,고기예술,3,,399,고기예술 소고기2종모듬 및 식사메뉴,37.51385822
강원,99,"01,99",위니아딤채 교동점,128.8803993,강원 강릉시 하슬라로 14,10~19시,독거노인,99,매주일요일,25518,a04369a8b08f450b8c7fadbf1359395b.jpg,위니아딤채(교동점),99,밥굶는 아이라면 누구나,398,"에어컨,음식등 지원",37.75536228
경기,2,1,205호 장미맨숀,127.1901696,경기 하남시 미사강변중앙로204번길 11,17:00~01:00,,99,매주월요일,12913,,장미맨숀하남미사점,2,,397,,37.56523516
대구,1,"01,02",301동 109호,128.4591061,대구 달성군 다사읍 달구벌대로174길 50,12시~00시,,1,,42915,e6fc2eb53e464ad18197eb7d0ef8e87c.jpg,자담치킨다사점,2,,396,,35.85948432
경기,99,1,청년다방,127.0558847,경기 동두천시 지행동 738-9,AM11:00~PM9:20,,1,연중무휴,11356,,청년다방 동두천지행점,1,,395,주류제외 1만원미만,37.88943615
경기,99,1,2층,127.6361674,경기 여주시 세종로79번길 7-1,낮3시~밤12시,,1,격주 월요일,12631,64d51abb521f4613bae0195b367bfa08.jpg,자담치킨,2,,394,치킨,37.29065189
서울,2,"01,02",지하 1층,127.0593834,서울 강남구 대치동 1016-4,오후1시 - 오후 10시,,2,일요일 휴무,6279,7f956996ed404dd888f5102b267fe245.jpg,87.5 탭댄스 컴퍼니,2,,393,,37.49751412
서울,1,1,1층,127.0893767,서울 광진구 구의로 8,오전 11:30~ 오후 11:30,,1,평일 오후 3시~5시,5045,634b4b4f54624a79a189234127647d0e.jpeg,먹오삼,2,,392,,37.53866603
대전,99,"01,02",1층 밍카페,127.3775459,대전 서구 갈마동 1403,9:00~18:00,,1,일요일,35266,bc1d715ef76e4f0fafc641410549db5a.jpg,밍카페,2,,391,음료1토스트1,36.3420975
전남,2,1,현대1차 상가 현대마트사과나무,127.5302729,전남 순천시 왕궁길 65,09:00~23:00,,99,일요일 오전,57970,37b88e4141e44e27870930f9befe1306.jpg,현대마트사과나무,1,,390,,34.95728869
경기,1,"01,02",2층 레드브라운카페,126.9591057,경기 안양시 동안구 경수대로584번길 37,10시 부터 20시,,1,일요일,14109,df17e0686a3d41bbb978317f5a45d0cd.jpg,레드브라운호계점,1,,389,,37.37557264
경기,99,1,2층 배양리두루치기,127.3177766,경기 포천시 일동면 화동로1050번길 3,12시~22시,,1,무,11117,3b774e4ff8f64fe18b72ede1bbec3c1a.jpg,배양리두루치기일동점,2,,388,김치찌개.왕계란말이.삼겹살.된장찌개,37.95710537
전남,1,"01,02",제주거멍돗,127.4867335,전남 순천시 환선로 145,17:00~22:00,,1,"첫째,셋째 화요일",57938,28cf2c6257814b708a715d70383aa23b.jpg,제주거멍돗,3,,387,,34.96828751
부산,99,99,7층 유앤아이치과,129.0590214,부산 동구 범일로 97,평일9시~18시,치아치료받고  잘 먹기를!,99,"점심시간 12시30분~2시,토일 공휴일 휴무",48735,804f2a224c7a43c9af0a5909e23be762.png,유앤아이치과,99,아동급식(신한)카드제시시 아동만 무료,386,충전/실란트/스켈링/신경치료 등,35.13866324
부산,1,1,베러먼데이 수안낙민점,129.0900627,부산 동래구 수안동 749,오전 8시 ~ 오후 11시,,1,없음,47887,281d1f72ad7746bf8f242233882fbb0d.jpg,베러먼데이 수안낙민점,3,,385,,35.1944322
경기,99,1,1층,126.9251771,경기 평택시 안중읍 안중로 8,09시30분~19시,,3,매주 수요일,17940,5495813256fd42709c15e08a58c35398.jpg,미스터케이헤어살롱,1,,384,커트 무료시술,36.98237262
충북,1,"01,02",1층 소미칼국수,127.4697006,충북 청주시 서원구 산남동 405,오전11:30 ~ 오후 21:00,,1,연중무휴 매주 월요일 15:00까지만 영업,28626,efe291c7a1144d75ab413d82d9951d64.jpeg,소미칼국수,99,아이 포함 동반 2인까지 ,383,,36.6124409
대전,1,1,101호,127.3446967,대전 서구 도안동 970,pm4-12:30,,1,없음,35352,46f3fecb61bd4c16b642406cff05258d.jpg,고기원칙 가수원점 ,99,아이본인과  가족,382,,36.33046603
대구,1,1,108호,128.5861543,대구 북구 고성로 191,오후5시~익일01시,,1,,41594,68062b78ac6b45568844f66030fe0c80.png,피자팜비어 대구FC침산점,3,,381,,35.88301935
충북,1,1,이쉐프컵밥,127.4937807,충북 청주시 청원구 수암로 98-3,10:00~20:00 (주말 10:30~15:00),,1,,28504,,이쉐프컵밥,2,,380,,36.65111299
인천,,,(옥련동)거산프라자1층마블링정육점,126.6477541,인천 연수구 한진로25번길 4,,,99,,21949,,마블링정육점 ,,,379,,37.42495077
인천,99,"01,02",향촌휴먼시아 1단지상가1층106호,126.7318921,인천 남동구 만수서로 53,오후2시~저녁11,,1,매주일요일,21523,9643257840d74330af553bd6917f8ee7.jpeg,타코붐타코야끼 ,1,,378,타코야끼14알 + 복숭아아이스티,37.46199653
경기,1,1,1층,126.8091748,경기 파주시 조리읍 봉천로 21,오전11시10분~오후11시30분,,1,연중무휴,10937,934f058248e743988882c6835364d9fc.jpg,피자1989봉일천점,99,"꿈나무,컬러풀드림카드.소지자 및",377,,37.7429932
서울,1,"01,02",1층 Breeze,127.0986946,서울 중랑구 용마산로100길 7,평일 09시 ~ 18시,,1,"매주 일요일, 첫째/셋째 토요일",2184,cf408ef5ebe24e688ead4450811d6aa7.jpeg,브리즈,2,,376,,37.59161095
경기,99,"01,99",가온PC,127.2109393,경기 남양주시 와부읍 석실로 471-4,10:00~18:00,기초수급자,99,국가공휴일,12201,,가온정보통신,1,,375,컴퓨터수리,37.60990472
인천,2,1,"가동 55,56,75,76호",126.7232589,인천 부평구 시장로 지하 10,12:00~9:30,,3,매주 화요일,21394,,sommers2nd 부평지하상가,99,여성의류라 여자 아이만 가능합니다,374,,37.4912344
인천,2,1,1층,126.7243048,인천 계양구 하느재로5번길 5,11:00~20:00,,1,휴무 없음,21039,3a6831dcdd6e40e28bee3e4ef02cde66.png,카페루시,1,,373,,37.54391052
부산,2,"01,02",1층 하삼동커피 ,129.1117005,부산 남구 용호로 161,07:30~23:00,,1,연중무휴,48585,f2b46e32b8b74f96918e040f8f1bcd48.jpg,하삼동커피 용호사거리점 ,1,,371,,35.11787513
경북,1,1,정식품 문경대리점,128.2217738,경북 문경시 산양면 반암2길 3,9시~5시,,1,"토요일,일요일",36937,,정식품 문경대리점,1,,370,,36.61281008
인천,99,1,지하1층,126.7375034,인천 부평구 부평문화로 190,11:00~20:00,,2,금요일,21401,46e1a3e5374e4e53878d84cc67ef887d.png,k88스케이트보드클럽,3,,369,스케이트보드교육,37.49346149
충북,1,1,129호 할매안흥찐빵 오창점 ,127.4286082,충북 청주시 청원구 오창읍 중심상업1로 8-9,1300~07,,1,,28120,5d651baffb084cb4bcbe19a1c30e763c.jpg,안흥찐빵 오창점,2,,368,,36.7122601
경남,99,1,1층,128.1150612,경남 진주시 초전북로61번길 6-13,16:00~22:00,,1,매주월요일,52731,116da798e4164b7c837ae6f8bc5f41b1.jpg,해금강회센터 ,99,결식아동가족 (포장가능 ),367,"모듬회,물회,회덮밥,매운탕",35.2090912
서울,2,1,1층정육점,126.8449262,서울 강서구 화곡동 348-4,2022-09-30 22:00,,99,없음,7770,a00e830f04494c50b8121d015cb29bc3.jpg,청춘푸줏간,1,,366,,37.53300706
경북,2,"01,02",,128.3562667,경북 구미시 상모로9길 1,,,99,,39335,,고고아쿠아,2,,365,,36.09003709
경기,99,"01,99",1층,127.0942394,경기 용인시 수지구 수지로296번길 56,11시30분-20시30분,결손가정.영세민.독거노인 등,1,명절전날.당일,16841,4e54816b5e5347c6b5a68a233a292e95.jpg,홍콩반점0410수지구청점 ,2,,364,짜장+탕수육,37.32100703
전남,,"01,99",4층,127.4839153,전남 순천시 가곡1길 7,,14세~20세 청소년,99,,57923,,나디하타요가,1,,363,,34.97968117
인천,1,"01,02",1층 송가냉면,126.5644273,인천 중구 월촌길 30,11~~23시,,1,화요일휴무,22391,424b597276984dc3bbf33c27c2209325.jpg,송가냉면,2,,362,,37.49660325
경기,1,1,메밀정원,126.9433824,경기 수원시 권선구 호매실동 840-3,11시부터21시까지,,1,"구정,추석당일만",16386,a3892e1df7af4410a9f9c5d49851908e.jpeg,메밀정원,2,,361,,37.26380862
서울,99,"01,02",1층 꽃집,126.930336,서울 마포구 와우산로 161,12:00~19:00,,99,"월,화 휴무",4052,634580c512944e23beb723d85e9ac726.jpeg,블루밍부케,2,,360,오늘의꽃다발,37.55536391
서울,2,1,영진빌딩 106호,127.0500754,서울 도봉구 노해로69길 21-11,"평일오후4시-12시 주말,휴일오전11시~밤 12시",,1,둘째넷째 화요일 휴무,1414,1cc9ad8369884b49afad580b4ac29b99.jpg,족발야시장창동역점,3,,359,,37.65310992
경북,1,"01,02",1층카페,129.3602554,경북 포항시 남구 상공로 104,Am10~pm10,,1,목요일,37826,,상공로104,1,,357,,36.0168502
강원,99,1,,127.7254934,강원 춘천시 행촌로 48,17:00~03:00,,1,없음,24442,,이모네고깃집,1,,356,1인 돼지갈비,37.86058987
경북,99,1,2층,128.4028334,경북 칠곡군 석적읍 남율로 20,13:00~20:30,,2,"주말,공휴일",39844,,남율챔피언태권도장,1,,355,매월 수련비 ,36.06511854
충북,2,"01,99",배떡,127.5705287,충북 옥천군 옥천읍 금장로 62,오전11:00 마감 오후21:00,소외계층 한부모가정,1,연중무휴,29047,e382838eaff94c16aea658162151dfa1.jpg,배떡 옥천점,1,,354,,36.30030102
경기,1,1,1층 128호 직구삼,126.6706554,경기 김포시 김포한강1로78번길 7,오전11시 ~ 오후11시,,1,없음,10079,25ca1244180a4fe9aeb66dcd766c6724.jpeg,직구삼 김포장기점,2,,353,,37.64486977
대전,99,1,3층 어반헤어 은행점,127.4276852,대전 중구 은행동 33-10,"오전11~오후7시(월,화,수만 가능)",,3,없음,34921,33e16359498b4522906ab47231cbed19.jpg,어반헤어 은행점,1,,352,"컷트,펌,염색",36.32786096
제주,2,1,1층 갓더라면,126.8437706,제주특별자치도 서귀포시 표선면 민속해안로 580,8시~20시,,1,매주 화요일,63629,7b377a9c901c4472a2b64e02a664b0fa.jpg,표선해비치갓더라면,2,,351,,33.32518349
경기,99,1,1층 김찌개,127.2518853,경기 광주시 경안안길 5,오전11시~오후11시,,1,매주월요일 휴무,12755,79400b8e34f943a6822d2387e0065a3f.jpg,김찌개,1,,350,찌개 또는 짜글이 1인분,37.41450783
인천,1,1,땅땅치킨 미추홀점,126.6805696,인천 미추홀구 미추홀대로698번길 6,11:00~00:00,,1,없음,22140,9186ae45d13c4336b38d725de028806c.jpg,땅땅치킨 미추홀점,1,,349,,37.45963941
서울,99,,"1층 (논현동, 두원빌딩) 더 수제비",127.0327484,서울 강남구 논현로132길 29,"11시~8시 (평일),  11시~6시 (토)",,1,일요일,6053,c5ab989ad40d4f7ba804b68ae7449d3a.jpg,삼청골명가 더수제비 ,2,,348,"수제비, 들깨수제비,들깨감자옹심이,감",37.51555641
부산,1,"01,02",1층,129.0575399,부산 부산진구 서면로 31,오전11~저녁12시,,1,휴일없고 2~5시 사이에 장보러 갈때만 잠시 가게 비웁,47288,71350cedb4a24889927739199d82d435.jpg,제주맛순대,99,동반자가족일체,347,,35.15353464
서울,99,"01,02",지층 사계절치킨,127.0189355,서울 성북구 동소문로24길 31,오전10시부터 새벽2시까지,,1,앖음,2845,3de914eca6f4496eb9c718a21e0a2097.jpg,대한푸드(사계절치킨),2,,346,치킨 세가지 후라이드간장 양념,37.59226157
경기,99,1,고구려짬뽕,126.7748038,경기 시흥시 수인로 3472-22,10:30-20:00,,1,매주월요일,14903,,고구려짬뽕집,2,,345,식사류,37.44399577
서울,99,1,지하1층,127.029729,서울 성북구 안암동5가 104-30,9시부터 새벽3시,,99,없습니다.,2856,,닥터브이 코인노래연습장,1,,344,"의류,신발사업도하고있습니다 신발,옷",37.58396192
인천,1,1,한신종합상가 106호 킴아쿠아,126.6815004,인천 서구 서곶로 16,10:00~21:00,,99,연중무휴,22797,,킴아쿠아,1,,343,,37.52016092
인천,1,"01,02",1층,126.6309163,인천 서구 청라동 105-81,요일별로상이,,1,없,22765,,픽스치킨 인천 청라점,2,,342,,37.5245466
경남,99,1,우마이,128.7024027,경남 창원시 진해구 석동로20번길 21-1,am11:30-pm10:00,,1,준비시간 pm3:00-5:00 / 매주 수요일 휴무,51660,d14fed6a19b44946ad0c43ddbee2bbce.jpeg,우마이,1,,341,야끼유부초밥+우동,35.15224692
경기,2,1,105호 조은약국,126.7708556,경기 고양시 일산동구 중앙로1261번길 55,10-21(평일) 10-17(토요일),,3,일요일 및 공휴일,10402,6bc2e8ebf7d04ae1ad0fa86175bd66b5.jpeg,조은약국,1,,340,,37.65758391
경기,99,1,103호,127.47201,경기 이천시 부발읍 대산로 379,오전11시~오후21시30분,,99,15시~16:30분,17329,26b4bdb062d544e0a75757a5ec974a88.jpg,닭사부일체 이천본점 ,3,,339,묵은지닭볶음탕+치즈폭탄계란찜 ,37.2533485
인천,99,"01,99",대신프라자 4층 온더데스크 용현센터,126.6332704,인천 미추홀구 매소홀로 63,8:00am ~ 다음날 1:30am,급식카드 소지자,2,휴무는 블로그와 인스타그램에 공지를 올리고 있습니다.,22190,,온더데스크 용현센터,1,,338,독서실과 스터디카페 이용,37.45018566
인천,1,"01,02",102호,126.7519844,인천 남동구 서창남로 16-41,08시~19시,,1,,21618,1be78fd51d3947b8b534ac56494797a4.jpg,데니쉬마블,1,,337,,37.42174658
인천,99,1,황금명태,126.7201511,인천 남동구 구월로266번길 25,오전 11시 ~오후 10시20분,,1,매월 첫째주 수요일 휴무,21534,4dae8679eed94a19a349a1eca327d575.jpg,황금명태,2,,336,"매콤명태조림 ,갈치조림,쭈꾸미철판",37.45454094
경기,1,1,149호,126.9190898,경기 평택시 안중읍 현화리 831,11시~15시 17시~21시,,1,매주 일요일 15:00~17:00,17944,,리얼파스타,1,,335,,36.97895946
경남,99,1,진주펄아쿠아,128.0614267,경남 진주시 평거로5번길 30,오전11시오픈오후8시마감,,99,연중무휴,52701,3b7f1c55a6c84161b5145e0281ebfcf8.jpeg,진주펄아쿠아,1,,334,열대어. 열대어용품. 사료,35.17374924
경기,1,1,B동 112호 뱃살도둑 안산고잔점,126.8289513,경기 안산시 단원구 광덕대로 141,08:00 - 02:00,,1,연중무휴,15476,,뱃살도둑 안산고잔점,99,가족,333,,37.30909459
서울,2,1,1층 로드락후라이드,126.9104816,서울 은평구 신사동 7-24,14시-02시,,1,없음,3422,a35893e39cc24959ad269fadd24a2917.png,로드락후라이드 은평신사점,2,,332,,37.60144952
부산,2,1,1층 상가 몽에그,129.0631676,부산 부산진구 중앙대로 786,08~22,,1,명절당일,47241,ea15848555c549f3a01a8922d1d71eae.jpeg,몽에그,1,,331,,35.16193623
서울,1,1,1층 103호 엥겔커피,127.1303196,서울 강동구 성안로 39,12:00-24:00,,1,매주 수요일,5396,,엥겔플랜트,2,,330,,37.52738373
서울,99,"01,02",1층 카페거실,127.0666312,서울 노원구 화랑로47길 9,,,1,,1914,e1721cbcbaec405e91268455b4a7948b.jpeg,카페거실,1,,329,음료메뉴 전부,37.61574588
대구,,,정문상가 B01-02 도담푸드,128.5171463,대구 달서구 선원로 241,,,1,,42606,,도담푸드,,,328,,35.8602851
서울,1,1,3층 초심스터디카페 구의점,127.0938461,서울 광진구 광나루로 588,24시간,,2,없음,5033,e85a29f3090f4e7db2a25c5de1d112bb.jpeg,초심스터디카페 구의점,1,,327,,37.5426904
경기,2,99,1층,126.8121987,경기 부천시 부일로 743,,,1,,14670,,모두밀 부천직영점,99,,326,,37.48626839
서울,1,1,지하1층 초심스터디카페,127.0976335,서울 광진구 광장동 470-10,24시간,,2,365일 영업,4974,02c2348df85642b7833907a174c62dbf.jpg,초심스터디카페 광장점,1,,325,,37.54141746
울산,1,1,해성관앞,129.2306925,울산 울주군 범서읍 천상1길 17,10시~오후 6시반,,1,"주말,공휴일",44931,0bb6bfdb085247e989622e57446f2305.jpeg,미앤밀 ,2,,324,,35.56313729
충북,2,1,4층 플렉스 피트니스,127.4336832,충북 청주시 흥덕구 복대동 3268,09:00 ~ 23:00,,3,일요일,28426,53765832fe1646af9023691010035bca.jpg,플렉스 피트니스,3,,323,,36.63945017
경남,99,1,120호,128.8662599,경남 김해시 내외로77번길 20,10:30~20:00,,99,일요일,50948,d446777024574092b64c19eb9c32706f.jpg,아담,1,,322,헤어컷,35.2364477
서울,2,1,2층 입분식가정집,127.1104017,서울 송파구 송파동 51-4,11:30~21시,,1,없음,5619,,입분식가정집,3,,321,,37.50999855
인천,99,"01,02",휴대폰하우스,126.6459727,인천 연수구 인천타워대로54번길 9,10:30 ~20:00,,99,,22000,3abadd2590dd4e9bb87c75a2f3bc68a0.jpg,휴대폰하우스,1,,320,"휴대폰케이스, 필름, 중고폰 개통",37.37898775
서울,1,1,네네치킨,127.0958495,서울 중랑구 신내로 135,18:00~24:00,,1,매주월요일,2026,788695d0e08a4668b5e967c2dd7637e1.jpg,네네치킨신내1점,1,,319,,37.6113848
부산,1,1,1층 정국수,129.1126342,부산 수영구 수영로611번길 17,오전11시~오후8시,,1,브레이크타임:오후 4시~5시 매주 일요일 정기휴무,48254,9af8250f04524636a2b6167cb45833e6.jpeg,정국수,2,,318,,35.16054798
경기,1,1,1층 매일찬방,126.9674522,경기 의왕시 원골로 8,10시까지,,1,주말.공휴일,16053,,매일찬방,1,,317,,37.35827679
경남,1,"01,02",1층 도쿄쉐프,129.0005198,경남 양산시 물금읍 서남1길 3,09시~23시 까지,,1,매주 화요일,50599,dad14162bde84c4282f2a629d678c421.jpg,도쿄쉐프,1,,316,,35.32625501
부산,1,1,1층 통큰갈비 수영점,129.1186741,부산 수영구 감포로 71,16시~24시,,1,,48268,b8ac8a781b014543b0e8dd0280e25243.jpg,통큰갈비 수영점,2,,315,,35.16472139
경북,99,1,아름다운집 1층 상가,128.3594211,경북 구미시 상사동로28길 4,오전9시- 7시,,99,일요일,39328,e461e1757eb742d4ae8558e4166b63f9.jpg,강스헤어,1,,314,컷트  ,36.10086306
인천,99,1,부평시장로터리지하상가 35.36.39,126.7266045,인천 부평구 시장로 지하 42,AM11~pm7,,99,매주 2째4째주 목요일,21392,11b7441dbccd4d4c88a3c5166452bc2f.jpg,또와스넥,99,상황에따른 제공 푸르미 소지자 가능 ,313,찌개류 쫄면 국수,37.49461123
울산,2,"01,02,99",1층 연화,129.3304382,울산 남구 왕생로45번길 11,11시30분~23시30분,국가유공자,1,15시~17시,44718,b0d4586e057240ba867133c47574e71c.jpg,연화,3,,312,,35.53717346
인천,99,1,족보있는집 미추홀점,126.6661107,인천 미추홀구 용현동 4-1,오후3시 - 새벽 2시,,1,매주 화요일,22209,35c4e9c17f03435eb93f25b9e6d9152a.jpeg,족보있는집 미추홀점,1,,311,"1인세트 , 커플세트1",37.45192419
서울,1,1,1층 102호 넘버나인,127.0147848,서울 종로구 창신동 436-64,밤12-낮12시,,99,일요일,3120,54483236fdfd45cb884ff43df8b00bf0.jpeg,"레기돌(넘버나인,해피필링)",1,,310,,37.57011375
울산,99,"01,99",2층 울산희망스포츠사회적협동조합,129.3571863,울산 북구 신기9길 10,평일 오후2시~9시 토요일 오전 9시~오후5시,상담후 어려운 가정의 자녀,2,일요일은 쉽니다,44215,d573ce52a1ea40bc9e4d0480ef41c60b.png,울산희망스포츠사회적협동조합,1,,309,원 회비전액 또는 감액,35.64920348
경북,99,1,1층,128.3039225,경북 구미시 선산읍 교리북길 22,10:00~20:00,,3,매주 월요일 휴무,39112,10738cffe7ac416e8f5463e316ac0034.jpg,라보떼,1,,308,커트,36.25345379
충남,1,"01,02",1층104호 동네빵집,127.1161864,충남 천안시 서북구 쌍용동 1592,오전10:00~오후20:00,,1,토요일 오후 15시까지 영업 및 매주 일요일 휴무,31174,,동네빵집,2,,307,,36.79150729
경기,1,1,104호 션하게마시자,127.2270572,경기 용인시 처인구 한터로152번길 2,15:00~23:00,,1,매주 일요일,17149,d048dd3abe474b3aa8b7c66750d0368e.jpeg,션하게마시자,1,,306,,37.2484846
경기,99,1,(정왕동주차빌딩) 1층 108호,126.7341428,경기 시흥시 서촌상가3길 7-13,09:00~22:00,,1,"설날, 추석연휴",15036,f548d6680c934a3784d33e767bc2857d.jpg,24시수육국밥시화점,1,,305,"수육국밥, 순대국밥",37.34633737
부산,99,"01,02,99",휴대폰놀이터,128.9805486,부산 사상구 운산로 33,오전10시~오후8시,장애우,3,매주 일요일 혹은 빨간날,46955,6a18d88029cd4ed3bd4c7482a24fc1e5.jpg,휴대폰놀이터,2,,304,보급형스마트폰 무료개통,35.16865121
충북,2,"01,02",402-2호,127.4855296,충북 청주시 서원구 1순환로1063번길 61-54,3:00~10:00,,2,공휴일,28797,,수비니겨수학교습소 ,1,,303,,36.6105177
경기,99,"01,02",우성테크노파크1 323호,126.8252463,경기 부천시 부광로 220,09:00-18:00,,99,11:30-13:30,14786,,썸듀,2,,302,"생필품, 생활용품, 밀키트(계획중)",37.46762546
서울,99,1,1층 잉크마루,126.8563095,서울 구로구 개봉로 50,오전 10시부터 오후 7시까지,,99,"일요일,공휴일",8332,0838590cb15348b288d16ee6316d4210.jpg,잉크마루,1,,301,"잉크충전, 출력, 복사, 코팅",37.49012558
경북,1,1,1층,128.3974203,경북 칠곡군 왜관읍 중앙로7길 17-1,02월 16일,,1,격주월요일,39893,,족발상인,3,,300,,35.99127157
전남,1,1,1층 이디야 순천대 정문점,127.4840807,전남 순천시 중앙로 270,09:00  ~ 22:00,,1,무,57938,3fabe6739d514e329283ac432dac09c8.jpg,이디야 순천대 정문점,2,,299,,34.96984632
서울,99,"01,02",1층,127.0193769,서울 성북구 보문로34길 72-4,오전 10시 30분~ 밤 12시,,1,매주 월요일,2849,b7c3a1230d4f45fab4e9801c4897f731.jpg,나이스 샌드위치,99,아이 본인과 친구들 사주고 싶을때  ,298,모든 품목이고 간식도 챙겨 보낼께요,37.59097109
전북,1,1,101호,127.0572425,전북 완주군 이서면 오공로 11-10,16:00~01:00,,1,,55365,f64bd7a1cd6b421bb1372f415864c810.jpg,가마꿉혁신점,3,,297,,35.83650663
충북,99,"01,02",푸르지오3차 105동1903호 ,127.9422553,충북 충주시 염밭로 13,6~20시,,99,없음,27403,d2db482e1fc44728b273a27d7858856f.jpg,태경사다리차&태경스카이차,2,,296,집수리 및 이사시 고소장비 대여,36.95866078
서울,99,"01,02,99",전자랜드 본관 5층 B501호,126.9595585,서울 용산구 청파로 74,11시~20시,군장병,1,없음,4372,0bd7425eaaf9488eb1e45bcc16de150d.png,더트레인,2,,295,음료 및 기차모디오라마 10분 무료,37.53278886
경기,1,"01,02",1층 나란나란,126.6707712,경기 김포시 장기동 1419,10시~22시,,1,월요일 휴무,10079,276025afdb8a4bea960eb93447b3bc45.jpg,나란나란,3,,294,,37.64383126
경기,99,"01,02",세종타운201호 보그헤어호매실점,126.9533424,경기 수원시 권선구 금곡로 204,오전10시30분~오후8시,,99,1시~2시,16397,c76743776940494ab0a69a4c7cdbd0c0.png,보그헤어서수원호매실점,1,,293,미용서비스,37.27370622
경기,2,1,117호 츄카롱,127.074491,경기 수원시 영통구 봉영로 1606,오전11시 ~ 오후 10시,,1,매주 월요일,16704,,츄카롱 수원점,1,,292,,37.25386861
경기,2,1,2층 부함식당,127.0585859,경기 수원시 영통구 영통로214번길 25,오전11:00 - 오전 01시,,1,없음,16698,,부함식당 수원망포역점,2,,291,,37.24659873
서울,99,1,이루는교회 2층 카핏,126.9563,서울 관악구 관악로 234,오전10시 ~ 오후7시,,1,일요일.공휴일,8737,b591a418317640c49e7ffc7fd91bfb78.jpg,카핏,1,,290,음료1. 디저트1,37.4849602
경기,99,"01,99",1층 미소가와,126.7822296,경기 파주시 문산읍 당동리 134-3,오전9시~오후9시,,1,매주화 휴무,10821,654584e9c9f742dc9bc4cf495f6e4362.jpg,미소가와,99,,289,최대한 원하는 품목 ,37.86203236
전북,99,1,군자대한곱창신시가지점,127.1093203,전북 전주시 완산구 홍산중앙로 30,16:30~02:30,,1,연중무휴,54969,027b946a84154cf1a2a89f093eaec762.png,군자대한곱창전주신시가지점,2,,288,대창떡갈비 또는 깍두기볶음밥,35.81629251
경기,99,1,흥일빌딩 6층 다수인학원,126.9604223,경기 안양시 동안구 평촌대로 107,12:00~23:00,,2,없음,14099,766a83fe75914537b29092412bfde9dd.png,한원석,99,수강을 할 학생,287,학원 수강료 일정금액 면제,37.38156589
경기,1,1,로뎀타워 109호,127.1253859,경기 남양주시 별내중앙로 34,오전 11시 ~ 오후 8시,,1,브레이크타임 3시~5시 / 휴무일 (일요일),12113,f2f8b853b42942058b33a7d490f8fc86.jpg,소름돈냉,2,,286,,37.64617112
부산,99,"01,99",3층디에스키친,129.0342455,부산 부산진구 대학로 68-4,오전10:30~오후10:30,"한부모가정,저소득취약계층",1,매주 월요일,47336,5308683dcc4f43569ef46f3fb8e44101.jpeg,엠슐랭,3,,285,"파스타,필라프 메뉴",35.14987397
경기,1,1,코스코상가 105호,126.7241883,경기 화성시 송산면 백곡로 128,오후 3시부터  10시 30분까지,,1,연중무휴,18552,6a504d916a8f455babb48d541692331b.jpg,피자와치킨의러브레터,3,,284,,37.19766843
인천,99,1,시골농부 쌀베이커리,126.6378414,인천 동구 송현로 59,11~9시(마감은유동적),,1,"일,월",22546,8e2cd7266d664b0a8f2764b713423359.jpg,시골농부,1,,283,음료1잔  빵또는 디저트1개,37.48058846
인천,99,1,1층,126.6725963,인천 서구 가정로 339,AM10:30 ~PM 9:00,,99,매주 화요일,22782,06a23835b474461caea4ecd0b2ee6fc1.png,윤헤어,1,,282,컷트,37.5152172
경기,99,1,114호 피자와치킨 안산1호점,126.8125681,경기 안산시 단원구 선부광장1로 108,오전 11시~ 오후 10시,,1,,15368,21e27a2a4610481b9ef7fa92aaba9880.jpeg,피자와치킨 안산1호점,99,결식아동 및  결성가정구성원,281,더블치즈피자  및 원하는 품목,37.33324835
경기,99,"01,02",1층 오케이컴퓨터,127.2513111,경기 광주시 통미로 88,09:00-18:00,,99,일요일,12739,f5eb6810d6bc432baf9c420799f56e41.png,K.com,1,,280,무상수리 및  리뉴얼 pc 지원,37.41687152
세종,,,202호 (나성동),127.2576793,세종특별자치시 한누리대로 245,,,99,,30127,,제본공작소,,,279,,36.48607107
대전,2,"01,02","101,102호 모어댄아이",127.3383744,대전 유성구 원신흥남로42번길 6-14,11:00 ~ 20:00,,99,매주 일요일,34195,5c8ec84ccd7a475dbea24c25d5a51084.jpg,모어댄아이,1,,278,,36.33548979
경기,1,"01,02",골드프라자 B207호,127.0811963,경기 용인시 수지구 성복2로 17,11월 20일,,1,일요일 휴무,16860,af8f56e1581b42de823ea631e52e4d68.jpg,달콤트럭 수지센트럴점,2,,277,,37.31083465
경기,2,1,로뎀타워 115 송쿡,127.1253859,경기 남양주시 별내중앙로 34,오전11-오후8시50분,,1,"매주 화, 평일 오후 2시30분-5시",12113,301d415db4604f89b63e8d485e411e42.jpg,송쿡,2,,276,,37.64617112
경기,99,"01,02",1층,127.0954803,경기 용인시 수지구 풍덕천동 1082-7,09:00~22:00,,1,,16841,38be6ec9ddfe451fbc66b0235b87c667.png,순대보감,1,,275,"국밥류 4,000원",37.3217574
대전,2,"01,02",지하1층 고민사진관 ,127.4045842,대전 유성구 전민동 385-9,오전10시~오후7시,,3,매주 월화,34052,3348c25abf614a0a96ac8777bfefb7cb.jpg,고민사진관,2,,274,,36.39687638
강원,99,"01,99",강릉유환식당,128.9202448,강원 강릉시 초당동 70,11시~21시 (브레이크타임15시~17시),불우이웃증명만된다면 다됨,1,설당일휴무,25468,6fad934d5fea4d4983775a0014ac8709.jpg,강릉유환식당,1,,273,대게장을 제외한 모든품목,37.78435552
서울,2,1,1층,127.0435593,서울 도봉구 도봉동 597-21,평일 오전 11시30분 부터 오후 9시30분,,1,오후2시30분 부터 오후 6시까지,1307,,써이포차나,2,,271,,37.67783199
서울,,,,127.1321077,서울 강동구 진황도로29길 8,,,99,,5337,,청춘집합소,,,270,,37.53851199
경기,99,1,광명무역센터 b동 112호,126.889187,경기 광명시 일직로 72,11시30분~16시,,1,"일요일,방문전 꼭 전화하고 오세요 조기마감을 자주해요",14348,5761f0b06a224bb0a30911e60380b13e.jpg,도톰카츠 광명점,1,,269,등심카츠,37.42003591
서울,1,"01,02",1층 직구삼,126.9045513,서울 영등포구 디지털로66길 8,11:00에서 새벽1시,,1,연중무휴,7439,b1a63f49cc974787a33a5774f3bfd301.jpg,직화삼겹직구삼 대림신길점,1,,268,,37.49252558
경기,2,1,1012호 올리브(창고),127.1415797,경기 구리시 건원대로34번길 27,평일  am 11:00~ pm 19:00,,3,"토,일 휴무",11921,15b3d6f3e0574f089ac4bb374ac55d42.jpeg,Olive 올리브,1,,267,,37.60482393
제주,1,1,1층 호끌랑 카페,126.5574637,제주특별자치도 서귀포시 장수로 98,오전11시~오후8시,,1,"매주토요일,설명절,추석명절 휴무",63584,3151d5a86a5d44a78734b5a8e7c5ca4a.jpg,호끌랑,1,,266,,33.2562823
충북,1,"01,02",1층,127.4888702,충북 청주시 상당구 북문로2가 96-12,홀오전 11:00~오후7:00 이후 배달포장,,1,,28543,e790bb6796274b98a2f6c3a91e4be0b5.jpg,북문로떡볶이,2,,265,,36.63947609
서울,1,1,601호 엘리트태권도장,126.8325647,서울 양천구 신정이펜2로 22,13시30분~21시,,2,"토,일,공휴일",8049,40bc632c9f0d4ecc9300b24388d3cfaa.jpg,엘리트태권도,1,,264,,37.51289569
서울,1,"01,02",1층 커피정류장,126.9385051,서울 관악구 복은길 46,9시~9시,,1,매주 월요일 휴무,8834,5f7f81eb8d954e50a98bdbbb82b34dff.jpg,커피정류장,1,,263,,37.47444309
서울,2,"01,02",1층 105호 서서울,126.8313073,서울 양천구 남부순환로58길 33,오전9시~저녁10시,,1,연중무휴,7915,e42543fe10864cb88fa05b06daccfaed.jpg,서서울,2,,262,,37.52917527
경기,99,1,4층,127.2038989,경기 포천시 중앙로 132,10:00~19:00,,99,,11145,f9d683b5df03457e81e938d9ecae9708.jpg,필름1982,1,,261,증명사진,37.89777189
서울,99,"01,02","1층 성찬푸드/족발,냉면,짜글이",126.8355991,서울 양천구 신월동 122-15,오전11시30분~익일 01시 까지,,1,없음,7923,beadedd2f92e4098a226e9e643631c06.jpg,성찬푸드,2,,260,폭탄도시락,37.53011521
인천,99,"01,99",113호 글라스밤안경 인하대역점,126.6491202,인천 미추홀구 독배로 311,11시~21시,독거노인,99,명절,22188,,글라스밤 인하대역점,99,,258,안경렌즈 안경테 포함 10만원이하,37.44814624
서울,2,"01,99",1층,127.0429812,서울 성북구 장월로1길 111,화수목금 12:30~7시(제품 소진시 조기마감),기초수급가정아동,1,토일월,2752,387a290a2eb44ae881e327e20ecf934a.jpg,샤롱샤롱,1,,257,,37.604307
충북,1,1,102호,127.3286188,충북 청주시 흥덕구 오송읍 만수리 835,11시~22시40분,,1,매주 일요일휴무,28166,56b0867082c24cda9be0ed97ac1d4b38.jpg,불스떡볶이 오송점,2,,256,,36.62285003
경기,99,1,삼환나우빌아파트 상가 2층,127.1945264,경기 용인시 처인구 김량장동 516,오전11시~오전 1시,,1,,17061,11d4836dce3d498781b2925a17c9e994.jpg,빨간토마토피자 용인1호점,1,,255,일부 품목 제외,37.23366158
광주,2,"01,99",,126.9001818,광주 북구 일곡마을로 9,pm3시 ~ pm9시,바우처는 지원금 외 추가금 없음,2,국경일(대체휴일포함) 및 토.일요일,61041,dde06b4b9b154bc993a27dffafc04bc4.jpg,해동검도 우치도장,1,,254,,35.20606675
충남,1,"01,02",이마트24,127.077533,충남 아산시 배방읍 월천6길 35,6시~24시,,99,,31496,285278e4ab2647b38c5d8eeb6ac8aeb4.jpg,이마트24아산북수리치점,1,,253,,36.77094954
전북,2,1,2층 ,126.7141222,전북 군산시 동령길 12,오전 10~오후 5시,,1,"공휴일,토요일,일요일",54026,1a100c5dddcc41059f8e3535feccc895.jpg,soondubu,1,,252,,35.98676741
충남,2,1,STCO,127.1313236,충남 천안시 서북구 쌍용동 1023,Am10~Pm21,,99,없슴(명절당일 휴무),31155,768a51e740f74d3789ab15273d95ba2e.jpg,STCO천안쌍용점 ,1,,251,,36.80304587
충남,1,1,홍금순왕만두찐빵,127.0872637,충남 논산시 계백로 990,오전9시~오후9시,,1,7월~8월 휴무,32974,e8603a8051814798be28e3e35a1bec60.jpg,홍금순왕만두찐빵,1,,250,,36.20266123
경남,1,1,상가2동 101호 꾸운닭보쌈,128.5851762,경남 창원시 의창구 북면 감계로 221,오전 10시~ 밤10시,,1,,51112,bea09c1cc12145d88e0153c7b3013f81.jpg,꾸운닭보쌈 감계점,2,,249,,35.30121782
경기,1,1,108호,127.0760225,경기 수원시 영통구 영통동 1023-1,11:00-21:00,,1,명절당일.다음날,16702,13eefa405ef1424c8385fc67004751b0.jpeg,키와마루아지 경희대점,2,,248,,37.24846623
전북,99,1,2층 미스터피자,126.9002032,전북 김제시 도작로 104,11:30~20:30,,1,14:00~17:00,54376,436b27a7ebd64c8ab12efad24b456434.jpg,미스터피자,1,,247,피자뷔페,35.80384968
경기,99,1,101호,126.8662407,경기 안산시 상록구 본오로 89-1,오전11:00 ~ 익일 01:00,,1,매주 월요일 휴무,15551,c0441ed041844d65aebe8408bfba334c.jpg,동대문떡볶이 동떡&닭강정,2,,246,떡볶이+치킨세트 or 떡볶이+컵밥,37.29315031
전북,99,"01,02",쏘울메이드,127.115037,전북 전주시 덕진구 두간11길 17,10시~19시,,3,"일요일,화요일",54830,d4a32d01862c4676ae3e0d064c1ae143.jpg,쏘울메이드헤어샾,1,,245,컷트,35.86381597
대구,99,1,1층 소소식당,128.5614076,대구 서구 달구벌대로361길 11,"평일,토요일:11:00~20:30",,1,일요일휴무,41864,8e82d253968348bf98d814e6f32b8cdc.jpg,소소식당,1,,244,식사메뉴1+음료,35.8605212
제주,99,1,이노에듀타운A107호,126.2770166,제주특별자치도 서귀포시 대정읍 글로벌에듀로 382,,,1,매주 일요일,63644,7a01d72c3dfe442ba98a29306d440581.jpg,홀푸르츠마켓,1,,243,과일도시락,33.28032391
부산,99,1,1층 ,129.0758999,부산 동래구 중앙대로1367번길 38,12-22시,,1,매주월요일,47728,,OK도매횟집 동래점,3,,242,회덮밥,35.20998695
경기,99,"01,02",첼바,127.4394822,경기 이천시 설봉로30번길 32,10:00~21:00,,1,,17375,8f7d87f666ff4bd492b3809becf1adbd.jpeg,이천첼바,1,,241,"음료,샌드위치",37.27866501
서울,1,"01,02,99",1층,127.0154451,서울 성북구 서경로 37,11:00 ~ 21:30 (마지막 주문 20:30),군인 경찰,1,"평일 15:00 ~ 17:00 신정,명절당일",2716,08949426e4244223b94f8a1921d30975.png,하오하오츠,2,,240,,37.60712437
서울,99,"01,99",1층 육대장,126.9813284,서울 동작구 사당동 89-6,오전11시~오후9시,독거노인,1,연중무휴,6997,1e1f5f40c5484f6992432d9bcd378a74.jpg,육대장이수역점,2,,239,"육개장,설렁탕",37.48876924
경북,99,1,랑랑포차,128.3379372,경북 칠곡군 북삼읍 북삼로 102-1,오전10시~다음날 세벽1시,,1,"매주월요일 휴무, (화,수,목,금-오후3시~5시 준비중",39801,,랑랑포차,99,아이본인+가족,238,"형 ,밥주세요",36.07123701
인천,1,1,309호,126.726677,인천 부평구 대정로 66,11:00~23:00,,99,,21395,8827c8b024df43499257f09531b68e91.png,문제적도둑,2,,237,,37.49357272
경북,1,1,지곡에드빌 102동 140호,129.3240349,경북 포항시 남구 지곡로 253,11시~20시,,1,,37670,,신전떡볶이포항지곡점,3,,236,,36.02897584
경남,99,1,웅상센텀프라자 2층,129.1683825,경남 양산시 삼호1길 52,오전 11시 ~ 오후 10시30분,,1,없음,50529,,미스터피자웅상점,1,,235,피자샌드,35.41449865
부산,99,"01,99",2F 205호 담아내다.,129.1755764,부산 기장군 정관읍 정관로 566,12:00 ~ 22:00,,3,없음,46017,7cef1afa32544fd98ebfaa04080dc296.jpg,담아내다.,99,동반자 가족 전체,234,"증명사진, 가족사진, 장수사진 촬영",35.32127844
경기,1,1,1층 홍콩반점,127.122644,경기 남양주시 별내동 1024-3,11시~9시,,1,없음,12112,cdc6c85186ef4b0997a1ed61702f1a21.jpg,홍콩반점남양주별내점,2,,233,,37.64674901
인천,2,1,꼬기만땅 점보비빔밥,126.6401552,인천 서구 왕길동 695-2,오전11시~오후11시,,1,매주 월요일,22657,06c73e997eb741d485117c74f8e8b887.jpg,꼬기만땅 점보비빔밥,1,,232,,37.59650862
경기,2,99,406호,126.7852685,경기 시흥시 진말로9번길 2,14시~22시,,2,토.일,15002,,해법장곡이지학원,1,,231,,37.37846402
경기,99,"01,02",1층 브리드로스터스 카페,127.237687,경기 광주시 회안대로 599,평일 am9 - pm9 / 일 am12 - pm7,,1,,12748,1e2fe488ba4d40f6aadf485380a09268.jpg,브리드로스터스,2,,230,음료,37.40641554
대구,99,"01,02",1층 모던뷰티,128.548199,대구 달서구 상인로5길 50,10;30-20;00,,3,"월요일,일요일",42815,,모던뷰티,1,,229,커트,35.81075985
울산,99,1,3층 비즈단과,129.3450647,울산 남구 돋질로367번길 1,11:00~22:00,,2,,44710,dadce79d489e4bf1a5cb23a8129b80d4.png,비즈단과학원,1,,228,"중등과정, 고등과정 일부",35.54434206
대구,1,"01,02,99",1층,128.5965366,대구 중구 봉산동 28-1,오전11시오후10시,,1,없음,41943,c2a54280aeba40ed8b90c6293b1dfb54.png,신대장떡볶이,3,,227,,35.86552081
경기,99,1,109호 신참떡볶이,126.8021566,경기 안산시 단원구 원초로 33,오전11시~오후22시,,1,없음,15383,,신참떡볶이안산원곡점,1,,226,나홀로세트,37.32872318
경기,1,1,1층,127.1995649,경기 하남시 미사강변한강로334번길 43-1,오전 10:00~오후9:00,,1,매주 일요일,12923,5649790e10c346c1a8d04e1df7b3b62b.jpeg,샐리앤린(맥시칸라이브그릴),99,,225,,37.56002722
강원,99,1,1층,128.6016818,강원 속초시 해오름로188번길 12,9:00~19:30,,1,,24886,af24bdfb2ed34b95b81195f884c7c845.jpg,탑골막국수,1,,224,"막국수,만두,전병",38.19170655
충북,1,"01,02",송이하우스 1층 터공인중개사사무소,127.4978312,충북 청주시 청원구 내덕동 130-17,09:00 ~ 17:00 (10시간),,3,연중무휴,28497,,터공인중개사사무소,99,청주대학생 및 교직원 누구나,223,,36.65844337
부산,99,,1층 매일이생일,129.1039147,부산 동래구 온천천로471번가길 18-3,오전 11시30분-오후7시30분,,1,휴무일 변동,47900,ff7834b5dc094dd58c3913c982198c7f.jpg,매일이생일,1,,222,특별한날 도시락케이크 주문가능,35.19212509
제주,99,1,1층뽕끌랑 ,126.5383339,제주특별자치도 제주시 구남동1길 11,12시~8시반,,1,토.일,63231,3eac6df83245418db78e9d1c8714b809.jpg,뽕끌랑,1,,221,생일케이크(원하는사이즈미리연락주세요),33.49146681
경남,1,1,1층103호 싸움의고수,128.5591229,경남 창원시 마산합포구 월영동1길 17,오전10시~오후10시,,1,없음,51751,0e0d73d4a9054b7cabb30190afa7f83f.jpg,싸움의고수경남대점,1,,220,,35.17960431
대전,1,"01,02",1층 각,127.3531828,대전 서구 벌곡로1379번길 5,오전11 ~ 오후 8,,1,매주 월요일,35387,,각,1,,219,,36.30417157
충북,99,1,1층 플랜디,127.3536081,충북 청주시 흥덕구 강내면 태성탑연로 258,5:30~7:00,,1,토요일,28173,2f8edba217c5469283824220b09f4956.png,플랜디,3,,218,"파스타, 음료",36.60734456
경북,2,1,타이짬뽕 영덕점,129.3835408,경북 영덕군 강구면 강구대게1길 11,오전10시 OPEN / 9시 Close,,1,평일 4시~5시 주말&공휴일 4시~4:30분 매주 월요,36455,c1cdb64533ed4e93a52efe1b276fcf67.jpg,타이짬뽕(영덕점),1,,217,,36.35927529
대전,99,1,금잔디뷰티,127.3330946,대전 유성구 장대동 268-1,10시~19시,,99,"일,월,화",34173,578848c15bb84b38944380994aa8694c.jpg,금잔디,1,,216,커트,36.35946826
기타,99,"01,02,99",해외 거주지 선택이 안되네요...ㅜㅜ,126.4276993,인천 중구 공항로 272,예약제♥ (시차 있음: PST),선한영향력 지지자 및 형편 어려운 분,2,트위터 참고♥,22382,e22e29d62d6f46168e8dca0f6e52440b.png,무료영어과외,99,동반 인원수 제한 없음; 온라인이라서,215,[자음/모음] 부터 [업무회화] 까지,37.45835071
경기,99,1,스카이프라자104호 또띠아를 말아줘,127.077678,경기 양주시 부흥로 1932,11시~20시,,1,일요일휴무,11492,d55bae288b934af89cf0ddb5fb46b07b.jpg,또띠아를 말아줘,2,,214,브리또세트,37.79443941
경기,99,,LH35단지 상가 1층 선한커피,127.1217503,경기 화성시 동탄순환대로10길 42,"평일 7시~20시, 주말 10시~19시",,1,매주 수요일,18504,7dead449f0ab47f9b82eb880ecfe9594.jpg,선한커피,1,,213,카페인이 들어가지 않는 모든 음료,37.16652186
대전,1,"01,02",103호,127.347091,대전 서구 원도안로25번길 70,15:00 시부터 03:00시까지,,1,없음,35366,c3ce9fa4086c44ce96808610da0e021b.jpeg,꾸브라꼬 숯불 두마리치킨,99,"아이 가족들, 동반인도 가능",212,,36.30812983
대구,99,"01,02,99",반지하 족이좋아서,128.6267311,대구 수성구 동대구로38길 51,18시 ~ 06시,"경찰, 군인",1,사장쉬고싶을때,42110,,족이좋아서,3,,211,,35.84845295
인천,99,"01,02",111호,126.7326685,인천 남동구 하촌로 28-14,오전9시~오후6시,,2,둘째.넷째일요일,21540,f4a0012d71e445649242bfa54988002f.jpg,토담플라워,2,,210,원예활동을 통한 심리치료및 상담,37.45036265
서울,2,"01,02",2층 돌배기집 ,126.9616363,서울 동작구 흑석로 112,오전 11시30분 ~ 오후 10시(일요일 휴무),,1,평일 오후 3시~4시 30분 (토요일 브레이크타임 X),6972,e6b9bf5033fa4e37b002ae11cbb0bc1e.png,돌배기집 흑석중앙대점 ,3,,209,,37.50837318
경기,1,1,금강리체빌딩 122호,126.7244002,경기 김포시 풍무로146번길 18,10:30 ~  21:00,,1,,10113,,미스터빠삭 김포풍무점,2,,208,,37.60748662
경기,99,99,푸르지오4B-110호 ,127.1415002,경기 성남시 수정구 위례광장로 36,오전 4시 오전 11시까지,,99,없음,13646,cba1c616eb774d93a787bb22b05e4c58.png,맘마찬송파위례점,1,,207,생후6갤~15갤까지 먹는 수제이유식입,37.46843059
경기,99,1,현대아리온1층,127.1104674,경기 성남시 분당구 성남대로172번길 12,오후3시30분~저녁6시,,1,일요일,13618,,제일치킨,1,,206,치킨.음료수,37.35098019
경기,99,"01,02","109호(산척동,파케이드 스텔라)",127.1096351,경기 화성시 동탄대로6길 27,24시간 무인,,1,연중무휴,18501,b3464ca8dca7445693b23b86b91077a1.jpg,홈즈앤쿡 동탄호수공원점,1,,205,밀키트 1팩(2~3인분),37.16873263
서울,99,1,동아빌딩 2층,127.0224522,서울 강북구 노해로 41,17시~02시,,1,"월,화요일  17~18시  식사제공가능",1077,c11ace05a0cf422983dd803a6ef41891.jpg,아이엠,1,,204,파스타 메뉴,37.63930588
경기,99,"01,02,99",연세프라자 203호 한우궁,127.0727379,경기 화성시 동탄문화센터로 71-17,1030~2000,군인,1,매주 일요일,18455,e0ce1584dcd24a8f9bec113b52bb1cd1.jpg,한우궁 동탄남광장점,1,,203,육개장/육칼국수 떡갈비 곰탕 만두국,37.20025655
경기,99,"01,02",메인프라자 610호,127.0419733,경기 화성시 효행로 1051,9:00~22:00,,3,"토,일",18398,3c1acb0e1a84482198e31e973add6c6c.png,LINEUP Dance&Fitness,1,,202,"키즈댄스반, 청소년 댄스반",37.21462897
경기,99,"01,02",아주1차아파트 상가동2층  그림네일,127.0655951,경기 평택시 송탄공원로 146,10:00~19,,99,"일요일, 법정공휴일",17729,680742324ca0423383218d3205ae7c4e.jpg,그림네일,1,,201,"기본젤네일, 케어(패디큐어포함)",37.07729481
전남,1,99,메가박스 1층 126호 소율의캘리그라,127.5108563,전남 순천시 충효로 15,오전10~오후8시,저소득자녀중 배우고싶어하는아이,2,일요일,57964,ed174ca6138d4d2dae90fdc26a4aaed2.jpg,소율의캘리그라피 ,1,,200,,34.94124697
서울,99,1,지하1층,126.8404988,서울 강서구 강서로56길 17,매일10:30~20:30,,1,없음,7584,5f0111fc3a8344878c626521a0223ecb.jpg,마라홀릭,1,,199,마라탕,37.55993353
대구,99,"01,02",1층 미용실,128.5222254,대구 달서구 선원로 269,13시~20시,,3,매주 월화요일 휴무,42607,,MINE,1,,198,무료컷,35.85901582
부산,1,"01,02,99",이편한세상 상가 3-34호,128.9084221,부산 강서구 명지국제2로 80,예약제,장애우,99,예약제,46726,de143793fbc54dca9eebd1ccd6a6db3d.jpg,오드에뜨왈,2,,197,,35.09876662
서울,99,1,1층,127.0584512,서울 동대문구 전농동 46-71,오전11시부터 오후11시까지,,1,없음,2507,be9f317bf82943e9896e9ee5c5b63183.jpg,봉수아피자 답십리점,1,,196,콤비네이션XL 불고기XL 하와이안XL,37.57880066
경기,99,"01,02",보성빌딩 1층 짜글이 잘하는집 ,127.1457675,경기 남양주시 퇴계원읍 퇴계원리 44-28,"월,화,수,목,금,토,일 아침10시~밤12시",,1,없음,12115,cfd6c76c663d430e9794fa213054616f.jpeg,짜글이 잘하는집 ,2,,195,돼지짜글이 ,37.65945232
서울,99,,105호 갤러리딤,126.8868154,서울 영등포구 선유로3길 10,11:00~19:00,,3,주말 및 공휴일,7285,bd5c4337e359450fbca0cef94c0295b5.jpg,디와이코퍼레이션(GalleryDIM),2,,194,제로웨이스트 제품 or  체험,37.51610031
서울,99,1,1층,127.1257972,서울 송파구 방이동 205-3,17:00-24:00,,1,매주일요일,5639,,매운대,99,"부모,아이,형제",193,갈비찜2인,37.50983296
경남,1,1,2층,129.0376278,경남 양산시 남부동 314,평일12시~9시 주말11시30분~9시,,1,매주월요일,50622,,비치스테이크,1,,192,,35.34143014
충북,99,1,디저트39 한국교원대점 ,127.3559941,충북 청주시 흥덕구 강내면 탑연리 339,평일 9시~22시 주말 10시~22시,,1,,28172,,디저트39 한국교원대점 ,1,,191,1인 1음료 1종 베이커리,36.61737233
경기,1,1,1층 116호 국수타래,126.8247717,경기 안산시 단원구 광덕4로 112,월~금 10시~20시 토 일 공휴일 휴무,,1,휴무시간 없음 ,15458,2ef4dfd6873d4234b01778e512bea077.jpg,국수타래,2,,190,,37.31514676
서울,99,1,1층,126.8971809,서울 영등포구 당산로35길 6,11:00 ~ 22:00,,1,"공휴일, 일요일 (코로나로 인해 토요일 당분간 휴무)",7219,,당산돈,1,,189,김치찌개,37.52898745
전남,1,"01,02",아주드림타워  111호,126.7938966,전남 나주시 그린로 351,12시~밤12시까지 ,,1,2시~4시,58325,cc017a22ce9c47e19f7a3c6158792df3.jpg,고집쟁이족발 나주혁신점 ,2,,188,,35.01789409
강원,2,,안경나라,128.4690817,강원 영월군 영월읍 중앙로 47,09:00~20:00,,99,매월넷째주일요일휴무,26232,6aa7b90d054545c9b3a4f3fb6fee2ece.jpeg,영월안경나라,1,,187,,37.18369433
전남,99,1,3층,126.9927903,전남 화순군 화순읍 대교로 123,14시~21시30분,,2,법정공휴일,58115,859602dcfaec451cb57b56f440b16994.jpg,제3교실학원,1,,186,리드인독서,35.06351947
경북,1,1,1층 ,128.3356752,경북 구미시 구미중앙로19길 18,12:00 ~ 20:30,,1,매주 월,39225,,카츠텐,1,,185,,36.1287787
서울,99,"01,02,99",1층 피자베이,126.8600582,서울 양천구 신월로 351,오전 11시부터 밤 12시까지,식사를 잘못하는 불우한이웃!!,1,,8021,a2d2c05bfa7548a19dc37c3e7b87247b.jpg,피자베이본점,99,피자 한판으로 제공 ,184,오늘의요일피자 와 음료수 증정,37.52216881
서울,1,1,102동119호 필라멘,127.1204362,서울 송파구 가락동 80,11-14.30  16:30-21:00,,1,15:00-16:30,5718,52e8bd07e7dd40cd9693f2f1d7dffa29.jpg,필라멘,1,,183,,37.49506449
세종,1,"01,02",1층 마라마라,127.290274,세종특별자치시 조치원읍 내창1길 11-5,11:00~8:30,,1,없음,30019,31f9e7b569b244c6aa9dc7fc123bf713.jpg,마라마라,3,,182,,36.60810338
서울,99,,스페이스살림 1층 스타트업매장 2호,126.9272725,서울 동작구 노량진로 10,13:00 - 20:00 (요일별 상이),,3,"일,월 휴무",6938,5f33988923e040b78cb960811e1d4f88.jpg,월경상점,2,,181,누르 생리대,37.51239334
경기,1,"01,02,99","1층 오른쪽 맨 끝, 푸오코",127.0771635,경기 용인시 기흥구 서천동 7-2,오전10시-저녁7시,코로나 의료 종사자,1,"일요일,설,추석",17104,3beebc8a9b794c589228a6f18c7d20a1.jpg,푸오코 (FUOCO),1,,180,,37.24667377
경북,1,1,1층 오또상스테끼,129.4035273,경북 포항시 북구 장량로 212,12:00 ~ 21:50,,1,15:00~17:00,37596,f9ec98ed35fc46d0b67e1a80ba548d1f.jpg,오또상스테끼,2,,179,,36.08160904
대전,99,1,1층(감성새우),127.372898,대전 서구 갈마중로 33,18:30~02:00,,1,,35271,858236e04ef8410a843435121929ddf1.jpg,감성새우,2,,178,국물떡볶이,36.34777409
대전,1,"01,02",3층 에그드랍,127.3985168,대전 유성구 테크노중앙로 123,10:30-21:00,,1,"추석, 설날 당일 휴무",34030,,에그드랍 대전현대아울렛점,2,,177,,36.42343692
서울,1,"01,02",1층 카페더네네,127.0752425,서울 광진구 광나루로20가길 21,07:00~17:00,,1,"토요일, 일요일",5021,695bda944d774484acfef954ba9339d6.png,카페더네네,2,,176,,37.54522363
서울,1,"01,02",B2 송탄영빈루,127.0305177,서울 강북구 도봉로 62,10:30~19:30,,1,,1215,71f6fa046fcf49838ba2ec4c54fe4cf3.jpg,롯데백화점 미아점 송탄영빈루 ,1,,175,,37.61459298
충북,1,1,1층 카페590,127.4669206,충북 청주시 서원구 산남동 590,월요일 - 오전 11시 ~ 오후 6시 화~금 - 오전 7시반 ~ 오후 6시 토요일 - 오전 10시 ~ 오후 6시,,1,"일요일,공휴일",28625,096aa878ec574c2d8f117a5e69cb2323.jpg,cafe590,1,,174,,36.61230134
서울,2,"01,02",1층 Dal.lem,126.9480721,서울 관악구 봉천동 464-25,화-토 오후2시~오후10시,,1,,8729,746bdc6e0af54d4484779117f641cf54.jpg,달렘,1,,173,,37.48721399
경기,99,1,3층 싸커코어,126.7066359,경기 김포시 금포로 1117-20,12:00~24:00,,2,법정공휴일,10092,fdef4ed80904467ba4cfd5bac457652e.jpg,싸커코어,1,,172,축구교육지도,37.64529196
경북,1,"01,02",1층 앙클킴 디저트 ,129.3166766,경북 포항시 남구 연일읍 유강길17번길 22,오전 11 ~ 오후 10,,1,매주 화요일 ,37656,,앙클킴 디저트 ,1,,171,,36.00415387
경남,99,1,101호,128.7113623,경남 창원시 성산구 삼정자로51번길 7,오전 11시~ 새벽1시,,1,일요일,51473,0d37be30e70143928ffbc4dd4621e382.jpeg,호야,1,,170,돈카츠정식,35.19879842
서울,1,1,신사제2빌딩 101호 돈가스신사,127.0186323,서울 서초구 나루터로15길 6,평일 11:00-21:00 토요일 11:00-15:00,,1,"일요일, 국경일",6524,,돈가스신사,1,,169,,37.51618262
경기,1,"01,02",1층,127.0691862,경기 오산시 시장길 8,11시~15시,,1,없음,18136,0be9ea6b56e1497bb743cb3ef8fd0ed6.jpg,가마솥시골전통보리밥,99,"등본상거주지동일인모두,소방관은동반2인",168,,37.14962729
부산,99,"01,02,99","2층, 다대포예술기지 ",128.9693064,부산 사하구 윤공단로 12,11:00 - 21:30(last order),보육시설출신청년 동반 1인,99,월요일 휴무(지만 열려있을 수 있습니다.),49494,d2494272a5fb4c829eb1773f52ce02f6.jpg,다대포예술기지,99,"음료(동반 1인), 책(본인/월)",167,"음료, 도서",35.05481643
대전,99,1,1층 파스토보이,127.4151128,대전 중구 선화동 419-30,11:00-23:00,,1,월요일,34860,2ca3ead5f1ff47b798d0c7c38663e444.png,파스토보이 중구점,1,,166,필라프 파스타 리조또 메뉴중 택1,36.32718209
울산,1,1,1층 온,129.3436394,울산 중구 종가25길 32,11:30~20:00,,1,14:30~16:30,44548,9119ae956c84477395ded168e480991d.jpg,온,1,,165,,35.58936963
경기,2,"01,02",603호,127.126426,경기 용인시 수지구 현암로 153,"평일 13:00~22:00, 토10:00~ 18:00",,2,공휴일,16876,,119수학학원,1,,164,,37.33195195
경북,1,1,"율곡스퀘어lll, 112호 생활맥주",128.1834301,경북 김천시 혁신3로 5,17시~24시,,1,매주 일요일7,39660,,생활맥주김천혁신도시점,2,,160,,36.11795242
대전,99,"01,02",1층,127.4146205,대전 대덕구 오정동 64-2,10:00~09:00,,99,"토,일요일,법정공휴일",34379,0bf66cc74eac41bc82ce314db1bdb4cf.jpg,채움,2,,159,영양가득세포프로틴음료,36.35930888
경기,99,2,415호 카페 페브,126.6250439,경기 김포시 김포한강9로75번길 190,11:30~20:30,,1,매주 화요일,10071,2ef07bd5201a47ff933e81a1d1e8d2be.jpg,페브,99,아이 본인 + 형제 자매 1인,158,디저트 1개 + 음료 1잔,37.64503833
경북,99,1,1층 105호 (승리빌딩),129.3863194,경북 포항시 북구 신덕로 274,10:00 ~ 22:00,,1,없음,37572,fbf7abfbbabe41a8b2be50c0186c0d4a.jpg,줄리앙와플앤커피 포항점,1,,156,플레인 와플,36.08865873
경북,99,1,1층.카페 보헤미안,128.7478929,경북 안동시 전거리1길 61,오픈11시.마걈11시,,1,연중무휴,36712,f98ee8ee5afe4e5184b0366d79a9809e.jpg,보헤미안카페 ,1,,155,아동들이 마실 수 있는 건강한 음료,36.55989968
인천,99,"01,02",B06호,126.6519802,인천 서구 중봉대로612번길 10-20,18:00~03:00,,1,,22736,9afea29817f044268145bb6bda857c1d.png,유케마시타,3,,151,육회,37.53335175
경남,1,1,1층,128.8221296,경남 김해시 율하2로236번길 38,11:00~21:00,,1,"20:00라스트오더, 월요일 휴무",51016,5a99d36fef3445f1a8d96ae88b2d02c5.jpeg,데이지,2,,150,,35.17638431
전남,,"01,99",1층,127.7012141,전남 광양시 동광2길 22,11시~22시,임산부 본인/현역병사 본인,1,월요일 ,57786,d16e7a0d8cf34a5ea07e1b167ead7d93.jpg,삼형제 장어마트 ,99,,149,,34.94257087
경기,1,1,1층 이촌옥2nd,126.6737582,경기 김포시 장기동 2054-2,11시30분~21시,,1,주중 오후3시~5시 (브레이크타임),10088,5f500b4085834363b65c6058b3d129f2.jpg,이촌옥 2nd,2,,148,,37.63953747
서울,99,,근린상가2동 2103호(108동상가),127.028784,서울 성북구 숭인로 50,11:00~21:00,,1,15:00~16:30,2727,39af29003b2a4e18b73c8bb2c7ec3c15.jpg,72420미아사거리점,2,,147,쌀국수 및 볶음밥,37.61198667
경기,99,1,"1층 111호(정자동, 백궁프라자)",127.1063078,경기 성남시 분당구 성남대로331번길 13,오후13시부터 21시까지,,1,오후15시~16시30분,13558,aa83f2533058459cacc2d648162ba2a6.jpg,비스트로 분당김치찜 본점,2,,144,1인 식사류 전품목,37.36528619
서울,1,"01,02",지하1층,126.9382423,서울 관악구 대학5길 8,오후2시-오후10시,,99,"목요일, 일요일 ",8814,9f4602055d4e4ef29075cf2e7409f6f0.jpg,위드짐,1,,143,,37.46917583
서울,1,"01,02",1층 사미커피,127.0716423,서울 동대문구 장한로14길 70,09:30~23:59,,1,"평일 17:30~20:00, 주말X, 공휴일휴무",2642,0facd33502194a9581fe9d3ba50d0bbe.png,사미커피,2,,141,,37.56512557
대전,1,"01,02",주공@101동 301호,127.3695344,대전 서구 월평북로 11,09:00~18:00,,99,"매주 토,일요일,법정공휴일",35211,,천원리본,1,,140,,36.36339207
경북,1,1,2층쉐프아이가,128.4205079,경북 구미시 황상동 302,11:30 ~ 22:00,,1,15:30 ~ 16:30,39430,,쉐프아이가,1,,139,,36.10900948
대구,99,"01,99",제비원식당,128.623335,대구 수성구 범어천로 51,오전11-오후9시50분,악용이 되지 않길 바랍니다 ..,1,매일오후4시-오후5시 ,42139,2a9be86042344daa88010ac2ad8e5a6e.png,제비원식당,99,아이본인 / 동반1인까지  ,138,메뉴소자(2인)기준으로 가능,35.85149365
강원,99,"01,02",가동 105호,128.581391,강원 속초시 번영로43번길 22,오후5시 새벽12시30분,,1,매주 월요일 휴무,24842,19629fe04d4a454190bd05d54a42cecd.jpg,해풍,3,,137,3만5천원 음식제공,38.20558309
충남,99,1,(주)홍주일보사,126.6948358,충남 홍성군 홍북읍 홍북로573번길 83,월~금 09:00~18:00,,3,"명절, 공휴일 휴무",32278,c070c04a30b64832a91a431d4cf7160f.jpg,(주)홍주일보사,99,아이 본인 또는 보호자,136,정기 구독 서비스,36.65806085
전북,99,1,새맛뜰,126.9733126,전북 익산시 고봉로34길 20,오전11시30분 오후8시30분,,1,매주일요일휴무,54545,756f222db7f242ef9cff18992a1bb2d5.jpg,새맛뜰,2,,135,갈비탕,35.96002329
광주,99,1,"1층, 오태식해바라기치킨",126.8752627,광주 북구 양산동 959,pm 12:00 ~ am 01:00,,1,일요일휴무,61071,,오태식해바라기치킨양산점,1,,134,"모든치킨메뉴 9,000원 포장 제공",35.2076138
경기,1,1,1층 옛날돼지고기,127.0610016,경기 평택시 특구로23번길 39,오후4시부터자정까지,,1,없음,17774,,옛날돼지고기,3,,133,,37.06768003
대전,2,1,소문난집,127.3963785,대전 중구 태평로26번길 75,17:00~22:00,,1,일요일,34887,5d8ead524f8e4b00a4ee6be7d5ff3610.jpg,소문난집  대전유천동점,2,,132,,36.3202575
경기,,,115호 승도리네 곱도리탕 ,127.0652766,경기 오산시 내삼미로79번길 46,,,1,,18114,,승도리네오산세교점 ,,,131,,37.1702358
강원,2,1,아파트상가 105호,128.9125968,강원 강릉시 하평2길 6,14시~23시,,1,매주 일요일,25567,4f137bb5cc654a1093507ad96bd273db.jpg,인생닭강정 강릉포남점,2,,130,,37.77077696
서울,99,"01,99",기와집갈비,127.0522897,서울 성북구 화랑로25길 18,오전11~오후10,독거노인,1,매주 일요일,2771,,발효명가기와집갈비,2,,129,식사류,37.60945421
경북,99,"01,99",애플꼬마김밥효자점(리오시티105호),129.342391,경북 포항시 남구 효성로82번길 6-2,"07:00-19:00/토요일,공휴일09:00-17:00",카드소지자,1,매주일요일 휴무,37835,,애플꼬마김밥효자점,1,,128,메뉴중 택1,36.00563209
경기,1,"01,02",판매시설동 1113호,127.1131615,경기 화성시 동탄대로시범길 134,09:00~21:00,,1,없음,18476,acd9e78154c746728d4b8763fac37b59.jpg,도담도담식빵동탄점,2,,127,,37.19902851
서울,1,"01,99",1층,127.0741511,서울 중랑구 동일로157길 65,11:00-20:00,독거노인 어르신,1,매주 수요일 휴무,2008,ccb98eb56ffe4cb588c2aef655a33adf.jpeg,카페더메뉴얼,99,가족이나 친구들과 함께 와도 좋습니다,126,,37.60933564
경북,99,"01,02",식사준비 포항초곡점,129.3359851,경북 포항시 북구 흥해읍 초곡지구로58번길 38-4,오전10시 ㅡ 오후 8시,,99,없음,37560,97ed5a1b8b2440e984027c1d9b5f68e3.jpg,식사준비 초곡점,99,카드소지자,125,원하는 밀키트 무상제공 (1가지제품),36.09700704
경북,99,"01,02",(두호sk뷰푸르지오2단지상가동) 식사,129.3724287,경북 포항시 북구 두호로 53,오전10시30분 ㅡ 오후8시,,99,없음,37710,99466c0917dd4f10a281ceed87e6d735.jpg,식사준비,99,카드소지자,124,원하는 밀키트 무상제공 (1가지제품),36.06053532
서울,1,1,105호 식사준비,127.174498,서울 강동구 아리수로93나길 50,10:00~20:00,,1,없음,5415,7a3e969675c24fceba5d7edbe1510e68.png,식사준비 강일점,1,,123,,37.57209972
서울,99,1,지하1층 113호 더복희네,126.9181067,서울 영등포구 의사당대로 26,오전11:00~오후10:00,,1,없음,7236,c91cfffcd1d74a5f9e5e6fffb2c32785.jpg,더복희네,2,,122,1인 1메뉴 제공가능합니다.,37.52653714
경기,99,,1층 107호,126.7334014,경기 시흥시 배곧4로 87,09:00~20:30,,1,둘째 넷째 화요일,15010,045d68010b684af391ac4d95e07480ca.jpeg,테그42배곧신도시점,1,,121,"토스트1, 음료1 제공",37.3745977
경기,99,"01,02",114호 크라상점 동탄호수공원점,127.107263,경기 화성시 동탄순환대로 127-23,11시 부터 21시 까지,,1,,18505,a4da7c9da6174dff924d55377f19a9c2.jpeg,크라상점 동탄호수공원점,1,,120,12개 랜덤박스 1개,37.16776499
서울,1,"01,02",1층 카페시아 아틀리에,127.1236663,서울 송파구 문정로1길 34,10:00 ~ 20:00,,1,없음,5805,d1705df3e98f4ca780be67002cb9bb02.jpg,카페시아아틀리에,1,,118,,37.48916353
서울,1,1,1층 컴포즈커피,126.8497029,서울 강서구 화곡로 313,08:00~23:00,,1,없음,7686,d388176af7db4ace801c1f56a2ddb110.jpg,컴포즈커피 강서구청점,1,,117,,37.55228371
제주,1,1,지하 44호,126.5288228,제주특별자치도 제주시 신성로 91,12:00~20:00,,1,매주 일요일 ,63200,defb8dd8136e492c93fd0ecc92330c2a.jpg,시장초밥 ,2,,116,,33.49644468
대구,99,1,대운빌딩 106호 아이플러스안경원,128.4412263,대구 달성군 옥포읍 돌미로 67,오전 10시 ~ 오후 9시,,99,명절당일,42974,85f1f6e381114c7ab8ee2319621e0e54.jpg,아이플러스안경원 옥포,1,,115,결식아동에 대하여 5만원까지 무상지원,35.78081912
경기,1,"01,02",1층 129호,126.7188982,경기 파주시 동패동 1701,,,1,,10874,61197e8cc5a74a6aab184e9c1c4b3300.jpg,60계치킨 파주교하점 ,3,,114,,37.72490413
서울,2,1,1층 얌샘김밥,126.9716704,서울 용산구 한강대로77길 18,07시 ~ 24시,,1,명절 휴무,4321,,얌샘김밥 남영점,1,,113,,37.54207521
경기,1,1,108호 한끼우동(삼성프라자),127.202318,경기 남양주시 진접읍 해밀예당1로 219,10:30~22:00,,1,매월 2째 4째 일요일 휴무,12054,c384cb137d0042b99092c17d39c1a050.jpg,한끼우동,1,,112,,37.72057198
경기,99,1,후문상가 2층 카페지향,126.766821,경기 부천시 약대로 20,평일 11:00-18:00,,1,"일,월,화 휴무 ",14514,4a84324b7a8e48aba8ce259fea74307b.jpeg,카페지향,1,,111,"음료1잔,케이크 제외한 디저트 1개",37.51233
경기,99,"01,02,99",아이엠피자,126.9806808,경기 양주시 광적면 광적로 75,오전 11시 ~ 오후 11시,굶주린 누구나,1,매주 월요일,11420,fcb7494dbca7439ab4c35681af47c10e.jpg,아이엠피자,99,,110,피자,37.82531108
서울,99,1,함평국밥,127.0892169,서울 중랑구 봉우재로33길 73,오전 11:30오픈 오후 10시 마감,,1,일요일,2149,6460347d4dbf46ec9560e483a2aefbd4.jpeg,함평국밥,2,,109,국밥/비빔밥,37.59547032
경기,2,"01,99",105-1호,126.929995,경기 군포시 산본천로 56,8:30~19:30,,1,,15865,,테그42,1,,108,,37.3604095
강원,2,"01,02",실비생선구이,128.8282113,강원 강릉시 주문진읍 해안로 1721,08:00~21:00,,1,연중무휴,25418,5f87acc4ecdd45548e7127b5221210b3.jpg,실비생선구이,3,,107,,37.88866265
경기,1,1,폴리프라자1층 cafeOTDN,127.259358,경기 안성시 아양1로 61,11시~21시,,1,매주일요일/매달첫번째토요일,17577,cc6d69edd723456399eb63ca299e88dc.jpg,카페오티디엔(cafeOTDN),2,,105,,37.00762384
경기,,,1층 일파스토,127.248056,경기 남양주시 호평로68번길 5,,,1,,12151,,일파스토,,,104,,37.65581082
경기,99,"01,02,99",상가동101호 ,126.7741591,경기 파주시 후곡로 77,오전11시30분 -오후9시,국가유공자 본인,1,매주 월요일,10918,45c5496910c74a3e9c64793a1f973251.jpg,더착한한우갈비탕,1,,103,갈비탕 6천원,37.74957342
경기,99,1,1층 옹쓰온,127.0848931,경기 평택시 통복시장로13번길 5,12:00~20:00,,99,월요일 휴무,17893,,옹쓰온,1,,102,캔들 원데이 클래스,36.99663649
서울,99,"01,02",201호 육회지존,126.8588797,서울 구로구 남부순환로97길 20-7,16:30~익일 02:00,,1,별도공지,8328,a0eeb1005b7140d2a8afc793d89f5f18.jpg,육회지존(개봉역점),99,가족 구성원 전부 가능,101,"육회비빔밥,연어장덮밥,외 모든 식사류",37.49391885
서울,1,"01,02",1층 교촌치킨 쌍문역점,127.0356034,서울 도봉구 도봉로 505,12:00 ~ 01:00,,1,,1442,77166023ca9a479ebdaa2439a075e6c6.jpg,교촌치킨 쌍문역점,3,,100,,37.65072874
전북,99,"01,02",카페 테리어,126.9474531,전북 익산시 황등면 황등중앙로 21,11:00~21:00,,1,,54533,1875f263d684402d9729cf7ef654f7ed.png,테리어,99,본인,99,1인 1음료,35.99598655
경기,99,1,1층,127.2119119,경기 하남시 하남대로802번길 68,11:00~20:30,,1,매주 일요일 고정휴무,12950,e5f0c7bb19c64a669ae98a6572f1b6e7.jpg,용갈집,2,,98,일반 갈비탕,37.54216498
경기,1,"01,02,99",바나나래빗,126.7931526,경기 시흥시 대은로 10,11시 - 24시 (거리두기 단계따라 다름),"경찰, 군인",1,월 1회,14919,a8beebd29e834469b5f5a2359caa66b0.jpg,바나나래빗,2,,97,,37.43981824
경기,1,1,로얄클래스 1층 104호,127.0971077,경기 화성시 동탄오산로 86-8,10:00~09:00,,1,,18478,3f9b27efac084e489f18d37cefd2a429.jpg,정직한김밥,99,무관,96,,37.19786905
울산,99,"01,02",1층 ,129.301065,울산 남구 문수로435번길 16,10:30~20:00,,99,매주 월요일,44655,68769cea9add4ee5a4c78cc115fa5e8a.jpg,열펌공화국with아미,1,,95,컷트 무료  펌.염색 50%,35.5348706
경기,99,1,2층 스트릿츄러스 롯데몰수원점,126.9972938,경기 수원시 권선구 세화로 134,10:30~22:00,,1,없음,16621,,스트릿츄러스 롯데몰수원점,2,,94,츄러스1+음료 또는 아이스크림,37.26417795
광주,1,"01,02",1층 웅이네식탁,126.90949,광주 남구 백서로 4-2,10시주터 새벽2시,,1,,61661,9436838e28fe42dd88f6b9263d190597.jpg,웅이네식탁,99,상관안함,93,,35.13549695
충북,1,,빅토리해빗 커피 로스터즈,127.4982273,충북 진천군 덕산읍 덕금로 723,10:30-09:00,,1,연중무휴,27856,24db5ad9f0f54d38bf12e1abb7eb484f.jpg,빅토리해빗 커피 로스터즈,1,,92,,36.90977282
경기,1,"01,02,99",101동 2215호,127.190411,경기 하남시 아리수로 570,오전 9시 ~ 오후 11시 50분,그외의 어려운 모든 이웃,2,"명절, 방학 중 특정 2 ~ 3일",12913,,박샘의 수학교실,2,,91,,37.56681503
부산,1,1,,129.0263345,부산 중구 중구로47번길 30,am10~pm7:30,,1,"2,4째 일욜휴무",48977,76449236d6b4469da9b2e937e8362007.jpg,양산집,2,,90,,35.10230787
인천,99,"01,02,99","215호, 인하대학교김현태인하드림센터",126.6515423,인천 미추홀구 인하로 100,"주중, 주말 협의 가능","생활보호대상자, 무상 교육 필요한 자",2,"주중, 주말 협의 가능",22212,b153d27a32ab4d41bc7fdf9cdb640a81.jpg,(주)대명테크놀로지,2,,89,"컴퓨터 교육, 3D 프린팅, CAD",37.45144803
대구,1,1,정직유부매천점,128.5468454,대구 북구 매전로 78,월ㅡ금 오전10시ㅡ오후8시  토요일 오전8시30ㅡ오후5,,1,매주 일요일,41471,,정직유부 매천점,1,,88,,35.91258568
경기,99,,M타워 3층 305호 생고기제작소,127.0927954,경기 양주시 회천남로 88,오후4~새벽2시,,1,없음,11473,113d689235a440ad927b21f0ca15b6ba.jpg,생고기제작소 양주옥정점,99,18살미만 카드소지자본인외형제자매해당,87,소고기+삽겹살 한판+공기밥+음료,37.81854831
경북,1,1,102호,129.40023,경북 포항시 북구 천마로72번길 30,"월-금 11시~8시, 토4시",,1,월-금 3-4시,37589,ff82593e84ff48e8be5759bbbfbdfad2.jpg,미상주먹김밥 포항점,1,,86,,36.08289364
서울,,,B1,126.8706157,서울 양천구 목동서로 213,,,1,,7995,,한옥안동국시,,,85,,37.52801699
경북,1,1,찬디미방,128.1557759,경북 상주시 동수로 144,오후3시~7시 30분,,1,공휴일. 토요일. 일요일,37169,05d2378ff8184f48b59dad7719482193.jpg,찬디미방,1,,84,,36.42218036
서울,99,1,투썸플레이스  금호하이리버점,127.0245531,서울 성동구 금호로 105,8~23시,,99,없음,4728,fe855ad33ae64f6abe0e246a43acd983.jpg, 투썸플레이스  금호하이리버점,1,,83,샌드위치류. 브레드류. 음료류. 케익,37.55237636
대전,99,1,1층 리보피체리아,127.3923204,대전 서구 탄방동 60-4,평일 11시~22시 일요일 11시~21시,,1,"3시~5시 브레이크 타임 , 월요일휴무",35257,,리보피체리아,1,,82,피자 or 파스타 택1,36.34340852
서울,1,"01,02,99",1층 카페단발소녀,126.9197235,서울 은평구 응암로 285,11~21,국가유공자,1,,3454,cfd1a1784ae04d8097b1242485df2a8f.jpg,단발소녀,1,,81,,37.5971843
울산,1,2,2층 리베라뷰티,129.3327953,울산 남구 왕생로66번길 15,10:00~20:00,,99,,44703,fc057ed9f2cd400b99a3d341a6203810.jpeg,리베라뷰티,1,,80,,35.53983077
울산,99,1,고집센그집갈비탕 야음점,129.3328437,울산 남구 신선로 187,11:30~21:00,,1,매주 일요일,44752,671f2c275ea44881bebc7c12751582d4.jpg,고집센그집갈비탕 울산야음점,2,,79,갈비탕,35.52279801
경북,99,,참뼈양덕점,129.3972174,경북 포항시 북구 천마로 84,10시-22시,,1,"둘째,  넷째 화요일",37589,2c502342f79e49b199301f16a082659a.jpg,참뼈양덕점,1,,78,뼈해장국,36.08406353
경기,1,"01,02",1층102호,127.1330293,경기 평택시 현촌3길 22-13,오전10시,,3,무,17869,c27f2ea130a2405cbee0c7606c79b1fd.jpeg,사진공간 #3,99,가족,77,,37.00146184
전북,99,1,3호,127.1432165,전북 전주시 완산구 태평5길 47,10:00~18:00,,1,매주 일요일,54996,9715647c6da246f88ea30347b836d968.png,샘별방앗간,1,,76,소매떡 중 1인2팩,35.82473632
경기,99,1,1층 대디스오피스,126.754701,경기 고양시 일산서구 하이파크3로 6,11:00-22-20,,1,3:00-4:30,10236,ba494d77a34d4d8db7995c42a0042b26.jpeg,대디스오피스,99,"대상자본인(결식아동, 소방관)",75,레귤러피자 무료,37.692547
경기,1,"01,02",상가 105호,126.9740618,경기 화성시 봉담읍 참샘길 33,평일  11:00~20:00,,1,일요일,18321,5635f3d894174895b5eae52ff3d0d4e2.jpg,트위스트꽈배기,2,,74,,37.21461293
경기,1,1,애비뉴8번가 105호,126.9529839,경기 수원시 권선구 금곡로197번길 18-24,오전 11시 ~ 오후 11시,,1,없음,16391,108676c6d98a4d7382e3d0dd7883d942.png,돌배기집 수원호매실점,1,,73,,37.27467515
경기,1,1,106호몽쁘띠,126.662923,경기 김포시 김포한강2로 262,오전10.30~오후7시,,1,매즌 토.일.공휴일,10082,dc45dc6814d74c4c8fcfc325bb3755c4.jpg,몽쁘띠,2,,72,,37.64818299
울산,1,1,1층3호,129.3218867,울산 중구 시계탑거리 19,11:00~20:30,,1,없음,44531,5e97507da8f749509a3907a8d20eeeca.jpg,뚠뚠이돈가스,1,,71,,35.55439881
대구,99,1,삼우티앤지빌딩 1층 서가커피,128.5164772,대구 달서구 조암남로 172-12,08:00~22:00,,1,매주 일요일,42761,0f7438b378304ba397b7df2e48b39197.jpg,서가커피,2,,70,"인당 음료1잔, 디저트 1개",35.81607742
경북,1,1,2층,129.2248954,경북 경주시 광중길 24,11시 ~ 21시 30분,,1,매주 화요일,38070,a30062741432498abd90dc04a7b2abcb.jpg,일공공샤브 경주용강점,2,,69,,35.88020687
경기,99,1,1층 아이엔맘 ,127.0349263,경기 의정부시 가능동 671-19,10시~5시,,1,주말.공휴일,11681,d45cd32e89b141d18548f8c7084ce834.jpg,아이엔맘,2,,68,마카롱10구1팩,37.74924547
경북,1,1,1층,129.3377395,경북 포항시 남구 형산강북로 99,11시 ~ 21시 30분,,1,매주 화요일,37836,bc10d54b16974defa9a4f99fd1f34ec7.jpg,효자동샤브칼국수,2,,67,,36.00487522
서울,99,,다른타워 8층 법률사무소 서화담,127.0396507,서울 강남구 학동로 335,09시 ~ 18시,,99,"토요일, 일요일, 관공서 공휴일 등",6060,,법률사무소 서화담,1,,64,급식카드소지학생대상법률서비스,37.51698816
서울,1,1,1층,126.9457978,서울 서대문구 홍은동 48-106,11:00-22:00,,1,없음,3616,d11c3e0d92324dafaef953528248361b.jpg,싸움의고수,2,,63,,37.59387089
서울,2,1,그랜드아이파크 1층/2층,126.8512924,서울 강서구 화곡로 347,오전08:00~오후11:00,,1,연중무휴,7649,b7511b8423534f0195de65e7d8c80470.png,투썸플레이스강서구청점,1,,62,,37.55483518
대구,99,"01,02",1층 뒷편,128.5103495,대구 달서구 이곡동로 73,17시~22시,,1,매주 월요일,42620,,이춘봉치킨 이곡점,1,,61,대표메뉴-이춘봉참숯바베큐,35.85450819
서울,99,1,1층 테그42,127.1422553,서울 강동구 양재대로 1571,10:00~21:00,,1,없음,5314,790c34ea0f574e969d29400430a6e8fa.jpeg,테그42 강동홈플러스점,1,,60,토스트 와 음료,37.54571459
서울,2,"01,02",모두의주방 1호 까사피에스타,126.9049457,서울 영등포구 도신로29사길 3,09:00-20:50,,1,"연중무휴, 16:00-17:00 쉬는시간",7368,d2bc1a7e929540f881a4418f3d72f270.jpg,까사피에스타 영등포점,2,,59,,37.51018327
서울,99,1,모두의주방 5호 홍대돈부리,126.9049457,서울 영등포구 도신로29사길 3,09:00-20:50,,1,연중무휴,7368,c8d89272273b4e8e9279f1d9ca0e8bf0.jpg,홍대돈부리 영등포점,2,,58,"가츠동, 믹스가츠동, 가라아게동, 규",37.51018327
경기,99,1,현해프라자 107호,126.7539684,경기 고양시 일산서구 하이파크2로 42,09:00~21:00,,1,매주 일요일 휴무,10234,6acfab4e821e41a7bb2b5a85037901bf.jpg,이샘반찬,1,,57,"반찬,국",37.69906825
서울,99,1,2층 201호 두두리두팡,126.9078092,서울 마포구 월드컵로23길 18,매주 금토일 오후12시~18시(조기품절시 조기마감),,1,매주 월화수목 휴무,4011,6936d260e4bb449aab4f39b743517e7f.jpeg,두두리두팡,1,,56,1메뉴(케이크/제과 모두포함) 1음료,37.55709127
경기,99,1,101호 ,126.6287001,경기 김포시 양촌읍 양곡2로60번길 26,10월 06일,,1,공휴일,10060,74637ce6e83449349bcc940a28ea95a6.jpeg,마음드린케이크,1,,55,생일케이크,37.65661017
대구,99,1,102호,128.5268133,대구 달서구 조암로 29,9시부터22시까지,,1,없음,42757,bce208a3e8bc43d289c75d62815ebc1a.jpg,던킨,2,,54,음료1도넛1,35.82455397
경북,1,1,나동 1층,128.3478988,경북 구미시 송원서로6길 42-7,11월 02일,,1,연중무휴,39232,,심여사천북양념통닭 2호점,2,,52,,36.12306272
광주,2,1,다연닭갈비,126.8140446,광주 광산구 운남동 787-5,오전11시30분~오후10시,,1,매주월요일,62326,,다연닭갈비,,,51,,35.17458007
대구,1,1,스펜트럼시티 3층 301호,128.5897547,대구 북구 칠성동2가 20-1,오전11:30~오후8:00,,1,매주일요일,41593,4a95ceeeb1bc4ffb955254d13a0577a4.jpg,봉대박스파게티 침산이마트점,1,,49,,35.88507266
전북,99,"01,02",1층 시온사진관,126.7453815,전북 군산시 백릉로 174,(월 ~ 토) 10:00 ~ 19:00,,3,"일요일, 공휴일",54074,2fe4b8853ba84f46a021be5bcbb25213.png,시온사진관,1,,48,,35.97549409
경기,1,1,파스타아미고,127.1490143,경기 구리시 벌말로70번길 67,11:00~21:00,,1,평일 15:20~16:50 (브레이크타임),11960,,파스타아미고,2,,47,,37.58535545
경기,1,1,1층 102호 그렇게 함박이 된다,127.0150521,경기 수원시 팔달구 향교로 138,11:00~21:00(주문마감 20:00),,1,15:00~16:30 (주문마감 14:00),16463,8db9a5c15e7f4d1c9c8075374e91fe6d.jpg,그렇게함박이된다,2,,46,,37.2730348
서울,99,"01,02",장금수부대찌개양재점 ,127.0409967,서울 서초구 강남대로30길 73-3,오전11시 오후9시30,,1,일요일  구정 신정  추석  전일 당일,6741,53491f2f56b5406c8307590061905b75.jpg,장금수부대찌개양재점 ,2,,44,부대찌개 ,37.48287579
대전,99,1,1층,127.3042378,대전 유성구 지족동 1018-8,11~23,,1,17시30~19시,34070,6e63efaf6fcf4d0d9e444677c14c3a89.jpg,꿈커피앤세계맥주,2,,43,주류제외 모든메뉴,36.38655935
경기,1,1,1층 한남동 그집 백석역점,126.7885863,경기 고양시 일산동구 강송로73번길 53-11,17:00~02:00,,1,매주 월요일,10446,,한남동그집 백석역점,3,,42,,37.64461666
경기,99,1,1층 꿈꾸는아뜰리에미술교습소,127.0569956,경기 의정부시 경의로193번길 12,1시30분~7시,,2,"주말, 공휴일",11728,761dbec5fbc54482a01e59e495d7e979.jpg,꿈꾸는아뜰리에미술교습소,1,,41,아동미술 주1회 90분,37.73388409
경기,1,1,"102호, 타니예르",127.0736804,경기 용인시 기흥구 서천서로12번길 4-2,0800-2000,,1,,17105,,타니예르,1,,40,,37.24060745
경기,,,2층,126.7999147,경기 부천시 삼작로346번길 4,,,2,,14462,,아이탑컴퓨터학원,,,39,,37.5197126
광주,99,1,1층 참치전문점 무명,126.8765235,광주 북구 양산동 810,11:30~23:30,,1,매주일요일휴무 휴게시간14시~17시,61071,,무명,2,,37,모듬초밥&수제돈까스,35.21067221
강원,1,1,또봉이통닭 ,129.3355065,강원 삼척시 원덕읍 호산중앙로 13,2~~12시,,1,없음,25961,,또봉이통닭 ,1,,36,,37.1745725
경기,99,1,1층,126.8885586,경기 고양시 덕양구 신원로2길 62,11시~24시,,1,월요일 휴무,10570,,델리지오소,3,,35,모든 파스타 제공,37.66100006
경기,2,1,교동짬뽕,127.0351161,경기 화성시 경기대로 1027,오전 11시 ~ 오후 9시,,1,없음,18412,,교동짬뽕,2,,34,,37.20748912
경기,1,1,쎄미치킨,127.4428704,경기 이천시 서희로 52,오후2시 - 오후 11시30분,,1,매주일요일,17374,,쎄미치킨1989,3,,33,,37.28010476
충남,99,"01,99",1층 계릴라도리탕(쌍용점),127.119014,충남 천안시 서북구 쌍용13길 12,17:00~01:00,결식아동제공후 추후에 소방관,1,연중무휴,31172,cb6330ecf17d48f88db095cd428d7f28.jpg,계릴라도리탕(쌍용점),2,,32,닭도리탕(반마리) 또는 옛날통닭,36.80036306
서울,1,1,2층 212호 양평해장국,126.8343276,서울 강서구 공항대로 242,매일 09 : 00 ~ 21 : 00,,1,"휴무시간 업음, 휴무일 설, 추석 연휴 ",7805,a73f0a82b961448ba0a5f068bfc1d3b7.png,양평해장국 강서마곡점,99,동반자 모두,31,,37.5584802
서울,99,"01,02",전원빌딩 2층 진짜파스타,126.9232713,서울 마포구 와우산로 64,화~일 11:30 ~ 21:00,,1,15:30~16:30 월요일 휴무,4067,,진짜파스타,2,,30,전메뉴 2만원 이내 제공,37.55021997
서울,99,1,805호,126.9677763,서울 용산구 새창로 217,6:30-22:00,,99,"법정공휴일, 주말",4376,8595f5ee5594457aaae9a3c8228ca59d.jpg,아힘사 요가&명상,2,,29,요가 일반 수련,37.53021668
제주,1,1,1층 어셈블헤어,126.4750995,제주특별자치도 제주시 정존7길 3,11:00~20:00,,3,"없음, 예약제",63102,,어셈블헤어,1,,28,,33.48368906
인천,1,1,카페요일,126.6532591,인천 서구 세자봉로 140,오전9시~오후10시,,1,,22608,,카페요일,3,,27,,37.61448998
제주,99,1,찰리스,126.369609,제주특별자치도 서귀포시 예래로 454,11:30 - 20:00  15-17시 브레이크타임,,1,일월 휴무,63538,,찰리스,2,,26,스테이크제외 모든 메뉴,33.23536344
서울,1,"01,02",1층,127.0810183,서울 중랑구 공릉로12가길 29,평일 1시 - 12시  주말 11시 - 12시,,1,없음,2019,,쌀똑핫도그 태릉점,1,,25,,37.61727613
인천,99,"01,99",2층 으뜸플러스안경,126.6788917,인천 연수구 용담로 129,오전10시부터 오후10시까지,급식카드소지자,3,연중무휴 (명절당일만휴무),21929,0089d3725f53445c80167e39ebb23db8.jpg,으뜸플러스안경 인천연수점,1,,24,"안경테,안경렌즈 포함 5만원, 연1회",37.41419268
서울,,,2f,126.8568023,서울 강서구 화곡동 822-20,non,,99,non,7738,,(주)지니글로벌네트웍스,,,23,,37.53443312
경기,2,1,1층 코히고항,127.0211117,경기 수원시 권선구 세류동 1077-4,11:00~9:00 (포장 밤12시까지),,1,"정기휴무일 없음 (설날2일,추석2일,신정 휴무) ",16580,ea1e253d87cc4198b776de8090e59bfb.jpg,코히고항,1,,22,,37.25608555
부산,99,"01,02",1층카페/2층사진관,129.0649162,부산 부산진구 서전로47번길 52,오후11시 - 오후9시,,99,인스타그램 별도 공지,47242,9e71496a43624079a9756679859d32bb.png,호텔필름/파트오브뮤라섹,99,사진관은 본인만/카페는 동반 1인,21,기본 증명사진/여권사진/음료메뉴,35.16013546
경남,99,,버거인뉴욕,128.6801489,경남 창원시 성산구 외동반림로248번길 5,10:30 - 21:00,,1,없음,51428,,버거인뉴욕,1,,20,뉴욕버거세트,35.23901134
경남,99,1,1층 OJY  Beauty House,128.8973373,경남 김해시 김해대로2471번길 8,월~토 오전10~오후8시,,99,매주 일요일 ,50934,6ad39d97f4a246598a601b0a6092c94b.jpg,O · J Y Beauty House,1,,19,"커트 무료 , 커트제외전시술50%",35.22870084
경남,2,"01,02",148호 카페두다,128.6848845,경남 창원시 성산구 창원대로 888,07:00~21:00,,1,일요일,51532,,카페 두번째다락방 두다,2,,18,,35.20879388
인천,99,"01,02",휴먼빌딩 102호 냠냠족발,126.7086594,인천 남동구 남동대로702번길 25,16시~24시,,1,매주 수요일,21577,c23eb201da984f2584292a85dc145f60.jpg,냠냠족발&보쌈 구월점,1,,17,싱글세트,37.44507643
전북,1,"01,02,99",상가 101호,127.1113605,전북 전주시 완산구 홍산북로 83,월 오전 11시 ~ 오후 6시/ 화~금 오전 7시반 ~ 오후 6시/ 토 오전 10시 ~ 오후 6시,소방공무원은 50% 할인,1,"공휴일, 매주 일요일 휴무",54969,c903bb7a61904fa5bbe49277e8debe22.jpg,카페더헤링본,3,,16,,35.81835354
서울,2,1,1층 EYE OH,126.9273951,서울 서대문구 신촌로 1,10:00~21:00,,99,없음,3785,,아이오안경원,1,,15,,37.55887396
